id,GIS ObjectID,InfrastID,WBS,Code,Funding comment,Portfolio,Category,Subcategory,Project Name,Project Description,Project Priority,Funding Needed,address,From,To,LATITUDE,LONGITUDE,Quadrants,NE Quadrant,NW Quadrant,SE Quadrant,SW Quadrant,Quadrant Factor,Quadrant Funding Estimated,CD,CD 1,CD 2,CD 3,CD 4,CD 5,CD 6,CD 7,CD 8,CD 9,CD 10,CD 11,CD 12,CW,CD Funding Factor,CD Funding Estimated,NPU 1,NPU 2,NPU 3,NPU 4,NPU 5,Neighborhood 1,Neighborhood 2,Neighborhood 3,Neighborhood 4,Neighborhood 5,Neighborhood 6,Neighborhood 7,Neighborhood 8,Neighborhood 9,Neighborhood 10,Neighborhood 11,Corridor 1,Corridor 2,Corridor 3,Secondary Corridor 1,Secondary Corridor 2,Secondary Corridor 3,Regional Employment Center,Priority and Sub Cat,Comments,Added,dropped,FIELD69,FIELD70,FIELD71,FIELD72,FIELD73
1,,,,,2016-PROGRAM,Javne povrsine i javni objekti,Javne povrsine,Prenesene obveze iz prethodnog razdoblja,Uredenje javne povrsine u Jagicevoj ulici,,,"667,598 kn",Jagiceva ulica 30,,,45.808725,15.959632,,,,,,,,,,,,,,,,,,,,,,1,"667,597.50",Gradenje,G,,,,Gradska cetvrt DONJI GRAD,Zona 1,,,,,,,,,,,,,,,,,,,,,,,,,
2,,,,,2016-PROGRAM,Javne povrsine i javni objekti,Javne povrsine,Prenesene obveze iz prethodnog razdoblja,Strucni nadzor nad izgradnjom fontane na pristupnom trgu u Jagicevoj,,,"15,000 kn",Jagiceva ulica 31,,,45.808749,15.959763,,,,,,,,,,,,,,,,,,,,,,1,"15,000.00",Nadzor,N,,,,Gradska cetvrt DONJI GRAD,Zona 1,,,,,,,,,,,,,,,,,,,,,,,,,
3,,,,,2016-PROGRAM,Javne povrsine i javni objekti,Javne povrsine,Nove obveze,Rekonstrukcija fontane na Trgu kralja Tomislava,,,"1,700,000 kn",Trg kralja Tomislava,,,45.806349,15.977984,,,,,,,,,,,,,,,,,,,,,,1,"1,700,000.00",Gradenje,G,,,,Gradska cetvrt DONJI GRAD,Zona 1,,,,,,,,,,,,,,,,,,,,,,,,,
4,,,,,2016-PROGRAM,Javne povrsine i javni objekti,Javne povrsine,Nove obveze,Uredenje Trga kralja Tomislava,,,"1,200,000 kn",Trg kralja Tomislava,,,45.806349,15.977984,,,,,,,,,,,,,,,,,,,,,,1,"1,200,000.00",Gradenje,G,,,,Gradska cetvrt DONJI GRAD,Zona 1,,,,,,,,,,,,,,,,,,,,,,,,,
5,,,,,2016-PROGRAM,Javne povrsine i javni objekti,Javne povrsine,Prenesene obveze iz prethodnog razdoblja,Uredenje Parka Gric,,,"2,731,266 kn",Park Gric,,,45.814685,15.971967,,,,,,,,,,,,,,,,,,,,,,1,"2,731,265.63",Gradenje,G,,,,Gradska cetvrt GORNJI GRAD - MEDVESCAK,Zona 1,,,,,,,,,,,,,,,,,,,,,,,,,
6,,,,,2016-PROGRAM,Javne povrsine i javni objekti,Javne povrsine,Prenesene obveze iz prethodnog razdoblja,Strucni nadzor nad uredenjem Parka Gric,,,"12,500 kn",Park Gric,,,45.814685,15.971967,,,,,,,,,,,,,,,,,,,,,,1,"12,500.00",Nadzor,N,,,,Gradska cetvrt GORNJI GRAD - MEDVESCAK,Zona 1,,,,,,,,,,,,,,,,,,,,,,,,,
7,,,,,2016-PROGRAM,Javne povrsine i javni objekti,Javne povrsine,Prenesene obveze iz prethodnog razdoblja,Koordinator zastite na radu II za uredenje Parka Gric,,,"5,800 kn",Park Gric,,,45.814685,15.971967,,,,,,,,,,,,,,,,,,,,,,1,"5,800.00",,,,,,Gradska cetvrt GORNJI GRAD - MEDVESCAK,Zona 1,,,,,,,,,,,,,,,,,,,,,,,,,
8,,,,,2016-PROGRAM,Javne povrsine i javni objekti,Javne povrsine,Prenesene obveze iz prethodnog razdoblja,Izrada projektne dokumentacije za rekonstrukciju Aleksandrovih stuba,,,"25,000 kn",Aleksandrove stube,,,45.814799,15.969103,,,,,,,,,,,,,,,,,,,,,,1,"25,000.00",Tehnicka dokumentacija,TD,,,,Gradska cetvrt GORNJI GRAD - MEDVESCAK,Zona 1,,,,,,,,,,,,,,,,,,,,,,,,,
9,,,,,2016-PROGRAM,Javne povrsine i javni objekti,Javne povrsine,Nove obveze,Izrada tehnicke dokumentacije za uredenje Parka Gric,,,"100,000 kn",Park Gric,,,45.814685,15.971967,,,,,,,,,,,,,,,,,,,,,,1,"100,000.00",Tehnicka dokumentacija,TD,,,,Gradska cetvrt GORNJI GRAD - MEDVESCAK,Zona 1,,,,,,,,,,,,,,,,,,,,,,,,,
10,,,,,2016-PROGRAM,Javne povrsine i javni objekti,Javne povrsine,Nove obveze,Izgradnja kanalizacije na Strossmayerovom setalistu,,,"400,000 kn",Strossmayerovo setalistue,,,45.814555,15.973066,,,,,,,,,,,,,,,,,,,,,,1,"400,000.00",Gradenje i nadzor,"G,N",,,,Gradska cetvrt GORNJI GRAD - MEDVESCAK,Zona 1,,,,,,,,,,,,,,,,,,,,,,,,,
11,,,,,2016-PROGRAM,Javne povrsine i javni objekti,Javne povrsine,Nove obveze,Krajobrazno uredenje Parka Ribnjak - I faza,,,"1,350,000 kn",Park Ribnjak,,,45.816883,15.980179,,,,,,,,,,,,,,,,,,,,,,1,"1,350,000.00",Gradenje,G,,,,Gradska cetvrt GORNJI GRAD - MEDVESCAK,Zona 1,,,,,,,,,,,,,,,,,,,,,,,,,
12,,,,,2016-PROGRAM,Javne povrsine i javni objekti,Javne povrsine,Prenesene obveze iz prethodnog razdoblja,Strucni nadzor nad uredenjem prostora uz Ulicu hrvatske bratske zajednice -II faza,,,"110,000 kn",Ulica hrvatske bratske zjednice,,,45.840573,15.990517,,,,,,,,,,,,,,,,,,,,,,1,"110,000.00",Nadzor,N,,,,Gradska cetvrt TRNJE,Zona 1,,,,,,,,,,,,,,,,,,,,,,,,,
13,,,,,2016-PROGRAM,Javne povrsine i javni objekti,Javne povrsine,Prenesene obveze iz prethodnog razdoblja,Uredenje prostora u Ulici hrvatske bratske zajednice -II faza,,,"30,781,722 kn",Ulica hrvatske bratske zjednice,,,45.840573,15.990517,,,,,,,,,,,,,,,,,,,,,,1,"30,781,721.60",Gradenje,G,,,,Gradska cetvrt TRNJE,Zona 1,,,,,,,,,,,,,,,,,,,,,,,,,
14,,,,,2016-PROGRAM,Javne povrsine i javni objekti,Javne povrsine,Prenesene obveze iz prethodnog razdoblja,"Koordinator zastite na radu II za vrijeme uredenje prostora uz 
Ulicu hrvatske bratske zajednice - II faza",,,"12,250 kn",Ulica hrvatske bratske zjednice,,,45.840573,15.990517,,,,,,,,,,,,,,,,,,,,,,1,"12,250.00",,,,,,Gradska cetvrt TRNJE,Zona 1,,,,,,,,,,,,,,,,,,,,,,,,,
15,,,,,2016-PROGRAM,Javne povrsine i javni objekti,Javne povrsine,Nove obveze,Rekonstrukcija Parka 148. brigade HV,,,"2,280,000 kn",Park 148. brigade,,,45.800721,15.998245,,,,,,,,,,,,,,,,,,,,,,1,"2,280,000.00",Gradenje i nadzor,"G,N",,,,Gradska cetvrt TRNJE,Zona 2,,,,,,,,,,,,,,,,,,,,,,,,,
16,,,,,2016-PROGRAM,Javne povrsine i javni objekti,Javne povrsine,Prenesene obveze iz prethodnog razdoblja,Kvaternikov trg- nadstresnica-zimski vrt,,,"61,194 kn",Kvaternikov trg,,,45.815017,15.997478,,,,,,,,,,,,,,,,,,,,,,1,"61,194.38",Gradenje,G,,,,Gradska cetvrt MAKSIMIR,Zona 1,,,,,,,,,,,,,,,,,,,,,,,,,
17,,,,,2016-PROGRAM,Javne povrsine i javni objekti,Javne povrsine,Prenesene obveze iz prethodnog razdoblja,Izrada tehnicke dokumentacije za izmjestanje kriza sa hipodroma na prosirenje uz juzni nasip Save,,,"11,875 kn",Hipodrom,,,45.785678,15.964291,,,,,,,,,,,,,,,,,,,,,,1,"11,875.00",Tehnicka dokumentacija,TD,,,,Gradska cetvrt NOVI ZAGREB – ISTOK,Zona 2,,,,,,,,,,,,,,,,,,,,,,,,,
18,,,,,2016-PROGRAM,Javne povrsine i javni objekti,Javne povrsine,Povrat po ugovorima o financiranju,Krajobrazno uredenje zelenih povrsina u Ulici Nikole Andrica,,,"27,500 kn",Ulica Nikole Andrica,,,45.840573,15.990517,,,,,,,,,,,,,,,,,,,,,,1,"27,500.00",Gradenje,G,,,,Gradska cetvrt NOVI ZAGREB – ISTOK,Zona 2,,,,,,,,,,,,,,,,,,,,,,,,,
19,,,,,2016-PROGRAM,Javne povrsine i javni objekti,Javne povrsine,Nove obveze,Izrada tehnicke dokumentacije za uredenje prostora Bundek - Racinjak,,,"300,000 kn",Bundek,,,45.785378,15.987219,,,,,,,,,,,,,,,,,,,,,,1,"300,000.00",Tehnicka dokumentacija,TD,,,,Gradska cetvrt NOVI ZAGREB – ISTOK,Zona 2,,,,,,,,,,,,,,,,,,,,,,,,,
20,,,,,2016-PROGRAM,Javne povrsine i javni objekti,Javne povrsine,Nove obveze,Otkup zemljista na prostoru Bundek-Racinjak,,,"1,000,000 kn",Bundek,,,45.785378,15.987219,,,,,,,,,,,,,,,,,,,,,,1,"1,000,000.00",,,,,,Gradska cetvrt NOVI ZAGREB – ISTOK,Zona 2,,,,,,,,,,,,,,,,,,,,,,,,,
21,,,,,2016-PROGRAM,Javne povrsine i javni objekti,Javne povrsine,Prenesene obveze iz prethodnog razdoblja,Park Selska-Bastijanova-ugovor o prikljucenju za crpnu stanicu,,,"23,460 kn",,Selska,Bastijanova,45.811947,15.864572,,,,,,,,,,,,,,,,,,,,,,1,"23,460.00",,,,,,Gradska cetvrt TRESNJEVKA – SJEVER,Zona 2,,,,,,,,,,,,,,,,,,,,,,,,,
22,,,,,2016-PROGRAM,Javne povrsine i javni objekti,Javne povrsine,Prenesene obveze iz prethodnog razdoblja,Izgradnja parka na krizanju Selske i Bastijanove,,,"2,667,524 kn",,Selska,Bastijanova,45.811947,15.864572,,,,,,,,,,,,,,,,,,,,,,1,"2,667,524.27",Gradenje,G,,,,Gradska cetvrt TRESNJEVKA – SJEVER,Zona 2,,,,,,,,,,,,,,,,,,,,,,,,,
23,,,,,2016-PROGRAM,Javne povrsine i javni objekti,Javne povrsine,Ugovori o financiranju (stvarni trosak),Radovi na krajobraznom uredenju bloka Selska-Stubicka- Viteziceva-Bastijanova,,,"212,648 kn",,Selska,Stubicka,45.811947,15.864572,,,,,,,,,,,,,,,,,,,,,,1,"212,647.61",Gradenje,G,,,,Gradska cetvrt TRESNJEVKA – SJEVER,Zona 2,,,,,,,,,,,,,,,,,,,,,,,,,
24,,,,,2016-PROGRAM,Javne povrsine i javni objekti,Javne povrsine,Nove obveze,Nadzor nad izgradnjom parka na krizanju Selske i Bastijanove,,,"15,000 kn",,Selska,Bastijanova,45.811947,15.864572,,,,,,,,,,,,,,,,,,,,,,1,"15,000.00",Nadzor,N,,,,Gradska cetvrt TRESNJEVKA – SJEVER,Zona 2,,,,,,,,,,,,,,,,,,,,,,,,,
25,,,,,2016-PROGRAM,Javne povrsine i javni objekti,Javne povrsine,Nove obveze,Koordinator II nad izgradnjom parka na krizanju Selske i Bastijanove,,,"3,000 kn",,Selska,Bastijanova,45.811947,15.864572,,,,,,,,,,,,,,,,,,,,,,1,"3,000.00",,,,,,Gradska cetvrt TRESNJEVKA – SJEVER,Zona 2,,,,,,,,,,,,,,,,,,,,,,,,,
26,,,,,2016-PROGRAM,Javne povrsine i javni objekti,Javne povrsine,Prenesene obveze iz prethodnog razdoblja,Izrada projektne dokumentacije za uredenje parka izmedu Omiske ulice i Ćire Truhelke,,,"5,375 kn",,Omiska ulica,Ćiro Truhelka,45.792794,15.953147,,,,,,,,,,,,,,,,,,,,,,1,"5,375.00",Tehnicka dokumentacija,TD,,,,Gradska cetvrt TRESNJEVKA – JUG,Zona 2,,,,,,,,,,,,,,,,,,,,,,,,,
27,,,,,2016-PROGRAM,Javne povrsine i javni objekti,Javne povrsine,Nove obveze,Izrada tehnicke dokumentacije za uredenje Trga Franje Tudmana,,,"500,000 kn",Trg Franje Tudmana,,,45.667262,15.647106,,,,,,,,,,,,,,,,,,,,,,1,"500,000.00",Tehnicka dokumentacija,TD,,,,Gradska cetvrt CRNOMEREC,Zona 1,,,,,,,,,,,,,,,,,,,,,,,,,
28,,,,,2016-PROGRAM,Javne povrsine i javni objekti,Javne povrsine,Prenesene obveze iz prethodnog razdoblja,Krajobrazno uredenje odvojka Stenjevecke ulice od Ulice Kotarnica do produzene Ulice Antuna Soljana,,,"99,246 kn",,Stenjevecka ulice,Ulica Kotarnica,45.807867,15.887513,,,,,,,,,,,,,,,,,,,,,,1,"99,246.25",Gradenje,G,,,,Gradska cetvrt STENJEVEC,Zona 2,,,,,,,,,,,,,,,,,,,,,,,,,
29,,,,,2016-PROGRAM,Javne povrsine i javni objekti,Javne povrsine,Povrat po ugovorima o financiranju,Krajobrazno uredenje trgovackog centra Spansko,,,"49,342 kn",Slavenskog 1,,,45.815011,15.981919,,,,,,,,,,,,,,,,,,,,,,1,"49,341.68",,,,,,Gradska cetvrt STENJEVEC,Zona 2,,,,,,,,,,,,,,,,,,,,,,,,,
30,,,,,2016-PROGRAM,Javne povrsine i javni objekti,Javne povrsine,Prenesene obveze iz prethodnog razdoblja,Pothodnik Aleja grada Bologne – Stenjevec – izrada tehnicke dokumentacije za osiguranje pristupa osobama s invaliditetom,,,"90,000 kn",Aleja grada Bologne,,,45.815011,15.981919,,,,,,,,,,,,,,,,,,,,,,1,"90,000.00",Tehnicka dokumentacija,TD,,,,Gradska cetvrt PODSUSED-VRAPCE,Zona 2,,,,,,,,,,,,,,,,,,,,,,,,,
31,,,,,2016-PROGRAM,Javne povrsine i javni objekti,Javne povrsine,Prenesene obveze iz prethodnog razdoblja,Izrada tehnicke dokumentacije za izgradnju polivalentnog sportskog igralista na Bizeku,,,"13,500 kn",Bizek,,,45.825979,15.856629,,,,,,,,,,,,,,,,,,,,,,1,"13,500.00",Tehnicka dokumentacija,TD,,,,Gradska cetvrt PODSUSED-VRAPCE,Zona 2,,,,,,,,,,,,,,,,,,,,,,,,,
32,,,,,2016-PROGRAM,Javne povrsine i javni objekti,Javne povrsine,Nove obveze,Izgradnja nadstresnica na podrucju Grada Zagreba,,,"2,300,000 kn",,,,,,,,,,,,,,,,,,,,,,,,,,,1,"2,300,000.00",Gradenje,G,,,,OSTALO,,,,,,,,,,,,,,,,,,,,,,,,,,
33,,,,,2016-PROGRAM,Javne povrsine i javni objekti,Javne povrsine,Nove obveze,Krajobrazno uredenje zelenih povrsina na podrucju Grada Zagreba,,,"10,474,826 kn",,,,,,,,,,,,,,,,,,,,,,,,,,,1,"10,474,826.08",Gradenje,G,,,,OSTALO,,,,,,,,,,,,,,,,,,,,,,,,,,
34,,,,,2016-PROGRAM,Javne povrsine i javni objekti,Javne povrsine,Nove obveze,Otkup nekretnina u Ulici Pavlinski put,,,"500,000 kn",Ulica Pavlinski put,,,45.840573,15.990517,,,,,,,,,,,,,,,,,,,,,,1,"500,000.00",,,,,,OSTALO,Zona 2,,,,,,,,,,,,,,,,,,,,,,,,,
35,,,,,2016-PROGRAM,Javne povrsine i javni objekti,Javne povrsine,Nove obveze,Izrada projektne dokumentacije za krajobrazno uredenje zelenih povrsina na podrucju Grada Zagreba,,,"86,250 kn",,,,,,,,,,,,,,,,,,,,,,,,,,,1,"86,250.00",Tehnicka dokumentacija,TD,,,,OSTALO,,,,,,,,,,,,,,,,,,,,,,,,,,
36,,,,,2016-PROGRAM,Javne povrsine i javni objekti,Javne povrsine,Nove obveze,Strucni nadzor nad krajobraznim uredenjem zelenih povrsina na podrucju Grada Zagreba,,,"18,125 kn",,,,,,,,,,,,,,,,,,,,,,,,,,,1,"18,125.00",Nadzor,N,,,,OSTALO,,,,,,,,,,,,,,,,,,,,,,,,,,
37,,,,,2016-PROGRAM,Javne povrsine i javni objekti,Javne povrsine,Nove obveze,Izrada projektne dokumentacije za nadstresnice na podrucju Grada Zagreba,,,"150,000 kn",,,,,,,,,,,,,,,,,,,,,,,,,,,1,"150,000.00",Tehnicka dokumentacija,TD,,,,OSTALO,,,,,,,,,,,,,,,,,,,,,,,,,,
38,,,,,2016-PROGRAM,Gradnja i rekonstrukcija nerazvrstanih cesta - razvoj prometne djelatnosti,Nerazvrstane ceste,Prenesene obveze iz prethodnog razdoblja,Gradnja i rekonstrukcija,,,"10,000,000 kn",,,,,,,,,,,,,,,,,,,,,,,,,,,1,"10,000,000.00",Gradenje,G,,,,OSTALO,,,,,,,,,,,,,,,,,,,,,,,,,,
39,,,,,2016-PROGRAM,Gradnja i rekonstrukcija nerazvrstanih cesta - razvoj prometne djelatnosti,Nerazvrstane ceste,Nove obveze,Radnicka cesta III. Etapa,,,"59,000,000 kn",Radnicka cesta,,,45.790226,16.031104,,,,,,,,,,,,,,,,,,,,,,1,"59,000,000.00",Gradenje,G,,,,OSTALO,,,,,,,,,,,,,,,,,,,21.12.2015,,,,,,,
40,,,,,2016-PROGRAM,Gradnja i rekonstrukcija nerazvrstanih cesta - razvoj prometne djelatnosti,Nerazvrstane ceste,Nove obveze,Radnicka cesta IV. Etapa,,,"3,000,000 kn",Radnicka cesta,,,45.790226,16.031104,,,,,,,,,,,,,,,,,,,,,,1,"3,000,000.00",Gradenje,G,,,,OSTALO,,,,,,,,,,,,,,,,,,,17.12.2015,,,,,,,
41,,,,,2016-PROGRAM,Gradnja i rekonstrukcija nerazvrstanih cesta - razvoj prometne djelatnosti,Nerazvrstane ceste,Nove obveze,Izrada studija i tehnicke dokumentacije,,,"5,000,000 kn",,,,,,,,,,,,,,,,,,,,,,,,,,,1,"5,000,000.00",Tehnicka dokumentacija,TD,,,,OSTALO,,,,,,,,,,,,,,,,,,,17.12.2015,,,,,,,
42,,,,,2016-PROGRAM,Gradnja i rekonstrukcija nerazvrstanih cesta po gradskim cetvrtima,Nerazvrstane ceste,Prenesene obveze iz prethodnog razdoblja,Ante Kovacica,,,"750,000 kn",Ante Kovacica,,,45.80866,15.976272,,,,,,,,,,,,,,,,,,,,,,1,"750,000.00",Gradenje,G,,,,Gradska cetvrt DONJI GRAD,,,,,,,,,,,,,,,,,,,,,,,,,,
43,,,,,2016-PROGRAM,Gradnja i rekonstrukcija nerazvrstanih cesta po gradskim cetvrtima,Nerazvrstane ceste,Prenesene obveze iz prethodnog razdoblja,Branimirova ulica od Zavrtnice do Heinzelove,,,"100,000 kn",,Branimirova ulica,Heinzelova ulica,45.805407,15.984358,,,,,,,,,,,,,,,,,,,,,,1,"100,000.00",Tehnicka dokumentacija,TD,,,,Gradska cetvrt DONJI GRAD,,,,,,,,,,,,,,,,,,,,,,,,,,
44,,,,,2016-PROGRAM,Gradnja i rekonstrukcija nerazvrstanih cesta po gradskim cetvrtima,Nerazvrstane ceste,Nove obveze,Branimirova ulica od Zavrtnice do Heinzelove,,,"200,000 kn",,Branimirova ulica,Heinzelova ulica,45.805407,15.984358,,,,,,,,,,,,,,,,,,,,,,1,"200,000.00",Tehnicka dokumentacija,TD,,,,Gradska cetvrt DONJI GRAD,,,,,,,,,,,,,,,,,,,,,,,,,,
45,,,,,2016-PROGRAM,Gradnja i rekonstrukcija nerazvrstanih cesta po gradskim cetvrtima,Nerazvrstane ceste,Nove obveze,Primorska ulica,,,"7,500,000 kn",Primorska ulica,,,45.810736,15.960924,,,,,,,,,,,,,,,,,,,,,,1,"7,500,000.00",Gradenje,G,,,,Gradska cetvrt DONJI GRAD,,,,,,,,,,,,,,,,,,,,,,,,,,
46,,,,,2016-PROGRAM,Gradnja i rekonstrukcija nerazvrstanih cesta po gradskim cetvrtima,Nerazvrstane ceste,Prenesene obveze iz prethodnog razdoblja,"Ulica Pod zidom, Opaticka ulica, autobusna stajalista u ulici Pantovcak i kod rotor-raskrizja...","Ulica Pod zidom, Opaticka ulica, autobusna stajalista u ulici Pantovcak i kod rotor-raskrizja Gornje Prekrizje - Pantovcak - Sestinski vijenac, ulica Zelengaj",,"241,875 kn",Ulica Pod zidom,,,45.840573,15.990517,,,,,,,,,,,,,,,,,,,,,,1,"241,875.00",Tehnicka dokumentacija,TD,,,,Gradska cetvrt GORNJI GRAD - MEDVESCAK,,,,,,,,,,,,,,,,,,,,,,,,,,
47,,,,,2016-PROGRAM,Gradnja i rekonstrukcija nerazvrstanih cesta po gradskim cetvrtima,Nerazvrstane ceste,Prenesene obveze iz prethodnog razdoblja,Radiceva ulica,,,"7,500,000 kn",Radiceva ulica,,,45.816516,15.975584,,,,,,,,,,,,,,,,,,,,,,1,"7,500,000.00",Gradenje,G,,,,Gradska cetvrt GORNJI GRAD - MEDVESCAK,,,,,,,,,,,,,,,,,,,,,,,,,,
48,,,,,2016-PROGRAM,Gradnja i rekonstrukcija nerazvrstanih cesta po gradskim cetvrtima,Nerazvrstane ceste,Prenesene obveze iz prethodnog razdoblja,Alagoviceva ulica,,,"2,400,000 kn",Alagoviceva ulica,,,45.826963,15.983414,,,,,,,,,,,,,,,,,,,,,,1,"2,400,000.00",Gradenje,G,,,,Gradska cetvrt GORNJI GRAD - MEDVESCAK,,,,,,,,,,,,,,,,,,,,,,,,,,
49,,,,,2016-PROGRAM,Gradnja i rekonstrukcija nerazvrstanih cesta po gradskim cetvrtima,Nerazvrstane ceste,Nove obveze,"Kozarska ulica, Ulica A.G. Matosa",,,"150,000 kn",,Kozarska ulica,Ulica A.G. Matosa,45.817873,15.975996,,,,,,,,,,,,,,,,,,,,,,1,"150,000.00",Tehnicka dokumentacija,TD,,,,Gradska cetvrt GORNJI GRAD - MEDVESCAK,,,,,,,,,,,,,,,,,,,,,,,,,,
50,,,,,2016-PROGRAM,Gradnja i rekonstrukcija nerazvrstanih cesta po gradskim cetvrtima,Nerazvrstane ceste,Nove obveze,Uredenje rotora u Bakacevoj ulici,,,"150,000 kn",Bakaceva ulica,,,45.813746,15.978503,,,,,,,,,,,,,,,,,,,,,,1,"150,000.00",Gradenje,G,,,,Gradska cetvrt GORNJI GRAD - MEDVESCAK,,,,,,,,,,,,,,,,,,,,,,,,,,
51,,,,,2016-PROGRAM,Gradnja i rekonstrukcija nerazvrstanih cesta po gradskim cetvrtima,Nerazvrstane ceste,Prenesene obveze iz prethodnog razdoblja,"Ulica Palic, V. Trnjanski nasip, Miramarska ulica, Drinska ulica...","Ulica Palic, V. Trnjanski nasip, Miramarska ulica, Drinska ulica, spojna prometnica Heinzelova - Radnicka cesta, Ulica Hrvatske bratske zajednice od Slavonske avenije do Trga Stjepana Radica, raskrizje Ulica grada Vukovara-Kruge, Radnicka cesta od Ulice grada Vukovara do Drziceve",,"80,000 kn",Ulica Palic,,,45.840573,15.990517,,,,,,,,,,,,,,,,,,,,,,1,"80,000.00",Tehnicka dokumentacija,TD,,,,Gradska cetvrt TRNJE,,,,,,,,,,,,,,,,,,,,,,,,,,
52,,,,,2016-PROGRAM,Gradnja i rekonstrukcija nerazvrstanih cesta po gradskim cetvrtima,Nerazvrstane ceste,Nove obveze,Ulica Dragice Hotko - Metelkova ulica - parkiraliste...,"Ulica Dragice Hotko - Metelkova ulica - parkiraliste, Koturaska cesta - od produzetka Plitvicke ulice na zapadu do Nove Unske na istoku, Nova Unska ulica - Dionica 2, Bednjanska ulica od Nove Unske na istoku do Plitvicke ulice na zapadu, ulica Palic-parkiraliste, Drziceva-nogostup-od Branimirove do autobusnog kolodvora, Nova Unska-dionica1, Plitvicka-od Sutlanske do Koturaske, Miramarska cesta, prosirenje Avenije Marina Drzica- od Autobusnog kolodvora do Vukovarske",,"300,000 kn",,Ulica Dragice Hotko,Metelkova ulica,45.79305,15.993769,,,,,,,,,,,,,,,,,,,,,,1,"300,000.00",Tehnicka dokumentacija,TD,,,,Gradska cetvrt TRNJE,,,,,,,,,,,,,,,,,,,,,,,,,,
53,,,,,2016-PROGRAM,Gradnja i rekonstrukcija nerazvrstanih cesta po gradskim cetvrtima,Nerazvrstane ceste,Nove obveze,Ulica Palic,,,"1,500,000 kn",Ulica Palic,,,45.840573,15.990517,,,,,,,,,,,,,,,,,,,,,,1,"1,500,000.00",Gradenje,G,,,,Gradska cetvrt TRNJE,,,,,,,,,,,,,,,,,,,,,,,,,,
54,,,,,2016-PROGRAM,Gradnja i rekonstrukcija nerazvrstanih cesta po gradskim cetvrtima,Nerazvrstane ceste,Prenesene obveze iz prethodnog razdoblja,"Veliki dol, Kosa I. odvojak, Prilesje...","Veliki dol, Kosa I. odvojak, Prilesje, raskrizje Maksimirske- Bele Cikosa, Fijanova, Kuhaceva, VIII. Pozarinje, Barutanski ogranak V.- ulica Rim-ulica Donji Rim, Remete, ulica Cret, raskrizje Bukovacka - Petrova -Prilesje - Spojna cesta 2",,"325,000 kn",Veliki dol,,,45.840573,15.990517,,,,,,,,,,,,,,,,,,,,,,1,"325,000.00",Tehnicka dokumentacija,TD,,,,Gradska cetvrt MAKSIMIR,,,,,,,,,,,,,,,,,,,,,,,,,,
55,,,,,2016-PROGRAM,Gradnja i rekonstrukcija nerazvrstanih cesta po gradskim cetvrtima,Nerazvrstane ceste,Ugovori o financiranju,Odvojak ulice I. Jordanovacki odvojak,,,"250,000 kn",I. Jordanovacki odvojak,,,45.825097,16.00108,,,,,,,,,,,,,,,,,,,,,,1,"250,000.00",Gradenje,G,,,,Gradska cetvrt MAKSIMIR,,,,,,,,,,,,,,,,,,,,,,,,,,
56,,,,,2016-PROGRAM,Gradnja i rekonstrukcija nerazvrstanih cesta po gradskim cetvrtima,Nerazvrstane ceste,Nove obveze,"Ulica Fakultetsko dobro, Kozjak, Mogilska...","Ulica Fakultetsko dobro, Kozjak, Mogilska, raskrizje ulice
 Jordanovac i Lascinske ceste, raskrizje Avenija Gojka Suska-Svetosimunska cesta-Ulica Stefanovec, Ulica Gospocak",,"205,000 kn",Ulica Fakultetsko dobro,,,45.825416,16.028109,,,,,,,,,,,,,,,,,,,,,,1,"205,000.00",Tehnicka dokumentacija,TD,,,,Gradska cetvrt MAKSIMIR,,,,,,,,,,,,,,,,,,,,,,,,,,
57,,,,,2016-PROGRAM,Gradnja i rekonstrukcija nerazvrstanih cesta po gradskim cetvrtima,Nerazvrstane ceste,Nove obveze,Ulica Fakultetsko dobro,,,"2,000,000 kn",Ulica Fakultetsko dobro,,,45.825416,16.028109,,,,,,,,,,,,,,,,,,,,,,1,"2,000,000.00",Gradenje,G,,,,Gradska cetvrt MAKSIMIR,,,,,,,,,,,,,,,,,,,,,,,,,,
58,,,,,2016-PROGRAM,Gradnja i rekonstrukcija nerazvrstanih cesta po gradskim cetvrtima,Nerazvrstane ceste,Nove obveze,Ulica Kozjak od k. br. 13 do 21,,,"170,000 kn",Ulica Kozjak,,,45.840573,15.990517,,,,,,,,,,,,,,,,,,,,,,1,"170,000.00",Gradenje,G,,,,Gradska cetvrt MAKSIMIR,,,,,,,,,,,,,,,,,,,,,,,,,,
59,,,,,2016-PROGRAM,Gradnja i rekonstrukcija nerazvrstanih cesta po gradskim cetvrtima,Nerazvrstane ceste,Nove obveze,Barutanski ogranak V. - ulica Rim - ulica Donji Rim,,,"300,000 kn",Barutanski ogranak V.,,,45.833703,16.002477,,,,,,,,,,,,,,,,,,,,,,1,"300,000.00",Tehnicka dokumentacija i gradenje,"TD,G",,,,Gradska cetvrt MAKSIMIR,,,,,,,,,,,,,,,,,,,,,,,,,,
60,,,,,2016-PROGRAM,Gradnja i rekonstrukcija nerazvrstanih cesta po gradskim cetvrtima,Nerazvrstane ceste,Nove obveze,Raskrizje Bukovacka - Petrova - Prilesje i spojna cesta 2 izmedu G Bukovacke i Prilesja,,,"1,300,000 kn",,Bukovacka ulica,Petrova ulica,45.834793,16.004794,,,,,,,,,,,,,,,,,,,,,,1,"1,300,000.00",Gradenje,G,,,,Gradska cetvrt MAKSIMIR,,,,,,,,,,,,,,,,,,,,,,,,,,
61,,,,,2016-PROGRAM,Gradnja i rekonstrukcija nerazvrstanih cesta po gradskim cetvrtima,Nerazvrstane ceste,Prenesene obveze iz prethodnog razdoblja,"I. Kozari put - Kanalski put, parkiraliste - robni terminali Zitnjak, Ivanjorecka cesta",,,"50,000 kn",,I. Kozari put,Kanalski put,45.790758,16.044903,,,,,,,,,,,,,,,,,,,,,,1,"50,000.00",Tehnicka dokumentacija,TD,,,,Gradska cetvrt PESCENICA - ZITNJAK,,,,,,,,,,,,,,,,,,,,,,,,,,
62,,,,,2016-PROGRAM,Gradnja i rekonstrukcija nerazvrstanih cesta po gradskim cetvrtima,Nerazvrstane ceste,Prenesene obveze iz prethodnog razdoblja,Koledovcina - I. etapa,,,"400,000 kn",Koledovcina ulica,,,45.792927,16.038538,,,,,,,,,,,,,,,,,,,,,,1,"400,000.00",Gradenje,G,,,,Gradska cetvrt PESCENICA - ZITNJAK,,,,,,,,,,,,,,,,,,,,,,,,,,
63,,,,,2016-PROGRAM,Gradnja i rekonstrukcija nerazvrstanih cesta po gradskim cetvrtima,Nerazvrstane ceste,Prenesene obveze iz prethodnog razdoblja,Spojna cesta od produzene Ulice grada Vukovara do Slavonske G avenije,,,"110,000 kn",Ulica grada Vukovara,,,45.840573,15.990517,,,,,,,,,,,,,,,,,,,,,,1,"110,000.00",Gradenje,G,,,,Gradska cetvrt PESCENICA - ZITNJAK,,,,,,,,,,,,,,,,,,,,,,,,,,
64,,,,,2016-PROGRAM,Gradnja i rekonstrukcija nerazvrstanih cesta po gradskim cetvrtima,Nerazvrstane ceste,Prenesene obveze iz prethodnog razdoblja,Servisna cesta na Slavonsku aveniju,,,"250,000 kn",Slavonska avenija,,,45.79779,16.034148,,,,,,,,,,,,,,,,,,,,,,1,"250,000.00",Gradenje,G,,,,Gradska cetvrt PESCENICA - ZITNJAK,,,,,,,,,,,,,,,,,,,,,,,,,,
65,,,,,2016-PROGRAM,Gradnja i rekonstrukcija nerazvrstanih cesta po gradskim cetvrtima,Nerazvrstane ceste,Prenesene obveze iz prethodnog razdoblja,Autobusno stajaliste u ulici Vukomerec,,,"400,000 kn",Ulica Vukomerec,,,45.840573,15.990517,,,,,,,,,,,,,,,,,,,,,,1,"400,000.00",Gradenje,G,,,,Gradska cetvrt PESCENICA - ZITNJAK,,,,,,,,,,,,,,,,,,,,,,,,,,
66,,,,,2016-PROGRAM,Gradnja i rekonstrukcija nerazvrstanih cesta po gradskim cetvrtima,Nerazvrstane ceste,Ugovori o financiranju,Ulica Vukomerec - pristupna prometnica,,,"100,000 kn",Ulica Vukomerec,,,45.840573,15.990517,,,,,,,,,,,,,,,,,,,,,,1,"100,000.00",Gradenje,G,,,,Gradska cetvrt PESCENICA - ZITNJAK,,,,,,,,,,,,,,,,,,,,,,,,,,
67,,,,,2016-PROGRAM,Gradnja i rekonstrukcija nerazvrstanih cesta po gradskim cetvrtima,Nerazvrstane ceste,Nove obveze,"Ulica grada Chicaga - Ulica Davora Zbiljskog, IV. Kozari put...","Ulica grada Chicaga - Ulica Davora Zbiljskog, IV. Kozari put, odvojak Radnicke ceste do Zitnjacke ceste, pristupna prometnica OS Ivanja Reka, Kozari put I., Kanalski put II, Marofska ulica, Baranjski odvojak",,"260,000 kn",,Ulica grada Chicaga,Ulica Davora Zbiljskog,45.840573,15.990517,,,,,,,,,,,,,,,,,,,,,,1,"260,000.00",Tehnicka dokumentacija,TD,,,,Gradska cetvrt PESCENICA - ZITNJAK,,,,,,,,,,,,,,,,,,,,,,,,,,
68,,,,,2016-PROGRAM,Gradnja i rekonstrukcija nerazvrstanih cesta po gradskim cetvrtima,Nerazvrstane ceste,Nove obveze,Autobusno okretiste kod OS Zitnjak,,,"300,000 kn",I Petrusevec 1,,,45.775203,16.059383,,,,,,,,,,,,,,,,,,,,,,1,"300,000.00",Tehnicka dokumentacija i gradenje,"TD,G",,,,Gradska cetvrt PESCENICA - ZITNJAK,,,,,,,,,,,,,,,,,,,,,,,,,,
69,,,,,2016-PROGRAM,Gradnja i rekonstrukcija nerazvrstanih cesta po gradskim cetvrtima,Nerazvrstane ceste,Prenesene obveze iz prethodnog razdoblja,"Raskrizje Kamenarka-Sarajevska, parkiraliste Utrine, parkiraliste u Ulici Mije Siloboda Bolsica, Buzinski prilaz",,,"70,000 kn",,Kamenarka,Sarajevska,45.764483,16.010661,,,,,,,,,,,,,,,,,,,,,,1,"70,000.00",Tehnicka dokumentacija,TD,,,,Gradska cetvrt NOVI ZAGREB - ISTOK,,,,,,,,,,,,,,,,,,,,,,,,,,
70,,,,,2016-PROGRAM,Gradnja i rekonstrukcija nerazvrstanih cesta po gradskim cetvrtima,Nerazvrstane ceste,Prenesene obveze iz prethodnog razdoblja,Pjesacko-biciklisticka staza Veliko Polje - Buzin,,,"2,700,000 kn",Buzin,,,45.749905,15.993914,,,,,,,,,,,,,,,,,,,,,,1,"2,700,000.00",Gradenje,G,,,,Gradska cetvrt NOVI ZAGREB - ISTOK,,,,,,,,,,,,,,,,,,,,,,,,,,
71,,,,,2016-PROGRAM,Gradnja i rekonstrukcija nerazvrstanih cesta po gradskim cetvrtima,Nerazvrstane ceste,Ugovori o financiranju,"UPU ""Buzinski Krci - ranzirni kolodvor jug""",,,"77,750 kn",Buzin,,,45.749905,15.993914,,,,,,,,,,,,,,,,,,,,,,1,"77,750.00",,,,,,Gradska cetvrt NOVI ZAGREB - ISTOK,,,,,,,,,,,,,,,,,,,,,,,,,,
72,,,,,2016-PROGRAM,Gradnja i rekonstrukcija nerazvrstanih cesta po gradskim cetvrtima,Nerazvrstane ceste,Nove obveze,"Autobusna stajalista na Velikopoljskoj cesti, raskrizje Avenija Veceslava Holjevca...","` - Horvatova - Neziceva, Odvojci Dracevicke, Parkiraliste u Ulici Brune Busica, Ulica Damira Tomljanovica Gavrana, ulica Draganici, ulica Kramarici",,"200,000 kn",Velikopoljska cesta,,,45.840573,15.990517,,,,,,,,,,,,,,,,,,,,,,1,"200,000.00",Tehnicka dokumentacija,TD,,,,Gradska cetvrt NOVI ZAGREB - ISTOK,,,,,,,,,,,,,,,,,,,,,,,,,,
73,,,,,2016-PROGRAM,Gradnja i rekonstrukcija nerazvrstanih cesta po gradskim cetvrtima,Nerazvrstane ceste,Nove obveze,Parkiraliste u Ulici Mije Siloboda Bolsica,,,"950,000 kn",Ulica Mije Siloboda Bolsica,,,45.840573,15.990517,,,,,,,,,,,,,,,,,,,,,,1,"950,000.00",Gradenje,G,,,,Gradska cetvrt NOVI ZAGREB - ISTOK,,,,,,,,,,,,,,,,,,,,,,,,,,
74,,,,,2016-PROGRAM,Gradnja i rekonstrukcija nerazvrstanih cesta po gradskim cetvrtima,Nerazvrstane ceste,Nove obveze,Parkiraliste uz Sportski centar Utrine,,,"650,000 kn",Kombolova bb,,,45.815011,15.981919,,,,,,,,,,,,,,,,,,,,,,1,"650,000.00",Gradenje,G,,,,Gradska cetvrt NOVI ZAGREB - ISTOK,,,,,,,,,,,,,,,,,,,,,,,,,,
75,,,,,2016-PROGRAM,Gradnja i rekonstrukcija nerazvrstanih cesta po gradskim cetvrtima,Nerazvrstane ceste,Prenesene obveze iz prethodnog razdoblja,Autobusna stajalista na Velikoj cesti u naselju Odra...,"Autobusna stajalista na Velikoj cesti u naselju Odra, Put Loparice odvojak, Jezdovecka ulica odvojci, odvojak ulice Pilinka, Lukoranska ulica i odvojak, Trnsko-parkiraliste, Utinjska - Radmanovecka nogostup, ulica Siget s parkiralistem, autobusna stajalista na Sisackoj cesti",,"150,000 kn",Odra,,,45.72994,15.992366,,,,,,,,,,,,,,,,,,,,,,1,"150,000.00",Tehnicka dokumentacija,TD,,,,Gradska cetvrt NOVI ZAGREB - ZAPAD,,,,,,,,,,,,,,,,,,,,,,,,,,
76,,,,,2016-PROGRAM,Gradnja i rekonstrukcija nerazvrstanih cesta po gradskim cetvrtima,Nerazvrstane ceste,Prenesene obveze iz prethodnog razdoblja,Karlovacka cesta III. etapa,,,"2,375,000 kn",Karlovacka cesta,,,45.764747,15.922673,,,,,,,,,,,,,,,,,,,,,,1,"2,375,000.00",Gradenje,G,,,,Gradska cetvrt NOVI ZAGREB - ZAPAD,,,,,,,,,,,,,,,,,,,,,,,,,,
77,,,,,2016-PROGRAM,Gradnja i rekonstrukcija nerazvrstanih cesta po gradskim cetvrtima,Nerazvrstane ceste,Prenesene obveze iz prethodnog razdoblja,Utinjska-nogostup,,,"2,000,000 kn",Utinjska,,,45.840573,15.990517,,,,,,,,,,,,,,,,,,,,,,1,"2,000,000.00",Gradenje,G,,,,Gradska cetvrt NOVI ZAGREB - ZAPAD,,,,,,,,,,,,,,,,,,,,,,,,,,
78,,,,,2016-PROGRAM,Gradnja i rekonstrukcija nerazvrstanih cesta po gradskim cetvrtima,Nerazvrstane ceste,Nove obveze,Autobusna stajalista u ulici Lucko,"Autobusna stajalista u ulici Lucko, Ulica Slavka Cora, ulica Laskocica- nogostup, Velika cesta-nogostup, raskrizje Hojnikova ulica-Ventilatorska cesta",,"180,000 kn",Ulica Lucko,,,45.840573,15.990517,,,,,,,,,,,,,,,,,,,,,,1,"180,000.00",Tehnicka dokumentacija,TD,,,,Gradska cetvrt NOVI ZAGREB - ZAPAD,,,,,,,,,,,,,,,,,,,,,,,,,,
79,,,,,2016-PROGRAM,Gradnja i rekonstrukcija nerazvrstanih cesta po gradskim cetvrtima,Nerazvrstane ceste,Nove obveze,Raskrizje Jadranska avenija-Avenija Dubrovnik (rotor Remetinec),,,"400,000 kn",,Jadranska avenija,Avenija Dubrovnik,45.76774,15.925678,,,,,,,,,,,,,,,,,,,,,,1,"400,000.00",Tehnicka dokumentacija i gradenje,"TD,G",,,,Gradska cetvrt NOVI ZAGREB - ZAPAD,,,,,,,,,,,,,,,,,,,,,,,,,,
80,,,,,2016-PROGRAM,Gradnja i rekonstrukcija nerazvrstanih cesta po gradskim cetvrtima,Nerazvrstane ceste,Prenesene obveze iz prethodnog razdoblja,Autobusno stajaliste na Selskoj cesti...,"Autobusno stajaliste na Selskoj cesti, Trsatska - Grobnicka, Ulica
 Silvija Strahimira Kranjcevica, II. Zagrebacki odvojak,
Netreticka ulica",,"65,000 kn",Selska cesta,,,45.800623,15.943401,,,,,,,,,,,,,,,,,,,,,,1,"65,000.00",Tehnicka dokumentacija,TD,,,,Gradska cetvrt TRESNJEVKA - SJEVER,,,,,,,,,,,,,,,,,,,,,,,,,,
81,,,,,2016-PROGRAM,Gradnja i rekonstrukcija nerazvrstanih cesta po gradskim cetvrtima,Nerazvrstane ceste,Prenesene obveze iz prethodnog razdoblja,Grobnicka - Bakarska ulica,,,"1,200,000 kn",,Grobnicka,Bakarska ulica,45.797067,15.944349,,,,,,,,,,,,,,,,,,,,,,1,"1,200,000.00",Gradenje,G,,,,Gradska cetvrt TRESNJEVKA - SJEVER,,,,,,,,,,,,,,,,,,,,,,,,,,
82,,,,,2016-PROGRAM,Gradnja i rekonstrukcija nerazvrstanih cesta po gradskim cetvrtima,Nerazvrstane ceste,Prenesene obveze iz prethodnog razdoblja,Dobrilina ulica,,,"1,000,000 kn",Dobrilina ulica,,,45.799049,15.940955,,,,,,,,,,,,,,,,,,,,,,1,"1,000,000.00",Gradenje,G,,,,Gradska cetvrt TRESNJEVKA - SJEVER,,,,,,,,,,,,,,,,,,,,,,,,,,
83,,,,,2016-PROGRAM,Gradnja i rekonstrukcija nerazvrstanih cesta po gradskim cetvrtima,Nerazvrstane ceste,Nove obveze,Nova cesta-Zadarska ulica...,"Nova cesta-Zadarska ulica, Vranducka ulica, Uckina ulica,
 Zvornicka ulica, spojna cesta Zlatarska-Ivanecka, Ulica Silvija Strahimira Kranjcevica, Garicka ulica, Zagorska ulica,
Zupanjska ulica, Dobrilina ulica",,"450,000 kn",,Nova cesta,Zadarska ulica,45.800314,15.955702,,,,,,,,,,,,,,,,,,,,,,1,"450,000.00",Tehnicka dokumentacija,TD,,,,Gradska cetvrt TRESNJEVKA - SJEVER,,,,,,,,,,,,,,,,,,,,,,,,,,
84,,,,,2016-PROGRAM,Gradnja i rekonstrukcija nerazvrstanih cesta po gradskim cetvrtima,Nerazvrstane ceste,Nove obveze,Trsatska-Grobnicka ulica,,,"1,500,000 kn",,Trsatska,Grobnicka ulica,45.797223,15.947497,,,,,,,,,,,,,,,,,,,,,,1,"1,500,000.00",Gradenje,G,,,,Gradska cetvrt TRESNJEVKA - SJEVER,,,,,,,,,,,,,,,,,,,,,,,,,,
85,,,,,2016-PROGRAM,Gradnja i rekonstrukcija nerazvrstanih cesta po gradskim cetvrtima,Nerazvrstane ceste,Nove obveze,Netreticka ulica,,,"600,000 kn",Netreticka ulica,,,45.801308,15.92388,,,,,,,,,,,,,,,,,,,,,,1,"600,000.00",Gradenje,G,,,,Gradska cetvrt TRESNJEVKA - SJEVER,,,,,,,,,,,,,,,,,,,,,,,,,,
86,,,,,2016-PROGRAM,Gradnja i rekonstrukcija nerazvrstanih cesta po gradskim cetvrtima,Nerazvrstane ceste,Prenesene obveze iz prethodnog razdoblja,"Malogoricka-Rudeska, Cenkovecka",,,"60,000 kn",,Malogoricka,Rudeska,45.791076,15.910921,,,,,,,,,,,,,,,,,,,,,,1,"60,000.00",Tehnicka dokumentacija,TD,,,,Gradska cetvrt TRESNJEVKA - JUG,,,,,,,,,,,,,,,,,,,,,,,,,,
87,,,,,2016-PROGRAM,Gradnja i rekonstrukcija nerazvrstanih cesta po gradskim cetvrtima,Nerazvrstane ceste,Nove obveze,"Vrbani-nogostup, raskrizje Ulica Jospia Gigla-Stjepana Romica...","Vrbani-nogostup, raskrizje Ulica Jospia Gigla-Stjepana Romica, Konjicka ulica i Ulica Jaroslava Sidaka, Ulica Stjepana Romica-nogostup, spoj Horvacanske ceste-Ulica Hrvoja Macanovica- Ulica Ladislava Stritofa, nogostup I. Loparska ulica, parkiraliste izmedu Ulice Antona Dolenca i Poljane Dragutina Kalea",,"350,000 kn",Vrbani,,,45.840573,15.990517,,,,,,,,,,,,,,,,,,,,,,1,"350,000.00",Tehnicka dokumentacija,TD,,,,Gradska cetvrt TRESNJEVKA - JUG,,,,,,,,,,,,,,,,,,,,,,,,,,
88,,,,,2016-PROGRAM,Gradnja i rekonstrukcija nerazvrstanih cesta po gradskim cetvrtima,Nerazvrstane ceste,Nove obveze,Rekonstrukcija biciklisticko-rolerske staze na Aleji Matije Ljubeka,,,"500,000 kn",Aleja Matije Ljubeka,,,45.782195,15.92465,,,,,,,,,,,,,,,,,,,,,,1,"500,000.00",Tehnicka dokumentacija i gradenje,"TD,G",,,,Gradska cetvrt TRESNJEVKA - JUG,,,,,,,,,,,,,,,,,,,,,,,,,,
89,,,,,2016-PROGRAM,Gradnja i rekonstrukcija nerazvrstanih cesta po gradskim cetvrtima,Nerazvrstane ceste,Prenesene obveze iz prethodnog razdoblja,"Raskrizje Vinogradska - Kosirnikova - Ulica Franje Dursta, ulica Srednjak, Ulica Ivan Cankara, autobusno okretiste Mikulici",,,"110,000 kn",,Vinogradska,Kosirnikova,45.840573,15.990517,,,,,,,,,,,,,,,,,,,,,,1,"110,000.00",Tehnicka dokumentacija,TD,,,,Gradska cetvrt CRNOMEREC,,,,,,,,,,,,,,,,,,,,,,,,,,
90,,,,,2016-PROGRAM,Gradnja i rekonstrukcija nerazvrstanih cesta po gradskim cetvrtima,Nerazvrstane ceste,Nove obveze,Ulica Josipa Sabana,,,"1,300,000 kn",Ulica Josipa Sabana,,,45.840573,15.990517,,,,,,,,,,,,,,,,,,,,,,1,"1,300,000.00",Gradenje,G,,,,Gradska cetvrt CRNOMEREC,,,,,,,,,,,,,,,,,,,,,,,,,,
91,,,,,2016-PROGRAM,Gradnja i rekonstrukcija nerazvrstanih cesta po gradskim cetvrtima,Nerazvrstane ceste,Nove obveze,"Ulica Polanjscak, ulica Jelenovacki potok...","Ulica Polanjscak, ulica Jelenovacki potok, autobusno okretiste Mikulici, Ulica Ivan Cankara, ulica Sveti Duh - nogostup, ulica Krvarici, ulica Gorenci, ulica Zavrsje, ulica Srednjak, ulica Jelenovac, ulica Supleti",,"300,000 kn",Ulica Polanjscak,,,45.840573,15.990517,,,,,,,,,,,,,,,,,,,,,,1,"300,000.00",Tehnicka dokumentacija,TD,,,,Gradska cetvrt CRNOMEREC,,,,,,,,,,,,,,,,,,,,,,,,,,
92,,,,,2016-PROGRAM,Gradnja i rekonstrukcija nerazvrstanih cesta po gradskim cetvrtima,Nerazvrstane ceste,Nove obveze,Ulica Grada Mainza od Slovenske do Reljkoviceve,,,"3,000,000 kn",Ulica Grada Mainza,,,45.840573,15.990517,,,,,,,,,,,,,,,,,,,,,,1,"3,000,000.00",Gradenje,G,,,,Gradska cetvrt CRNOMEREC,,,,,,,,,,,,,,,,,,,,,,,,,,
93,,,,,2016-PROGRAM,Gradnja i rekonstrukcija nerazvrstanih cesta po gradskim cetvrtima,Nerazvrstane ceste,Prenesene obveze iz prethodnog razdoblja,Autobusno stajaliste u Novackoj ulici...,"Autobusno stajaliste u Novackoj ulici, autobusno stajaliste u Dankoveckoj ulici, Dubljevicka ulica, ulica Zuti breg, Ulica Kriznog puta od Grizanske do Dankovecke ulice, autobusna stajalista na Branoveckoj cesti",,"125,000 kn",Novacka ulica,,,45.849233,16.036532,,,,,,,,,,,,,,,,,,,,,,1,"125,000.00",Tehnicka dokumentacija,TD,,,,Gradska cetvrt GORNJA DUBRAVA,,,,,,,,,,,,,,,,,,,,,,,,,,
94,,,,,2016-PROGRAM,Gradnja i rekonstrukcija nerazvrstanih cesta po gradskim cetvrtima,Nerazvrstane ceste,Nove obveze,"III. Poljanice s gradnjom mosta na potoku Trnava, Slanovecka cesta, ulica Drenje, Novoselecki put",,,"150,000 kn",,,,,,,,,,,,,,,,,,,,,,,,,,,1,"150,000.00",Tehnicka dokumentacija,TD,,,,Gradska cetvrt GORNJA DUBRAVA,,,,,,,,,,,,,,,,,,,,,,,,,,
95,,,,,2016-PROGRAM,Gradnja i rekonstrukcija nerazvrstanih cesta po gradskim cetvrtima,Nerazvrstane ceste,Nove obveze,Autobusno stajaliste na Branoveckoj cesti,,,"100,000 kn",Branovecka cesta,,,45.867792,16.07668,,,,,,,,,,,,,,,,,,,,,,1,"100,000.00",Gradenje,G,,,,Gradska cetvrt GORNJA DUBRAVA,,,,,,,,,,,,,,,,,,,,,,,,,,
96,,,,,2016-PROGRAM,Gradnja i rekonstrukcija nerazvrstanih cesta po gradskim cetvrtima,Nerazvrstane ceste,Prenesene obveze iz prethodnog razdoblja,Produzeni Resnicki put,,,"50,000 kn",Resnicki put,,,45.813987,16.055977,,,,,,,,,,,,,,,,,,,,,,1,"50,000.00",Tehnicka dokumentacija,TD,,,,Gradska cetvrt DONJA DUBRAVA,,,,,,,,,,,,,,,,,,,,,,,,,,
97,,,,,2016-PROGRAM,Gradnja i rekonstrukcija nerazvrstanih cesta po gradskim cetvrtima,Nerazvrstane ceste,Prenesene obveze iz prethodnog razdoblja,Parkiraliste Kapucinska-Dubrava,,,"1,000,000 kn",Kapucinska,,,45.824211,16.049065,,,,,,,,,,,,,,,,,,,,,,1,"1,000,000.00",Gradenje,G,,,,Gradska cetvrt DONJA DUBRAVA,,,,,,,,,,,,,,,,,,,,,,,,,,
98,,,,,2016-PROGRAM,Gradnja i rekonstrukcija nerazvrstanih cesta po gradskim cetvrtima,Nerazvrstane ceste,Nove obveze,Culinecka cesta-Slavonska avenija-desni skretac,,,"1,000,000 kn",,Culinecka cesta,Slavonska avenija,45.808022,16.0704,,,,,,,,,,,,,,,,,,,,,,1,"1,000,000.00",Gradenje,G,,,,Gradska cetvrt DONJA DUBRAVA,,,,,,,,,,,,,,,,,,,,,,,,,,
99,,,,,2016-PROGRAM,Gradnja i rekonstrukcija nerazvrstanih cesta po gradskim cetvrtima,Nerazvrstane ceste,Nove obveze,Raskrizje Branimirova - Osjecka - I. Trnava...,"Raskrizje Branimirova - Osjecka - I. Trnava, Branimirova, Banatska ulica - Kapelska ulica - Jorgovanska ulica - Maslinska ulica - izlaz na ulicu Dubrava, Ulica Roberta Skrnjuga, Servisna cesta, Culinecka cesta-Slavonska avenija-desni skretac",,"200,000 kn",,Branimirova,Osjecka,45.805407,15.984358,,,,,,,,,,,,,,,,,,,,,,1,"200,000.00",Tehnicka dokumentacija,TD,,,,Gradska cetvrt DONJA DUBRAVA,,,,,,,,,,,,,,,,,,,,,,,,,,
100,,,,,2016-PROGRAM,Gradnja i rekonstrukcija nerazvrstanih cesta po gradskim cetvrtima,Nerazvrstane ceste,Prenesene obveze iz prethodnog razdoblja,Autobusna stajalista u Ulici Ivane Brlic Mazuranic...,"Autobusna stajalista u Ulici Ivane Brlic Mazuranic, ulica Medpotoki od ulice Kotarnica do produzene Ulice Antuna Soljana, Ulica Antuna Soljana od ulice Jankomir do Skorpikove, Ulica Ivane Brlic Mazuranic, ulica Jankomir, ulica Kotarnica od Ulice hrvatskih branitelja do ulice Medpotoki, Ulica Marina Tartaglie, Kovinska - Jelasicka - Pijavisce, Ulica Dobrise Cesarica - parkiraliste",,"178,375 kn",Ulica Ivane Brlic Mazuranic,,,45.840573,15.990517,,,,,,,,,,,,,,,,,,,,,,1,"178,375.00",Tehnicka dokumentacija,TD,,,,Gradska cetvrt STENJEVEC,,,,,,,,,,,,,,,,,,,,,,,,,,
101,,,,,2016-PROGRAM,Gradnja i rekonstrukcija nerazvrstanih cesta po gradskim cetvrtima,Nerazvrstane ceste,Nove obveze,Ulica Matije Divkovica od Sisgoriceve do Tusilovicke...,"Ulica Matije Divkovica od Sisgoriceve do Tusilovicke, Cepelovacki put, Samoborska cesta od Hrvatskih branitelja do Skorpikove, Soljanova ulica od Ulice Jankomir do Skorpikove, Ulica Francesca Tenchinija",,"150,000 kn",Ulica Matije Divkovica,,,45.840573,15.990517,,,,,,,,,,,,,,,,,,,,,,1,"150,000.00",Tehnicka dokumentacija,TD,,,,Gradska cetvrt STENJEVEC,,,,,,,,,,,,,,,,,,,,,,,,,,
102,,,,,2016-PROGRAM,Gradnja i rekonstrukcija nerazvrstanih cesta po gradskim cetvrtima,Nerazvrstane ceste,Nove obveze,Autobusna stajalista na Samoborskoj cesti,,,"700,000 kn",Samoborska cesta,,,45.811947,15.864572,,,,,,,,,,,,,,,,,,,,,,1,"700,000.00",Gradenje,G,,,,Gradska cetvrt STENJEVEC,,,,,,,,,,,,,,,,,,,,,,,,,,
103,,,,,2016-PROGRAM,Gradnja i rekonstrukcija nerazvrstanih cesta po gradskim cetvrtima,Nerazvrstane ceste,Nove obveze,Ulica Dobrise Cesarica - parkiraliste,,,"500,000 kn",Ulica Dobrise Cesarica,,,45.802444,15.90133,,,,,,,,,,,,,,,,,,,,,,1,"500,000.00",Tehnicka dokumentacija i gradenje,"TD,G",,,,Gradska cetvrt STENJEVEC,,,,,,,,,,,,,,,,,,,,,,,,,,
104,,,,,2016-PROGRAM,Gradnja i rekonstrukcija nerazvrstanih cesta po gradskim cetvrtima,Nerazvrstane ceste,Prenesene obveze iz prethodnog razdoblja,"Huzjanova, Zelena magistrala, Podsusedska aleja kod ulice Borje...","Huzjanova, Zelena magistrala, Podsusedska aleja kod ulice Borje, Karaznik od ulice Dolec do ulice Dubravica, ulica Suncani breg, Blanje-Borje spoj",,"80,000 kn",Huzjanova,,,45.815064,15.865044,,,,,,,,,,,,,,,,,,,,,,1,"80,000.00",Tehnicka dokumentacija,TD,,,,Gradska cetvrt PODSUSED - VRAPCE,,,,,,,,,,,,,,,,,,,,,,,,,,
105,,,,,2016-PROGRAM,Gradnja i rekonstrukcija nerazvrstanih cesta po gradskim cetvrtima,Nerazvrstane ceste,Prenesene obveze iz prethodnog razdoblja,Raskrizje Ilica - Aleja grada Bologne - Vrapcanska aleja - autobusni terminal,,,"7,300,000 kn",,Ilica,Aleja grada Bologne,45.814483,15.937709,,,,,,,,,,,,,,,,,,,,,,1,"7,300,000.00",Gradenje,G,,,,Gradska cetvrt PODSUSED - VRAPCE,,,,,,,,,,,,,,,,,,,21.12.2015,,,,,,,
106,,,,,2016-PROGRAM,Gradnja i rekonstrukcija nerazvrstanih cesta po gradskim cetvrtima,Nerazvrstane ceste,Prenesene obveze iz prethodnog razdoblja,Parkiraliste kod Doma zdravlja Zagreb zapad,,,"3,500,000 kn",Prilaz baruna Filipovica 11,,,45.811397,15.944426,,,,,,,,,,,,,,,,,,,,,,1,"3,500,000.00",Gradenje,G,,,,Gradska cetvrt PODSUSED - VRAPCE,,,,,,,,,,,,,,,,,,,,,,,,,,
107,,,,,2016-PROGRAM,Gradnja i rekonstrukcija nerazvrstanih cesta po gradskim cetvrtima,Nerazvrstane ceste,Prenesene obveze iz prethodnog razdoblja,Bolnicka ulica - Vrapcanska aleja - Ulica Majke Terezije,,,"1,100,000 kn",Bolnicka ulica,,,45.816291,15.892744,,,,,,,,,,,,,,,,,,,,,,1,"1,100,000.00",Gradenje,G,,,,Gradska cetvrt PODSUSED - VRAPCE,,,,,,,,,,,,,,,,,,,,,,,,,,
108,,,,,2016-PROGRAM,Gradnja i rekonstrukcija nerazvrstanih cesta po gradskim cetvrtima,Nerazvrstane ceste,Ugovori o financiranju,"Prisavisce 2, Prisavisce 4 i ulica Vucak",,,"100,000 kn",Prisavisce,,,45.815011,15.981919,,,,,,,,,,,,,,,,,,,,,,1,"100,000.00",Gradenje,G,,,,Gradska cetvrt PODSUSED - VRAPCE,,,,,,,,,,,,,,,,,,,,,,,,,,
109,,,,,2016-PROGRAM,Gradnja i rekonstrukcija nerazvrstanih cesta po gradskim cetvrtima,Nerazvrstane ceste,Nove obveze,"Zelena magistrala, odvojak ulice Perjavica...","Zelena magistrala, odvojak ulice Perjavica, Podsusedska aleja, ulica 4 na podrucju nekadasnje tvornice cementa u Podsusedu, autobusno okretiste u Vrapcanskoj ulici",,"170,000 kn",Zelena magistrala,,,45.840573,15.990517,,,,,,,,,,,,,,,,,,,,,,1,"170,000.00",Tehnicka dokumentacija,TD,,,,Gradska cetvrt PODSUSED - VRAPCE,,,,,,,,,,,,,,,,,,,,,,,,,,
110,,,,,2016-PROGRAM,Gradnja i rekonstrukcija nerazvrstanih cesta po gradskim cetvrtima,Nerazvrstane ceste,Prenesene obveze iz prethodnog razdoblja,Autobusno stajaliste u ulici Stefanovec...,"Autobusno stajaliste u ulici Stefanovec, autobusno stajaliste u Ulica Vida Rocica, ulica Gracani - nogostup kod OS Gracani, Ulica Vida Rocica - nogostup",,"95,000 kn",Ulica Stefanovec,,,45.840573,15.990517,,,,,,,,,,,,,,,,,,,,,,1,"95,000.00",Tehnicka dokumentacija,TD,,,,Gradska cetvrt PODSLJEME,,,,,,,,,,,,,,,,,,,,,,,,,,
111,,,,,2016-PROGRAM,Gradnja i rekonstrukcija nerazvrstanih cesta po gradskim cetvrtima,Nerazvrstane ceste,Nove obveze,Odvojak Gracanske ceste,,,"50,000 kn",Gracanska cesta,,,45.851323,15.976497,,,,,,,,,,,,,,,,,,,,,,1,"50,000.00",Tehnicka dokumentacija,TD,,,,Gradska cetvrt PODSLJEME,,,,,,,,,,,,,,,,,,,,,,,,,,
112,,,,,2016-PROGRAM,Gradnja i rekonstrukcija nerazvrstanih cesta po gradskim cetvrtima,Nerazvrstane ceste,Nove obveze,Ulica Gracani - nogostup kod OS Gracani,,,"600,000 kn",Gracani 4a,,,45.858844,15.973489,,,,,,,,,,,,,,,,,,,,,,1,"600,000.00",Tehnicka dokumentacija i gradenje,"TD,G",,,,Gradska cetvrt PODSLJEME,,,,,,,,,,,,,,,,,,,,,,,,,,
113,,,,,2016-PROGRAM,Gradnja i rekonstrukcija nerazvrstanih cesta po gradskim cetvrtima,Nerazvrstane ceste,Prenesene obveze iz prethodnog razdoblja,"Autobusno stajaliste u Durdekovcu, Stubicka ulica...","Autobusno stajaliste u Durdekovcu, Stubicka ulica, Velebitska (Streljenceva) ulica, prometnica od sjevernog dijela buduceg cvora ""Otok Svibovski"" do naselja Dumovec-jug, ulica Vretenec, Novacica, Tupekova, Horvatova, raskrizje Soblinecka - Prepustovecka - Sasinovecka, Blaguska ulica, Dobrodolska, odvojak Radnicke ulice, Ulica Ivana Sandelica, autobusna stajalista na Glavnoj cesti u naselju Prekvrsje, Ulica 4, pjesacka staza Vugrovec gornji - Vugrovec donji
 Pakracka ulica, Ivana Grande, Okretiste autobusa u Dugoselskoj,
 raskrizje Zagrebacka - Sopnicka -
Jaglaca, Put Dobrise Cesarica, Miroslava Kraljevica, Ivana Gundulica , Miroslava Krleze, Kvarnerska, Zagorska, Bartola Kasica, Bilogorska, Franjceviceva, Ulica 6, Vurnovecka, Varazdinska, Vladimira Ruzdjaka, Vinogorska, Dragutina Domjanica u Adamovcu, Kirinova ulica , Odvojak Prelceve, Trakoscanska ulica u Sesvetama – nogostup, Ulica Ivana Sandelica, Stjepana Mikusa, raskrizje Zagrebacka-Anke Krizmanic-Badelov brijeg, odvojci Radnicke, autobusno stajaliste u Vugroveckoj ulici, Ulica Ciklama",,"620,000 kn",Durdekovac,,,45.877928,16.117891,,,,,,,,,,,,,,,,,,,,,,1,"620,000.00",Tehnicka dokumentacija,TD,,,,Gradska cetvrt SESVETE,,,,,,,,,,,,,,,,,,,,,,,,,,
114,,,,,2016-PROGRAM,Gradnja i rekonstrukcija nerazvrstanih cesta po gradskim cetvrtima,Nerazvrstane ceste,Prenesene obveze iz prethodnog razdoblja,Ulica Klanjec - uporni zid,,,"430,000 kn",Ulica Klanjec,,,45.840573,15.990517,,,,,,,,,,,,,,,,,,,,,,1,"430,000.00",Gradenje,G,,,,Gradska cetvrt SESVETE,,,,,,,,,,,,,,,,,,,,,,,,,,
115,,,,,2016-PROGRAM,Gradnja i rekonstrukcija nerazvrstanih cesta po gradskim cetvrtima,Nerazvrstane ceste,Prenesene obveze iz prethodnog razdoblja,Odvojak Ivana Pudaka,,,"150,000 kn",Odvojak Ivana Pudaka,,,45.853782,16.114219,,,,,,,,,,,,,,,,,,,,,,1,"150,000.00",Gradenje,G,,,,Gradska cetvrt SESVETE,,,,,,,,,,,,,,,,,,,,,,,,,,
116,,,,,2016-PROGRAM,Gradnja i rekonstrukcija nerazvrstanih cesta po gradskim cetvrtima,Nerazvrstane ceste,Prenesene obveze iz prethodnog razdoblja,Cvor Strojarska - autocesta A3,,,"500,000 kn",Strojarska,,,45.802747,15.990558,,,,,,,,,,,,,,,,,,,,,,1,"500,000.00",Gradenje,G,,,,Gradska cetvrt SESVETE,,,,,,,,,,,,,,,,,,,,,,,,,,
117,,,,,2016-PROGRAM,Gradnja i rekonstrukcija nerazvrstanih cesta po gradskim cetvrtima,Nerazvrstane ceste,Prenesene obveze iz prethodnog razdoblja,Ulica Ote Habeka - nogostup,,,"300,000 kn",Ulica Ote Habeka,,,45.840573,15.990517,,,,,,,,,,,,,,,,,,,,,,1,"300,000.00",Gradenje,G,,,,Gradska cetvrt SESVETE,,,,,,,,,,,,,,,,,,,,,,,,,,
118,,,,,2016-PROGRAM,Gradnja i rekonstrukcija nerazvrstanih cesta po gradskim cetvrtima,Nerazvrstane ceste,Prenesene obveze iz prethodnog razdoblja,Autobusna stajalista na Sesvetskoj,,,"400,000 kn",Sesvetska ulica,,,45.814715,16.01209,,,,,,,,,,,,,,,,,,,,,,1,"400,000.00",Gradenje,G,,,,Gradska cetvrt SESVETE,,,,,,,,,,,,,,,,,,,,,,,,,,
119,,,,,2016-PROGRAM,Gradnja i rekonstrukcija nerazvrstanih cesta po gradskim cetvrtima,Nerazvrstane ceste,Prenesene obveze iz prethodnog razdoblja,Nadstresnica na autobusnom okretistu u Dumovcu,,,"50,000 kn",Dumovec,,,45.811046,16.160066,,,,,,,,,,,,,,,,,,,,,,1,"50,000.00",Gradenje,G,,,,Gradska cetvrt SESVETE,,,,,,,,,,,,,,,,,,,,,,,,,,
120,,,,,2016-PROGRAM,Gradnja i rekonstrukcija nerazvrstanih cesta po gradskim cetvrtima,Nerazvrstane ceste,Nove obveze,"Autobusna stajalista u Ulici Ive Politea, Dumovecka ulica...","Autobusna stajalista u Ulici Ive Politea, Dumovecka ulica, Prelceva ulica i odvojci, Zlatarska, Stubicka ulica, Velebitska (Streljenceva) ulica, Zagorska i odvojak, raskrizje Zagrebacka- Anke Krizmanic-Badelov brijeg, Trsatska ulica, Ulica Ciklama, Augusta Senoe, Trg kralja Tomislava, Mirka Bogovica, Ulica 6, raskrizje Zlatarska cesta-Glavna cesta-Augusta Senoe, Aleja Mira, krizanje Dugoselska cesta-Mladena Halape, autobusno stajaliste u Ulici Mladena Halape, Stjepana Mikusa, Ivana Sandelica, Dragutina Domjanica u Adamovcu, Omladinska- nogostup, Dugoselska cesta, Odvojak Popovecke kod br. 58, Dragutina Domjanica u Sesvetama, most na Vuger potoku izmedu Sopnicke i Ljudevita Posavskog, Zeljeznicka ulica, Cerska ulica, autobusno stajaliste Bistricka, autobusno stajaliste Kasinska, Dobrodolska ulica",,"615,000 kn",Ulica Ive Politea,,,45.840573,15.990517,,,,,,,,,,,,,,,,,,,,,,1,"615,000.00",Tehnicka dokumentacija,TD,,,,Gradska cetvrt SESVETE,,,,,,,,,,,,,,,,,,,,,,,,,,
121,,,,,2016-PROGRAM,Gradnja i rekonstrukcija nerazvrstanih cesta po gradskim cetvrtima,Nerazvrstane ceste,Nove obveze,Franjceviceva - Bilogorska ulica,,,"1,700,000 kn",,Franjceviceva,Bilogorska ulica,45.807148,16.160176,,,,,,,,,,,,,,,,,,,,,,1,"1,700,000.00",Gradenje,G,,,,Gradska cetvrt SESVETE,,,,,,,,,,,,,,,,,,,,,,,,,,
122,,,,,2016-PROGRAM,Gradnja i rekonstrukcija nerazvrstanih cesta po gradskim cetvrtima,Nerazvrstane ceste,Nove obveze,Vugrovecka ulica - nogostup (od Varazdinske do Smiciklasove),,,"1,700,000 kn",Vugrovecka ulica,,,45.840573,15.990517,,,,,,,,,,,,,,,,,,,,,,1,"1,700,000.00",Gradenje,G,,,,Gradska cetvrt SESVETE,,,,,,,,,,,,,,,,,,,,,,,,,,
123,,,,,2016-PROGRAM,Gradnja i rekonstrukcija nerazvrstanih cesta po gradskim cetvrtima,Nerazvrstane ceste,Nove obveze,Dugoselska ulica - Bedem ljubavi,,,"1,200,000 kn",,Dugoselska ulica,Bedem ljubavi,45.803874,16.016623,,,,,,,,,,,,,,,,,,,,,,1,"1,200,000.00",Tehnicka dokumentacija i gradenje,"TD,G",,,,Gradska cetvrt SESVETE,,,,,,,,,,,,,,,,,,,,,,,,,,
124,,,,,2016-PROGRAM,Gradnja i rekonstrukcija nerazvrstanih cesta po gradskim cetvrtima,Nerazvrstane ceste,Nove obveze,Omladinska - nogostup,,,"800,000 kn",Omladinska,,,45.872356,16.161889,,,,,,,,,,,,,,,,,,,,,,1,"800,000.00",Gradenje,G,,,,Gradska cetvrt SESVETE,,,,,,,,,,,,,,,,,,,,,,,,,,
125,,,,,2016-PROGRAM,Gradnja i rekonstrukcija nerazvrstanih cesta po gradskim cetvrtima,Nerazvrstane ceste,Nove obveze,Ulica 4 u gospodarskoj zoni Sesvete,,,"3,000,000 kn",Sesvete,,,45.800623,15.943401,,,,,,,,,,,,,,,,,,,,,,1,"3,000,000.00",Tehnicka dokumentacija i gradenje,"TD,G",,,,Gradska cetvrt SESVETE,,,,,,,,,,,,,,,,,,,,,,,,,,
126,,,,,2016-PROGRAM,Gradnja i rekonstrukcija nerazvrstanih cesta po gradskim cetvrtima,Nerazvrstane ceste,Nove obveze,Vugrovecka-Dobrodolska -Pudakova,,,"2,500,000 kn",Vugrovecka,,,45.840573,15.990517,,,,,,,,,,,,,,,,,,,,,,1,"2,500,000.00",Tehnicka dokumentacija i gradenje,"TD,G",,,,Gradska cetvrt SESVETE,,,,,,,,,,,,,,,,,,,,,,,,,,
127,,,,,2016-PROGRAM,Gradnja i rekonstrukcija nerazvrstanih cesta po gradskim cetvrtima,Nerazvrstane ceste,Nove obveze,Izgradnja nogostupa na Soblineckoj,,,"800,000 kn",Soblinecka,,,45.862784,16.147085,,,,,,,,,,,,,,,,,,,,,,1,"800,000.00",Gradenje,G,,,,Gradska cetvrt SESVETE,,,,,,,,,,,,,,,,,,,,,,,,,,
128,,,,,2016-PROGRAM,Gradnja i rekonstrukcija nerazvrstanih cesta po gradskim cetvrtima,Nerazvrstane ceste,Prenesene obveze iz prethodnog razdoblja,"Parkiraliste Mirna ulica, Tumbri - nogostup...","Parkiraliste Mirna ulica, Tumbri - nogostup, Horvati - nogostup, Dreznik - nogostup, Golobreska - nogostup, Desprimska III. odvojak - nogostup, Gornjodemerska - nogostup, Bedeki - nogostup, Obreska - nogostup,",,"80,000 kn",Mirna ulica,,,45.806242,15.91289,,,,,,,,,,,,,,,,,,,,,,1,"80,000.00",Tehnicka dokumentacija,TD,,,,Gradska cetvrt BREZOVICA,,,,,,,,,,,,,,,,,,,,,,,,,,
129,,,,,2016-PROGRAM,Gradnja i rekonstrukcija nerazvrstanih cesta po gradskim cetvrtima,Nerazvrstane ceste,Nove obveze,"Okretiste autobusa u ulici Franje, ulica Siranovici-nogostup...","Okretiste autobusa u ulici Franje, ulica Siranovici-nogostup, Strmecka cesta-nogostup, Trpucanska cesta-nogostup, most na potoku Lomnica, ulica Aspergeri - nogostup, most preko kanala Sava-Odra, pjesacki most i autobusno stajaliste na Kraljeveckoj cesti, Donjodragonoska cesta - nogostup, Pekarska ulica - nogostup, ulica Mavracici - nogostup",,"100,000 kn",Ulica Franje,,,45.825416,16.028109,,,,,,,,,,,,,,,,,,,,,,1,"100,000.00",Tehnicka dokumentacija,TD,,,,Gradska cetvrt BREZOVICA,,,,,,,,,,,,,,,,,,,,,,,,,,
130,,,,,2016-PROGRAM,Gradnja i rekonstrukcija nerazvrstanih cesta po gradskim cetvrtima,Nerazvrstane ceste,Nove obveze,Gornjodragonoska cesta - nogostup,,,"2,100,000 kn",Gornjodragonoska cesta,,,45.807148,16.160176,,,,,,,,,,,,,,,,,,,,,,1,"2,100,000.00",Gradenje,G,,,,Gradska cetvrt BREZOVICA,,,,,,,,,,,,,,,,,,,,,,,,,,
131,,,,,2016-PROGRAM,Gradnja i rekonstrukcija nerazvrstanih cesta po gradskim cetvrtima,Nerazvrstane ceste,Nove obveze,Ulica Harabajsi - nogostup,,,"1,500,000 kn",Ulica Harabajsi,,,45.840573,15.990517,,,,,,,,,,,,,,,,,,,,,,1,"1,500,000.00",Gradenje,G,,,,Gradska cetvrt BREZOVICA,,,,,,,,,,,,,,,,,,,,,,,,,,
132,,,,,2016-PROGRAM,Gradnja i rekonstrukcija nerazvrstanih cesta po gradskim cetvrtima,Nerazvrstane ceste,Nove obveze,Kraljevecki brijegi,,,"750,000 kn",Kraljevecki brijegi,,,45.817873,15.975996,,,,,,,,,,,,,,,,,,,,,,1,"750,000.00",Gradenje,G,,,,Gradska cetvrt BREZOVICA,,,,,,,,,,,,,,,,,,,,,,,,,,
133,,,,,2016-PROGRAM,Gradnja i rekonstrukcija nerazvrstanih cesta po gradskim cetvrtima,Nerazvrstane ceste,Nove obveze,Rekonstrukcija Zadvorske ulice,,,"3,000,000 kn",Zadvorska ulica,,,45.840573,15.990517,,,,,,,,,,,,,,,,,,,,,,1,"3,000,000.00",Gradenje,G,,,,Gradska cetvrt BREZOVICA,,,,,,,,,,,,,,,,,,,,,,,,,,
134,,,,,2016-PROGRAM,Gradnja oborinske odvodnje,Nerazvrstane ceste,Prenesene obveze iz prethodnog razdoblja,Izgradnja oborinske odvodnje u Zadvorskoj ulici,,,"2,700,000 kn",Zadvorska ulica,,,45.840573,15.990517,,,,,,,,,,,,,,,,,,,,,,1,"2,700,000.00",,,,,,OSTALO,,,,,,,,,,,,,,,,,,,,,,,,,,
135,,,,,2016-PROGRAM,Gradnja oborinske odvodnje,Nerazvrstane ceste,Prenesene obveze iz prethodnog razdoblja,Soblinecka-Varazdinska - nogostup s oborinskom odvodnjom,,,"1,600,000 kn",,Soblinecka,Varazdinska,45.862784,16.147085,,,,,,,,,,,,,,,,,,,,,,1,"1,600,000.00",,,,,,OSTALO,,,,,,,,,,,,,,,,,,,,,,,,,,
136,,,,,2016-PROGRAM,Gradnja oborinske odvodnje,Nerazvrstane ceste,Nove obveze,Izrada projektno-tehnicke dokumentacije,,,"100,000 kn",,,,,,,,,,,,,,,,,,,,,,,,,,,1,"100,000.00",,,,,,OSTALO,,,,,,,,,,,,,,,,,,,,,,,,,,
137,,,,,2016-PROGRAM,Gradnja oborinske odvodnje,Nerazvrstane ceste,Nove obveze,Izgradnja oborinske odvodnje u Glogoveckoj ulici,,,"900,000 kn",Glogovecka ulica,,,45.807148,16.160176,,,,,,,,,,,,,,,,,,,,,,1,"900,000.00",,,,,,OSTALO,,,,,,,,,,,,,,,,,,,,,,,,,,
138,,,,,2016-PROGRAM,Gradnja i rekonstrukcija ostalih objekata,Nerazvrstane ceste,Prenesene obveze iz prethodnog razdoblja,Premjestanje i zastita EE instalacija za potrebe izgradnje cesta i cestovnih objekata,,,"1,500,000 kn",,,,,,,,,,,,,,,,,,,,,,,,,,,1,"1,500,000.00",,,,,,OSTALO,,,,,,,,,,,,,,,,,,,,,,,,,,
139,,,,,2016-PROGRAM,Gradnja i rekonstrukcija ostalih objekata,Nerazvrstane ceste,Prenesene obveze iz prethodnog razdoblja,Izrada procjena vrijednosti nekretnina za potrebe rjesavanja imovinsko- pravnih odnosa,,,"50,000 kn",,,,,,,,,,,,,,,,,,,,,,,,,,,1,"50,000.00",,,,,,OSTALO,,,,,,,,,,,,,,,,,,,,,,,,,,
140,,,,,2016-PROGRAM,Gradnja i rekonstrukcija ostalih objekata,Nerazvrstane ceste,Prenesene obveze iz prethodnog razdoblja,Geoloske i geotehnicke prospekcije za potrebe izrade projektno-tehnicke dokumentacije za izgradnju i rekonstrukciju cesta,,,"162,000 kn",,,,,,,,,,,,,,,,,,,,,,,,,,,1,"162,000.00",,,,,,OSTALO,,,,,,,,,,,,,,,,,,,,,,,,,,
141,,,,,2016-PROGRAM,Gradnja i rekonstrukcija ostalih objekata,Nerazvrstane ceste,Prenesene obveze iz prethodnog razdoblja,Uspostava skladista vrijednog gradevinskog materijala,,,"22,500 kn",,,,,,,,,,,,,,,,,,,,,,,,,,,1,"22,500.00",,,,,,OSTALO,,,,,,,,,,,,,,,,,,,,,,,,,,
142,,,,,2016-PROGRAM,Gradnja i rekonstrukcija ostalih objekata,Nerazvrstane ceste,Prenesene obveze iz prethodnog razdoblja,Krajobrazno uredenje zelenih povrsina u koridoru prometnica,,,"130,000 kn",,,,,,,,,,,,,,,,,,,,,,,,,,,1,"130,000.00",,,,,,OSTALO,,,,,,,,,,,,,,,,,,,,,,,,,,
143,,,,,2016-PROGRAM,Gradnja i rekonstrukcija ostalih objekata,Nerazvrstane ceste,Prenesene obveze iz prethodnog razdoblja,Intervencije u prostoru - povezivanje izgradenih cjelina - naselja,,,"1,500,000 kn",,,,,,,,,,,,,,,,,,,,,,,,,,,1,"1,500,000.00",,,,,,OSTALO,,,,,,,,,,,,,,,,,,,,,,,,,,
144,,,,,2016-PROGRAM,Gradnja i rekonstrukcija ostalih objekata,Nerazvrstane ceste,Prenesene obveze iz prethodnog razdoblja,Privremena regulacija prometa,,,"200,000 kn",,,,,,,,,,,,,,,,,,,,,,,,,,,1,"200,000.00",,,,,,OSTALO,,,,,,,,,,,,,,,,,,,,,,,,,,
145,,,,,2016-PROGRAM,Gradnja i rekonstrukcija ostalih objekata,Nerazvrstane ceste,Nove obveze,Premjestanje i zastita EE instalacija za potrebe izgradnje cesta i cestovnih objekata,,,"1,100,000 kn",,,,,,,,,,,,,,,,,,,,,,,,,,,1,"1,100,000.00",,,,,,OSTALO,,,,,,,,,,,,,,,,,,,,,,,,,,
146,,,,,2016-PROGRAM,Gradnja i rekonstrukcija ostalih objekata,Nerazvrstane ceste,Nove obveze,Premjestanje i zastita plinovodnih instalacija za potrebe izgradnje cesta i cestovnih objekata,,,"100,000 kn",,,,,,,,,,,,,,,,,,,,,,,,,,,1,"100,000.00",,,,,,OSTALO,,,,,,,,,,,,,,,,,,,,,,,,,,
147,,,,,2016-PROGRAM,Gradnja i rekonstrukcija ostalih objekata,Nerazvrstane ceste,Nove obveze,Premjestanje i zastita instalacija vodovoda i kanalizacije za potrebe izgradnje cesta i cestovnih objekata,,,"100,000 kn",,,,,,,,,,,,,,,,,,,,,,,,,,,1,"100,000.00",,,,,,OSTALO,,,,,,,,,,,,,,,,,,,,,,,,,,
148,,,,,2016-PROGRAM,Gradnja i rekonstrukcija ostalih objekata,Nerazvrstane ceste,Nove obveze,Izrada procjena vrijednosti nekretnina za potrebe rjesavanja imovinsko- pravnih odnosa,,,"400,000 kn",,,,,,,,,,,,,,,,,,,,,,,,,,,1,"400,000.00",,,,,,OSTALO,,,,,,,,,,,,,,,,,,,,,,,,,,
149,,,,,2016-PROGRAM,Gradnja i rekonstrukcija ostalih objekata,Nerazvrstane ceste,Nove obveze,Krajobrazno uredenje zelenih povrsina u koridoru prometnica,,,"1,150,000 kn",,,,,,,,,,,,,,,,,,,,,,,,,,,1,"1,150,000.00",,,,,,OSTALO,,,,,,,,,,,,,,,,,,,,,,,,,,
150,,,,,2016-PROGRAM,Gradnja i rekonstrukcija ostalih objekata,Nerazvrstane ceste,Nove obveze,Uspostava skladista vrijednog gradevinskog materijala,,,"22,500 kn",,,,,,,,,,,,,,,,,,,,,,,,,,,1,"22,500.00",,,,,,OSTALO,,,,,,,,,,,,,,,,,,,,,,,,,,
151,,,,,2016-PROGRAM,Gradnja i rekonstrukcija ostalih objekata,Nerazvrstane ceste,Nove obveze,"Slaganje, evidentiranje i prijevoz vrijednog gradevinskog materijala",,,"250,000 kn",,,,,,,,,,,,,,,,,,,,,,,,,,,1,"250,000.00",,,,,,OSTALO,,,,,,,,,,,,,,,,,,,,,,,,,,
152,,,,,2016-PROGRAM,Gradnja i rekonstrukcija ostalih objekata,Nerazvrstane ceste,Nove obveze,Intervencije u prostoru - povezivanje izgradenih cjelina - naselja,,,"5,000,000 kn",,,,,,,,,,,,,,,,,,,,,,,,,,,1,"5,000,000.00",,,,,,OSTALO,,,,,,,,,,,,,,,,,,,,,,,,,,
153,,,,,2016-PROGRAM,Gradnja i rekonstrukcija ostalih objekata,Nerazvrstane ceste,Nove obveze,Izrada projektno tehnicke dokumentacije za izgradnju autobusnih stajalista,,,"350,000 kn",,,,,,,,,,,,,,,,,,,,,,,,,,,1,"350,000.00",,,,,,OSTALO,,,,,,,,,,,,,,,,,,,,,,,,,,
154,,,,,2016-PROGRAM,Gradnja i rekonstrukcija ostalih objekata,Nerazvrstane ceste,Nove obveze,Privremena regulacija prometa,,,"600,000 kn",,,,,,,,,,,,,,,,,,,,,,,,,,,1,"600,000.00",,,,,,OSTALO,,,,,,,,,,,,,,,,,,,,,,,,,,
155,,,,,2016-PROGRAM,,Nerazvrstane ceste,Povrat po ugovorima o financiranju,Tuskanova-Vrbaniceva,,,"764,560 kn",,Tuskanova,Vrbaniceva,45.811044,15.997651,,,,,,,,,,,,,,,,,,,,,,1,"764,560.00",,,,,,Gradska cetvrt DONJI GRAD,,,,,,,,,,,,,,,,,,,,,,,,,,
156,,,,,2016-PROGRAM,,Nerazvrstane ceste,Povrat po ugovorima o financiranju,Produzetak ulice Zeleni dol,,,"3,050 kn",Ulica Zeleni dol,,,45.840573,15.990517,,,,,,,,,,,,,,,,,,,,,,1,"3,050.00",,,,,,Gradska cetvrt GORNJI GRAD - MEDVESCAK,,,,,,,,,,,,,,,,,,,,,,,,,,
157,,,,,2016-PROGRAM,,Nerazvrstane ceste,Povrat po ugovorima o financiranju,Izgradnja prometnica u naselju Kruge,,,"7,320 kn",Kruge,,,45.817873,15.975996,,,,,,,,,,,,,,,,,,,,,,1,"7,320.00",,,,,,Gradska cetvrt TRNJE,,,,,,,,,,,,,,,,,,,,,,,,,,
158,,,,,2016-PROGRAM,,Nerazvrstane ceste,Povrat po ugovorima o financiranju,Trnjanski nasip,,,"2,652 kn",Trnjanski nasip,,,45.806349,15.977984,,,,,,,,,,,,,,,,,,,,,,1,"2,651.71",,,,,,Gradska cetvrt TRNJE,,,,,,,,,,,,,,,,,,,,,,,,,,
159,,,,,2016-PROGRAM,,Nerazvrstane ceste,Povrat po ugovorima o financiranju,Spoj na Radnicku cestu,,,"423,579 kn",Radnicka cesta,,,45.790226,16.031104,,,,,,,,,,,,,,,,,,,,,,1,"423,578.80",,,,,,Gradska cetvrt TRNJE,,,,,,,,,,,,,,,,,,,,,,,,,,
160,,,,,2016-PROGRAM,,Nerazvrstane ceste,Povrat po ugovorima o financiranju,Odvojak ulice Gorice,,,"6,927 kn",Ulica Gorice,,,45.840573,15.990517,,,,,,,,,,,,,,,,,,,,,,1,"6,927.13",,,,,,Gradska cetvrt MAKSIMIR,,,,,,,,,,,,,,,,,,,,,,,,,,
161,,,,,2016-PROGRAM,,Nerazvrstane ceste,Povrat po ugovorima o financiranju,Produzetak ulice VII. Bukovacki ogranak,,,"46,740 kn",Ulica VII. Bukovacki ogranak,,,45.840573,15.990517,,,,,,,,,,,,,,,,,,,,,,1,"46,740.00",,,,,,Gradska cetvrt MAKSIMIR,,,,,,,,,,,,,,,,,,,,,,,,,,
162,,,,,2016-PROGRAM,,Nerazvrstane ceste,Povrat po ugovorima o financiranju,Ulica Gorice i ulica Korito,,,"5,997 kn",,Ulica Gorice,Ulica Korito,45.840573,15.990517,,,,,,,,,,,,,,,,,,,,,,1,"5,996.52",,,,,,Gradska cetvrt MAKSIMIR,,,,,,,,,,,,,,,,,,,,,,,,,,
163,,,,,2016-PROGRAM,,Nerazvrstane ceste,Povrat po ugovorima o financiranju,Odvojak Bukovacke ceste,,,"3,265 kn",Bukovacka cesta,,,45.867792,16.07668,,,,,,,,,,,,,,,,,,,,,,1,"3,264.51",,,,,,Gradska cetvrt MAKSIMIR,,,,,,,,,,,,,,,,,,,,,,,,,,
164,,,,,2016-PROGRAM,,Nerazvrstane ceste,Povrat po ugovorima o financiranju,Ulica 7,,,"36,750 kn",Ulica 7,,,45.811044,15.997651,,,,,,,,,,,,,,,,,,,,,,1,"36,750.00",,,,,,Gradska cetvrt PESCENICA - ZITNJAK,,,,,,,,,,,,,,,,,,,,,,,,,,
165,,,,,2016-PROGRAM,,Nerazvrstane ceste,Povrat po ugovorima o financiranju,Strigina ulica,,,"1,938 kn",Strigina ulica,,,45.814555,15.973066,,,,,,,,,,,,,,,,,,,,,,1,"1,938.02",,,,,,Gradska cetvrt PESCENICA - ZITNJAK,,,,,,,,,,,,,,,,,,,,,,,,,,
166,,,,,2016-PROGRAM,,Nerazvrstane ceste,Povrat po ugovorima o financiranju,Kompleks punionice Coca-cola - prometnice,,,"729,049 kn",Milana Sachsa 1,,,45.806242,15.91289,,,,,,,,,,,,,,,,,,,,,,1,"729,049.29",,,,,,Gradska cetvrt PESCENICA - ZITNJAK,,,,,,,,,,,,,,,,,,,,,,,,,,
167,,,,,2016-PROGRAM,,Nerazvrstane ceste,Povrat po ugovorima o financiranju,"Ulica oznake ""1"" UPU Heinzelova-Vukovarska",,,"1,465,780 kn",,Heinzelova,Vukovarska,45.805645,16.007429,,,,,,,,,,,,,,,,,,,,,,1,"1,465,779.59",,,,,,Gradska cetvrt PESCENICA - ZITNJAK,,,,,,,,,,,,,,,,,,,,,,,,,,
168,,,,,2016-PROGRAM,,Nerazvrstane ceste,Povrat po ugovorima o financiranju,Odvojak Jakusevecke ulice,,,"3,461 kn",Jakusevecka ulica,,,45.808749,15.959763,,,,,,,,,,,,,,,,,,,,,,1,"3,461.49",,,,,,Gradska cetvrt NOVI ZAGREB - ISTOK,,,,,,,,,,,,,,,,,,,,,,,,,,
169,,,,,2016-PROGRAM,,Nerazvrstane ceste,Povrat po ugovorima o financiranju,Katicev prilaz,,,"1,827 kn",Katicev prilaz,,,45.764747,15.922673,,,,,,,,,,,,,,,,,,,,,,1,"1,826.90",,,,,,Gradska cetvrt NOVI ZAGREB - ISTOK,,,,,,,,,,,,,,,,,,,,,,,,,,
170,,,,,2016-PROGRAM,,Nerazvrstane ceste,Povrat po ugovorima o financiranju,Zaprudski otok,,,"14,459 kn",Zaprudski otok,,,45.840573,15.990517,,,,,,,,,,,,,,,,,,,,,,1,"14,459.00",,,,,,Gradska cetvrt NOVI ZAGREB - ISTOK,,,,,,,,,,,,,,,,,,,,,,,,,,
171,,,,,2016-PROGRAM,,Nerazvrstane ceste,Povrat po ugovorima o financiranju,Pristupna prometnica Domu za starije osobe,,,"2,196 kn",,,,,,,,,,,,,,,,,,,,,,,,,,,1,"2,196.00",,,,,,Gradska cetvrt NOVI ZAGREB - ISTOK,,,,,,,,,,,,,,,,,,,,,,,,,,
172,,,,,2016-PROGRAM,,Nerazvrstane ceste,Povrat po ugovorima o financiranju,Ulica Jaruscica,,,"60,107 kn",Ulica Jaruscica,,,45.840573,15.990517,,,,,,,,,,,,,,,,,,,,,,1,"60,106.54",,,,,,Gradska cetvrt NOVI ZAGREB - ZAPAD,,,,,,,,,,,,,,,,,,,,,,,,,,
173,,,,,2016-PROGRAM,,Nerazvrstane ceste,Povrat po ugovorima o financiranju,Lukoranski odvojak,,,"4,433 kn",Lukoranski odvojak,,,45.815017,15.997478,,,,,,,,,,,,,,,,,,,,,,1,"4,432.63",,,,,,Gradska cetvrt NOVI ZAGREB - ZAPAD,,,,,,,,,,,,,,,,,,,,,,,,,,
174,,,,,2016-PROGRAM,,Nerazvrstane ceste,Povrat po ugovorima o financiranju,Horvatova ulica,,,"448,660 kn",Horvatova ulica,,,45.785678,15.964291,,,,,,,,,,,,,,,,,,,,,,1,"448,659.64",,,,,,Gradska cetvrt NOVI ZAGREB - ZAPAD,,,,,,,,,,,,,,,,,,,,,,,,,,
175,,,,,2016-PROGRAM,,Nerazvrstane ceste,Povrat po ugovorima o financiranju,Vatikanska ulica - I. etapa,,,"2,067,279 kn",Vatikanska ulica,,,45.840573,15.990517,,,,,,,,,,,,,,,,,,,,,,1,"2,067,278.86",,,,,,Gradska cetvrt NOVI ZAGREB - ZAPAD,,,,,,,,,,,,,,,,,,,,,,,,,,
176,,,,,2016-PROGRAM,,Nerazvrstane ceste,Povrat po ugovorima o financiranju,"Vrbje, Petrovaradinska",,,"3,501,943 kn",Petrovaradinska,,,45.816883,15.980179,,,,,,,,,,,,,,,,,,,,,,1,"3,501,942.50",,,,,,Gradska cetvrt TRESNJEVKA - JUG,,,,,,,,,,,,,,,,,,,17.12.2015,,,,,,,
177,,,,,2016-PROGRAM,,Nerazvrstane ceste,Povrat po ugovorima o financiranju,Domasinecka ulica,,,"609,273 kn",Domasinecka ulica,,,45.799049,15.940955,,,,,,,,,,,,,,,,,,,,,,1,"609,272.64",,,,,,Gradska cetvrt TRESNJEVKA - JUG,,,,,,,,,,,,,,,,,,,,,,,,,,
178,,,,,2016-PROGRAM,,Nerazvrstane ceste,Povrat po ugovorima o financiranju,Ulica Prevoj,,,"3,758 kn",Ulica Prevoj,,,45.840573,15.990517,,,,,,,,,,,,,,,,,,,,,,1,"3,757.60",,,,,,Gradska cetvrt CRNOMEREC,,,,,,,,,,,,,,,,,,,,,,,,,,
179,,,,,2016-PROGRAM,,Nerazvrstane ceste,Povrat po ugovorima o financiranju,Cankarova ulica,,,"2,196 kn",Cankarova ulica,,,45.749905,15.993914,,,,,,,,,,,,,,,,,,,,,,1,"2,196.00",,,,,,Gradska cetvrt CRNOMEREC,,,,,,,,,,,,,,,,,,,,,,,,,,
180,,,,,2016-PROGRAM,,Nerazvrstane ceste,Povrat po ugovorima o financiranju,Vidovcica I. - odvojak,,,"22,057 kn",Vidovcica I.,,,45.840573,15.990517,,,,,,,,,,,,,,,,,,,,,,1,"22,057.00",,,,,,Gradska cetvrt CRNOMEREC,,,,,,,,,,,,,,,,,,,,,,,,,,
181,,,,,2016-PROGRAM,,Nerazvrstane ceste,Povrat po ugovorima o financiranju,Odvojak ulice Dunjevac,,,"267,340 kn",Ulica Dunjevac,,,45.79305,15.993769,,,,,,,,,,,,,,,,,,,,,,1,"267,340.18",,,,,,Gradska cetvrt CRNOMEREC,,,,,,,,,,,,,,,,,,,,,,,,,,
182,,,,,2016-PROGRAM,,Nerazvrstane ceste,Povrat po ugovorima o financiranju,Avenija Dubrava 116,,,"150,000 kn",Avenija Dubrava 116,,,45.80866,15.976272,,,,,,,,,,,,,,,,,,,,,,1,"150,000.00",,,,,,Gradska cetvrt GORNJA DUBRAVA,,,,,,,,,,,,,,,,,,,,,,,,,,
183,,,,,2016-PROGRAM,,Nerazvrstane ceste,Povrat po ugovorima o financiranju,Makarska ulica,,,"113,190 kn",Makarska ulica,,,45.815017,15.997478,,,,,,,,,,,,,,,,,,,,,,1,"113,190.00",,,,,,Gradska cetvrt GORNJA DUBRAVA,,,,,,,,,,,,,,,,,,,,,,,,,,
184,,,,,2016-PROGRAM,,Nerazvrstane ceste,Povrat po ugovorima o financiranju,Ulica Retkovec IV.-Dubrava,,,"26,840 kn",Ulica Retkovec IV.,,,45.840573,15.990517,,,,,,,,,,,,,,,,,,,,,,1,"26,840.00",,,,,,Gradska cetvrt DONJA DUBRAVA,,,,,,,,,,,,,,,,,,,,,,,,,,
185,,,,,2016-PROGRAM,,Nerazvrstane ceste,Povrat po ugovorima o financiranju,Odvojak Tusilovicke ulice,,,"6,100 kn",Tusilovicka ulica,,,45.797223,15.947497,,,,,,,,,,,,,,,,,,,,,,1,"6,100.00",,,,,,Gradska cetvrt STENJEVEC,,,,,,,,,,,,,,,,,,,,,,,,,,
186,,,,,2016-PROGRAM,,Nerazvrstane ceste,Povrat po ugovorima o financiranju,Vrbovljanski put,,,"1,248 kn",Vrbovljanski put,,,45.840573,15.990517,,,,,,,,,,,,,,,,,,,,,,1,"1,248.23",,,,,,Gradska cetvrt STENJEVEC,,,,,,,,,,,,,,,,,,,,,,,,,,
187,,,,,2016-PROGRAM,,Nerazvrstane ceste,Povrat po ugovorima o financiranju,Juzni dio Motajickog puta-naselje Oranice,,,"1,020 kn",Oranice,,,45.872356,16.161889,,,,,,,,,,,,,,,,,,,,,,1,"1,019.51",,,,,,Gradska cetvrt STENJEVEC,,,,,,,,,,,,,,,,,,,,,,,,,,
188,,,,,2016-PROGRAM,,Nerazvrstane ceste,Povrat po ugovorima o financiranju,Dio ulice Pavlenski put,,,"9,558 kn",Ulica Pavlenski put,,,45.840573,15.990517,,,,,,,,,,,,,,,,,,,,,,1,"9,558.23",,,,,,Gradska cetvrt STENJEVEC,,,,,,,,,,,,,,,,,,,,,,,,,,
189,,,,,2016-PROGRAM,,Nerazvrstane ceste,Povrat po ugovorima o financiranju,Ulica Vlade Gotovca,,,"1,255 kn",Ulica Vlade Gotovca,,,45.840573,15.990517,,,,,,,,,,,,,,,,,,,,,,1,"1,255.32",,,,,,Gradska cetvrt STENJEVEC,,,,,,,,,,,,,,,,,,,,,,,,,,
190,,,,,2016-PROGRAM,,Nerazvrstane ceste,Povrat po ugovorima o financiranju,Ulica Pavlenski put,,,"21,466 kn",Ulica Pavlenski put,,,45.840573,15.990517,,,,,,,,,,,,,,,,,,,,,,1,"21,466.13",,,,,,Gradska cetvrt STENJEVEC,,,,,,,,,,,,,,,,,,,,,,,,,,
191,,,,,2016-PROGRAM,,Nerazvrstane ceste,Povrat po ugovorima o financiranju,"Produzetak ""Ulice A""",,,"1,538 kn",Ulice A,,,45.840573,15.990517,,,,,,,,,,,,,,,,,,,,,,1,"1,538.44",,,,,,Gradska cetvrt STENJEVEC,,,,,,,,,,,,,,,,,,,,,,,,,,
192,,,,,2016-PROGRAM,,Nerazvrstane ceste,Povrat po ugovorima o financiranju,Spojna ulica od ulice Vlade Gotovca do mosta Vrabecak,,,"3,688 kn",Ulica Vlade Gotovca,,,45.840573,15.990517,,,,,,,,,,,,,,,,,,,,,,1,"3,687.95",,,,,,Gradska cetvrt STENJEVEC,,,,,,,,,,,,,,,,,,,,,,,,,,
193,,,,,2016-PROGRAM,,Nerazvrstane ceste,Povrat po ugovorima o financiranju,Odvojak Medarske - Antuna Soljana,,,"1,830 kn",,Medarske,Antuna Soljana,45.806242,15.91289,,,,,,,,,,,,,,,,,,,,,,1,"1,830.00",,,,,,Gradska cetvrt STENJEVEC,,,,,,,,,,,,,,,,,,,,,,,,,,
194,,,,,2016-PROGRAM,,Nerazvrstane ceste,Povrat po ugovorima o financiranju,Servisna cesta uz Ljubljansku aveniju,,,"1,579,661 kn",Ljubljanska avenija,,,45.815017,15.997478,,,,,,,,,,,,,,,,,,,,,,1,"1,579,660.81",,,,,,Gradska cetvrt STENJEVEC,,,,,,,,,,,,,,,,,,,,,,,,,,
195,,,,,2016-PROGRAM,,Nerazvrstane ceste,Povrat po ugovorima o financiranju,"Pristupna prometnica oznake ""2"" - Vrapce",,,"2,806 kn","Pristupna prometnica oznake ""2"" - ",,,45.815011,15.981919,,,,,,,,,,,,,,,,,,,,,,1,"2,806.00",,,,,,Gradska cetvrt PODSUSED - VRAPCE,,,,,,,,,,,,,,,,,,,,,,,,,,
196,,,,,2016-PROGRAM,,Nerazvrstane ceste,Povrat po ugovorima o financiranju,Ulica Vucak-Skorpikova,,,"5,150 kn",,Ulica Vucak,Skorpikova,45.840573,15.990517,,,,,,,,,,,,,,,,,,,,,,1,"5,149.62",,,,,,Gradska cetvrt PODSUSED - VRAPCE,,,,,,,,,,,,,,,,,,,,,,,,,,
197,,,,,2016-PROGRAM,,Nerazvrstane ceste,Povrat po ugovorima o financiranju,Vrapce,,,"8,540 kn",Vrapce,,,45.840573,15.990517,,,,,,,,,,,,,,,,,,,,,,1,"8,540.00",,,,,,Gradska cetvrt PODSUSED - VRAPCE,,,,,,,,,,,,,,,,,,,,,,,,,,
198,,,,,2016-PROGRAM,,Nerazvrstane ceste,Povrat po ugovorima o financiranju,Spoj na ulicu Male putine,,,"2,318 kn",Ulica Male putine,,,45.840573,15.990517,,,,,,,,,,,,,,,,,,,,,,1,"2,318.00",,,,,,Gradska cetvrt PODSUSED - VRAPCE,,,,,,,,,,,,,,,,,,,,,,,,,,
199,,,,,2016-PROGRAM,,Nerazvrstane ceste,Povrat po ugovorima o financiranju,Ulica Klenovscak,,,"4,477 kn",Ulica Klenovscak,,,45.840573,15.990517,,,,,,,,,,,,,,,,,,,,,,1,"4,477.32",,,,,,Gradska cetvrt PODSUSED - VRAPCE,,,,,,,,,,,,,,,,,,,,,,,,,,
200,,,,,2016-PROGRAM,,Nerazvrstane ceste,Povrat po ugovorima o financiranju,Sestinska cesta,,,"55,667 kn",Sestinska cesta,,,45.814555,15.973066,,,,,,,,,,,,,,,,,,,,,,1,"55,667.14",,,,,,Gradska cetvrt PODSLJEME,,,,,,,,,,,,,,,,,,,,,,,,,,
201,,,,,2016-PROGRAM,,Nerazvrstane ceste,Povrat po ugovorima o financiranju,Odvojak ulice Dedici,,,"3,788 kn",Ulica Dedici,,,45.811044,15.997651,,,,,,,,,,,,,,,,,,,,,,1,"3,787.81",,,,,,Gradska cetvrt PODSLJEME,,,,,,,,,,,,,,,,,,,,,,,,,,
202,,,,,2016-PROGRAM,,Nerazvrstane ceste,Povrat po ugovorima o financiranju,Odvojak ulice Gronje Prekrizje i rekonstrukcija dijela Svetojanske ulice,,,"4,521 kn",Ulica Gronje Prekrizje,,,45.840573,15.990517,,,,,,,,,,,,,,,,,,,,,,1,"4,521.26",,,,,,Gradska cetvrt PODSLJEME,,,,,,,,,,,,,,,,,,,,,,,,,,
203,,,,,2016-PROGRAM,,Nerazvrstane ceste,Povrat po ugovorima o financiranju,Dugoselska cesta,,,"18,544 kn",Dugoselska cesta,,,45.799049,15.940955,,,,,,,,,,,,,,,,,,,,,,1,"18,544.00",,,,,,Gradska cetvrt SESVETE,,,,,,,,,,,,,,,,,,,,,,,,,,
204,,,,,2016-PROGRAM,,Nerazvrstane ceste,Povrat po ugovorima o financiranju,Odvojak Krasnjanske ulice,,,"2,196 kn",Krasnjanska ulica,,,45.817873,15.975996,,,,,,,,,,,,,,,,,,,,,,1,"2,196.00",,,,,,Gradska cetvrt SESVETE,,,,,,,,,,,,,,,,,,,,,,,,,,
205,,,,,2016-PROGRAM,,Nerazvrstane ceste,Povrat po ugovorima o financiranju,Odvojak Kozarceve ulice,,,"24,541 kn",Kozarceva ulica,,,45.815011,15.981919,,,,,,,,,,,,,,,,,,,,,,1,"24,541.00",,,,,,Gradska cetvrt SESVETE,,,,,,,,,,,,,,,,,,,,,,,,,,
206,,,,,2016-PROGRAM,,Nerazvrstane ceste,Povrat po ugovorima o financiranju,Ulica Krste Hegedusica,,,"24,523 kn",Ulica Krste Hegedusica,,,45.840573,15.990517,,,,,,,,,,,,,,,,,,,,,,1,"24,522.84",,,,,,Gradska cetvrt SESVETE,,,,,,,,,,,,,,,,,,,,,,,,,,
207,,,,,2016-PROGRAM,,Nerazvrstane ceste,Povrat po ugovorima o financiranju,Zona ciglana Sesvete,,,"18,942 kn",Sesvete,,,45.800623,15.943401,,,,,,,,,,,,,,,,,,,,,,1,"18,941.74",,,,,,Gradska cetvrt SESVETE,,,,,,,,,,,,,,,,,,,,,,,,,,
208,,,,,2016-PROGRAM,,Groblja i krematorij,Prenesene obveze iz prethodnog razdoblja,Privremena sanacija klizista na spoju novog dijela groblja Mirogoj i Gaja urni,,,"236,292 kn",Mirogoj,,,45.806242,15.91289,,,,,,,,,,,,,,,,,,,,,,1,"236,292.38",Gradenje,G,,,,Gradska cetvrt GORNJI GRAD - MEDVESCAK,Zona 1,,,,,,,,,,,,,,,,,,,,,,,,,
209,,,,,2016-PROGRAM,,Groblja i krematorij,Prenesene obveze iz prethodnog razdoblja,Izrada tehnicke dokumentacije za sanaciju klizista na groblju Mirogoj – polje 157 i polje 109,,,"150,000 kn",Mirogoj,,,45.806242,15.91289,,,,,,,,,,,,,,,,,,,,,,1,"150,000.00",Tehnicka dokumentacija,TD,,,,Gradska cetvrt GORNJI GRAD - MEDVESCAK,Zona 1,,,,,,,,,,,,,,,,,,,,,,,,,
210,,,,,2016-PROGRAM,,Groblja i krematorij,Nove obveze,Izgradnja ograde na groblju Mirogoj- Remetska cesta etapa I,,,"2,500,000 kn",Mirogoj,,,45.806242,15.91289,,,,,,,,,,,,,,,,,,,,,,1,"2,500,000.00",Gradenje,G,,,,Gradska cetvrt GORNJI GRAD - MEDVESCAK,Zona 1,,,,,,,,,,,,,,,,,,,,,,,,,
211,,,,,2016-PROGRAM,,Groblja i krematorij,Nove obveze,Izrada tehnicke dokumentacije za sanaciju cesta i kanalizacije na groblju Mirogoj,,,"100,000 kn",Mirogoj,,,45.806242,15.91289,,,,,,,,,,,,,,,,,,,,,,1,"100,000.00",Tehnicka dokumentacija,TD,,,,Gradska cetvrt GORNJI GRAD - MEDVESCAK,Zona 1,,,,,,,,,,,,,,,,,,,,,,,,,
212,,,,,2016-PROGRAM,,Groblja i krematorij,Nove obveze,Sanacija cesta i kanalizacije na groblju Mirogoj,,,"1,250,000 kn",Mirogoj,,,45.806242,15.91289,,,,,,,,,,,,,,,,,,,,,,1,"1,250,000.00",Gradenje,G,,,,Gradska cetvrt GORNJI GRAD - MEDVESCAK,Zona 1,,,,,,,,,,,,,,,,,,,,,,,,,
213,,,,,2016-PROGRAM,,Groblja i krematorij,Nove obveze,Uredenje novih grobnih poljana na groblju Gaj urni,,,"2,000,000 kn",Gaj urni,,,45.807148,16.160176,,,,,,,,,,,,,,,,,,,,,,1,"2,000,000.00",Gradenje,G,,,,Gradska cetvrt GORNJI GRAD - MEDVESCAK,Zona 1,,,,,,,,,,,,,,,,,,,,,,,,,
214,,,,,2016-PROGRAM,,Groblja i krematorij,Nove obveze,Izgradnja novog grobnog polja na Mirogoju kod vodotornja,,,"2,000,000 kn",Mirogoj,,,45.806242,15.91289,,,,,,,,,,,,,,,,,,,,,,1,"2,000,000.00",Gradenje,G,,,,Gradska cetvrt GORNJI GRAD - MEDVESCAK,Zona 1,,,,,,,,,,,,,,,,,,,,,,,,,
215,,,,,2016-PROGRAM,,Groblja i krematorij,Nove obveze,Izrada tehnicke dokumentacije za ogradivanje groblja Mirogoj i Gaj urni,,,"500,000 kn",Mirogoj,,,45.806242,15.91289,,,,,,,,,,,,,,,,,,,,,,1,"500,000.00",Tehnicka dokumentacija,TD,,,,Gradska cetvrt GORNJI GRAD - MEDVESCAK,Zona 1,,,,,,,,,,,,,,,,,,,,,,,,,
216,,,,,2016-PROGRAM,,Groblja i krematorij,Nove obveze,Izrada ograde groblja Mirogoj i Gaj urni,,,"1,000,000 kn",Mirogoj,,,45.806242,15.91289,,,,,,,,,,,,,,,,,,,,,,1,"1,000,000.00",Gradenje,G,,,,Gradska cetvrt GORNJI GRAD - MEDVESCAK,Zona 1,,,,,,,,,,,,,,,,,,,,,,,,,
217,,,,,2016-PROGRAM,,Groblja i krematorij,Nove obveze,Strucni nadzor nad sanacijom cesta i kanalizacije na groblju Mirogoj,,,"30,000 kn",Mirogoj,,,45.806242,15.91289,,,,,,,,,,,,,,,,,,,,,,1,"30,000.00",Nadzor,N,,,,Gradska cetvrt GORNJI GRAD - MEDVESCAK,Zona 1,,,,,,,,,,,,,,,,,,,,,,,,,
218,,,,,2016-PROGRAM,,Groblja i krematorij,Nove obveze,Kordinator II zastite na radu nad sanacijom cesta i kanalizacije na groblju Mirogoj,,,"15,000 kn",Mirogoj,,,45.806242,15.91289,,,,,,,,,,,,,,,,,,,,,,1,"15,000.00",,,,,,Gradska cetvrt GORNJI GRAD - MEDVESCAK,Zona 1,,,,,,,,,,,,,,,,,,,,,,,,,
219,,,,,2016-PROGRAM,,Groblja i krematorij,Nove obveze,￼Izrada tehnicke dokumentaije za sanaciju cesta i kanalizacija na groblju Mirosevac,,,"50,000 kn",Mirosevac,,,45.806242,15.91289,,,,,,,,,,,,,,,,,,,,,,1,"50,000.00",Tehnicka dokumentacija,TD,,,,Gradska cetvrt GORNJA DUBRAVA,Zona 3,,,,,,,,,,,,,,,,,,,,,,,,,
220,,,,,2016-PROGRAM,,Groblja i krematorij,Prenesene obveze iz prethodnog razdoblja,Izrada programa za urbanisticki plan uredenja za groblje Moravce,,,"222,500 kn",Moravce,,,45.806242,15.91289,,,,,,,,,,,,,,,,,,,,,,1,"222,500.00",Tehnicka dokumentacija,TD,,,,Gradska cetvrt SESVETE,Zona 4,,,,,,,,,,,,,,,,,,,,,,,,,
221,,,,,2016-PROGRAM,,Groblja i krematorij,Prenesene obveze iz prethodnog razdoblja,Izrada urbanistickog plana uredenja groblja Markovo polje,,,"105,750 kn",Markovo polje,,,45.791076,15.910921,,,,,,,,,,,,,,,,,,,,,,1,"105,750.00",Tehnicka dokumentacija,TD,,,,Gradska cetvrt SESVETE,Zona 4,,,,,,,,,,,,,,,,,,,,,,,,,
222,,,,,2016-PROGRAM,,Groblja i krematorij,Nove obveze,Izrada tehnicke dokumentacije za izgradnju mrtvacnice na groblju Moravce,,,"150,000 kn",Moravce,,,45.806242,15.91289,,,,,,,,,,,,,,,,,,,,,,1,"150,000.00",Tehnicka dokumentacija,TD,,,,Gradska cetvrt SESVETE,Zona 4,,,,,,,,,,,,,,,,,,,,,,,,,
223,,,,,2016-PROGRAM,,Groblja i krematorij,Nove obveze,Izgradnja mrtvacnice na groblju Moravce,,,"1,500,000 kn",Moravce,,,45.806242,15.91289,,,,,,,,,,,,,,,,,,,,,,1,"1,500,000.00",Gradenje,G,,,,Gradska cetvrt SESVETE,Zona 4,,,,,,,,,,,,,,,,,,,,,,,,,
224,,,,,2016-PROGRAM,,Groblja i krematorij,Nove obveze,Izrada tehnicke dokumentacije za I fazu prosirenja groblja Markovo polje,,,"500,000 kn",Markovo polje,,,45.791076,15.910921,,,,,,,,,,,,,,,,,,,,,,1,"500,000.00",Tehnicka dokumentacija,TD,,,,Gradska cetvrt SESVETE,Zona 4,,,,,,,,,,,,,,,,,,,,,,,,,
225,,,,,2016-PROGRAM,,Groblja i krematorij,Nove obveze,Otkup zemljista za prosirenje groblja,,,"3,990,458 kn",,,,,,,,,,,,,,,,,,,,,,,,,,,1,"3,990,457.62",,,,,,OSTALO,,,,,,,,,,,,,,,,,,,,,,,,,,
226,,,,,2016-PROGRAM,,Groblja i krematorij,Nove obveze,"Izrada urbanistickog plan uredenja malih groblja ( Stenjevec, Sestine, Gornje Vrapce, Granesina, Cerje)",,,"200,000 kn",,,,,,,,,,,,,,,,,,,,,,,,,,,1,"200,000.00",Tehnicka dokumentacija,TD,,,,OSTALO,,,,,,,,,,,,,,,,,,,,,,,,,,
227,,,,,2016-PROGRAM,,Javna rasvjeta,Prenesene obveze iz prethodnog razdoblja,"Oko objekta MORH, Bauerova, Stanciceva, Trg kralja Petra Kresimira IV.",,,"8,188 kn",Bauerova,,,45.833703,16.002477,,,,,,,,,,,,,,,,,,,,,,1,"8,187.50",Tehnicka dokumentacija,TD,,,,Gradska cetvrt DONJI GRAD,Zona 1,,,,,,,,,,,,,,,,,,,,,,,,,
228,,,,,2016-PROGRAM,,Javna rasvjeta,Prenesene obveze iz prethodnog razdoblja,Primorska,,,"1,875 kn",Primorska,,,45.811397,15.944426,,,,,,,,,,,,,,,,,,,,,,1,"1,875.00",Tehnicka dokumentacija,TD,,,,Gradska cetvrt DONJI GRAD,Zona 1,,,,,,,,,,,,,,,,,,,,,,,,,
229,,,,,2016-PROGRAM,,Javna rasvjeta,Prenesene obveze iz prethodnog razdoblja,Tomislavov trg,,,"110,729 kn",Tomislavov trg,,,45.814555,15.973066,,,,,,,,,,,,,,,,,,,,,,1,"110,728.75",Tehnicka dokumentacija,TD,,,,Gradska cetvrt DONJI GRAD,Zona 1,,,,,,,,,,,,,,,,,,,,,,,,,
230,,,,,2016-PROGRAM,,Javna rasvjeta,Povrat po ugovorima o financiranju,Varsavska ulica,,,0 kn,Varsavska ulica,,,45.840573,15.990517,,,,,,,,,,,,,,,,,,,,,,1,0.00,Gradenje,G,,,,Gradska cetvrt DONJI GRAD,Zona 1,,,,,,,,,,,,,,,,,,,,,,,,,
231,,,,,2016-PROGRAM,,Javna rasvjeta,Nove obveze,Ulica Kneza Trpimira,,,"250,000 kn",Ulica Kneza Trpimira,,,45.840573,15.990517,,,,,,,,,,,,,,,,,,,,,,1,"250,000.00",Gradenje,G,,,,Gradska cetvrt DONJI GRAD,Zona 1,,,,,,,,,,,,,,,,,,,,,,,,,
232,,,,,2016-PROGRAM,,Javna rasvjeta,Nove obveze,Ulica Kneza Trpimira,,,"10,000 kn",Ulica Kneza Trpimira,,,45.840573,15.990517,,,,,,,,,,,,,,,,,,,,,,1,"10,000.00",Nadzor,N,,,,Gradska cetvrt DONJI GRAD,Zona 1,,,,,,,,,,,,,,,,,,,,,,,,,
233,,,,,2016-PROGRAM,,Javna rasvjeta,Nove obveze,"Trg kralja Petra Svacica, Haulikova i Kumiciceva ulica",,,"400,000 kn",Trg kralja Petra Svacica,,,45.667262,15.647106,,,,,,,,,,,,,,,,,,,,,,1,"400,000.00",Gradenje,G,,,,Gradska cetvrt DONJI GRAD,Zona 1,,,,,,,,,,,,,,,,,,,,,,,,,
234,,,,,2016-PROGRAM,,Javna rasvjeta,Nove obveze,"Trg kralja Petra Svacica, Haulikova i Kumiciceva ulica",,,"15,000 kn",Trg kralja Petra Svacica,,,45.667262,15.647106,,,,,,,,,,,,,,,,,,,,,,1,"15,000.00",Nadzor,N,,,,Gradska cetvrt DONJI GRAD,Zona 1,,,,,,,,,,,,,,,,,,,,,,,,,
235,,,,,2016-PROGRAM,,Javna rasvjeta,Nove obveze,Primorska ulica,,,"200,000 kn",Primorska ulica,,,45.810736,15.960924,,,,,,,,,,,,,,,,,,,,,,1,"200,000.00",Gradenje,G,,,,Gradska cetvrt DONJI GRAD,Zona 1,,,,,,,,,,,,,,,,,,,,,,,,,
236,,,,,2016-PROGRAM,,Javna rasvjeta,Nove obveze,Primorska ulica,,,"10,000 kn",Primorska ulica,,,45.810736,15.960924,,,,,,,,,,,,,,,,,,,,,,1,"10,000.00",Nadzor,N,,,,Gradska cetvrt DONJI GRAD,Zona 1,,,,,,,,,,,,,,,,,,,,,,,,,
237,,,,,2016-PROGRAM,,Javna rasvjeta,Nove obveze,Varsavska ulica,,,"30,000 kn",Varsavska ulica,,,45.840573,15.990517,,,,,,,,,,,,,,,,,,,,,,1,"30,000.00",Tehnicka dokumentacija,TD,,,,Gradska cetvrt DONJI GRAD,Zona 1,,,,,,,,,,,,,,,,,,,,,,,,,
238,,,,,2016-PROGRAM,,Javna rasvjeta,Nove obveze,Modernizacija sustava ovjesne javne rasvjete u Donjem gradu,,,"60,000 kn",Donji grad,,,45.799049,15.940955,,,,,,,,,,,,,,,,,,,,,,1,"60,000.00",Tehnicka dokumentacija,TD,,,,Gradska cetvrt DONJI GRAD,Zona 1,,,,,,,,,,,,,,,,,,,,,,,,,
239,,,,,2016-PROGRAM,,Javna rasvjeta,Nove obveze,Rooseveltov trg u zoni tramvajskih stajalista,,,"15,000 kn",Rooseveltov trg,,,45.813987,16.055977,,,,,,,,,,,,,,,,,,,,,,1,"15,000.00",Tehnicka dokumentacija,TD,,,,Gradska cetvrt DONJI GRAD,Zona 1,,,,,,,,,,,,,,,,,,,,,,,,,
240,,,,,2016-PROGRAM,,Javna rasvjeta,Nove obveze,Ulica kneza Branimira od Glavnog kolodvora do Avenija Marina Drzica,,,"50,000 kn",Ulica kneza Branimira,,,45.840573,15.990517,,,,,,,,,,,,,,,,,,,,,,1,"50,000.00",Tehnicka dokumentacija,TD,,,,Gradska cetvrt DONJI GRAD,Zona 1,,,,,,,,,,,,,,,,,,,,,,,,,
241,,,,,2016-PROGRAM,,Javna rasvjeta,Nove obveze,Ulica Marijana Derencina,,,"30,000 kn",Ulica Marijana Derencina,,,45.840573,15.990517,,,,,,,,,,,,,,,,,,,,,,1,"30,000.00",Tehnicka dokumentacija,TD,,,,Gradska cetvrt DONJI GRAD,Zona 1,,,,,,,,,,,,,,,,,,,,,,,,,
242,,,,,2016-PROGRAM,,Javna rasvjeta,Prenesene obveze iz prethodnog razdoblja,Odvojak Svetojanske ulice,,,"2,250 kn",Svetojanska ulica,,,45.814555,15.973066,,,,,,,,,,,,,,,,,,,,,,1,"2,250.00",Nadzor,N,,,,Gradska cetvrt GORNJI GRAD - MEDVESCAK,Zona 1,,,,,,,,,,,,,,,,,,,,,,,,,
243,,,,,2016-PROGRAM,,Javna rasvjeta,Prenesene obveze iz prethodnog razdoblja,Mirogojska cesta,,,"15,625 kn",Mirogojska cesta,,,45.806242,15.91289,,,,,,,,,,,,,,,,,,,,,,1,"15,625.00",Tehnicka dokumentacija,TD,,,,Gradska cetvrt GORNJI GRAD - MEDVESCAK,Zona 1,,,,,,,,,,,,,,,,,,,,,,,,,
244,,,,,2016-PROGRAM,,Javna rasvjeta,Prenesene obveze iz prethodnog razdoblja,Ulice i trgovi na Gornjem Gradu -Gricu,,,"38,500 kn",Gric,,,45.851323,15.976497,,,,,,,,,,,,,,,,,,,,,,1,"38,500.00",Tehnicka dokumentacija,TD,,,,Gradska cetvrt GORNJI GRAD - MEDVESCAK,Zona 1,,,,,,,,,,,,,,,,,,,,,,,,,
245,,,,,2016-PROGRAM,,Javna rasvjeta,Prenesene obveze iz prethodnog razdoblja,Stube Sandora A. Alexandera,,,"15,500 kn",Stube Sandora A. Alexandera,,,45.814555,15.973066,,,,,,,,,,,,,,,,,,,,,,1,"15,500.00",Tehnicka dokumentacija,TD,,,,Gradska cetvrt GORNJI GRAD - MEDVESCAK,Zona 1,,,,,,,,,,,,,,,,,,,,,,,,,
246,,,,,2016-PROGRAM,,Javna rasvjeta,Prenesene obveze iz prethodnog razdoblja,Park uz Bugarsku Pravoslavnu Crkvu u Jurjevskoj ulici,,,"12,500 kn",Jurjevska ulica,,,45.808749,15.959763,,,,,,,,,,,,,,,,,,,,,,1,"12,500.00",Tehnicka dokumentacija,TD,,,,Gradska cetvrt GORNJI GRAD - MEDVESCAK,Zona 1,,,,,,,,,,,,,,,,,,,,,,,,,
247,,,,,2016-PROGRAM,,Javna rasvjeta,Prenesene obveze iz prethodnog razdoblja,"Okolis Djecjeg vrtica Vjeverica, Ksaverska cesta 14",,,"17,500 kn",Ksaverska cesta 14,,,45.817873,15.975996,,,,,,,,,,,,,,,,,,,,,,1,"17,500.00",Tehnicka dokumentacija,TD,,,,Gradska cetvrt GORNJI GRAD - MEDVESCAK,Zona 1,,,,,,,,,,,,,,,,,,,,,,,,,
248,,,,,2016-PROGRAM,,Javna rasvjeta,Prenesene obveze iz prethodnog razdoblja,Stube uz Uspinjacu u Ulici Josipa Eugena Tomica,,,"18,750 kn",Ulica Josipa Eugena Tomica,,,45.840573,15.990517,,,,,,,,,,,,,,,,,,,,,,1,"18,750.00",Tehnicka dokumentacija,TD,,,,Gradska cetvrt GORNJI GRAD - MEDVESCAK,Zona 1,,,,,,,,,,,,,,,,,,,,,,,,,
249,,,,,2016-PROGRAM,,Javna rasvjeta,Nove obveze,Ulica Pavla Radica od Trga Brace hrvatskog zmaja do Ilirskog trga,,,"25,000 kn",Ulica Pavla Radica,,,45.840573,15.990517,,,,,,,,,,,,,,,,,,,,,,1,"25,000.00",Tehnicka dokumentacija,TD,,,,Gradska cetvrt GORNJI GRAD - MEDVESCAK,Zona 1,,,,,,,,,,,,,,,,,,,,,,,,,
250,,,,,2016-PROGRAM,,Javna rasvjeta,Nove obveze,Ulica Pavla Radica,,,"195,000 kn",Ulica Pavla Radica,,,45.840573,15.990517,,,,,,,,,,,,,,,,,,,,,,1,"195,000.00",Gradenje,G,,,,Gradska cetvrt GORNJI GRAD - MEDVESCAK,Zona 1,,,,,,,,,,,,,,,,,,,,,,,,,
251,,,,,2016-PROGRAM,,Javna rasvjeta,Nove obveze,Ulica Pavla Radica,,,"8,000 kn",Ulica Pavla Radica,,,45.840573,15.990517,,,,,,,,,,,,,,,,,,,,,,1,"8,000.00",Nadzor,N,,,,Gradska cetvrt GORNJI GRAD - MEDVESCAK,Zona 1,,,,,,,,,,,,,,,,,,,,,,,,,
252,,,,,2016-PROGRAM,,Javna rasvjeta,Nove obveze,Ulica Pantovcak,,,"50,000 kn",Ulica Pantovcak,,,45.840573,15.990517,,,,,,,,,,,,,,,,,,,,,,1,"50,000.00",Tehnicka dokumentacija,TD,,,,Gradska cetvrt GORNJI GRAD - MEDVESCAK,Zona 1,,,,,,,,,,,,,,,,,,,,,,,,,
253,,,,,2016-PROGRAM,,Javna rasvjeta,Nove obveze,Ulica Paskala Buconjica,,,"25,000 kn",Ulica Paskala Buconjica,,,45.840573,15.990517,,,,,,,,,,,,,,,,,,,,,,1,"25,000.00",Tehnicka dokumentacija,TD,,,,Gradska cetvrt GORNJI GRAD - MEDVESCAK,Zona 1,,,,,,,,,,,,,,,,,,,,,,,,,
254,,,,,2016-PROGRAM,,Javna rasvjeta,Prenesene obveze iz prethodnog razdoblja,Prometna petlja Avenija Marina Drzica- Slavonska avenija,,,"219,501 kn",,Avenija Marina Drzica,Slavonska avenija,45.80866,15.976272,,,,,,,,,,,,,,,,,,,,,,1,"219,501.31",Gradenje,G,,,,Gradska cetvrt TRNJE,Zona 1,,,,,,,,,,,,,,,,,,,,,,,,,
255,,,,,2016-PROGRAM,,Javna rasvjeta,Prenesene obveze iz prethodnog razdoblja,Prometna petlja Avenija MarinaDrzica- Slavonska avenija,,,"1,250 kn",,Avenija Marina Drzica,Slavonska avenija,45.80866,15.976272,,,,,,,,,,,,,,,,,,,,,,1,"1,250.00",Nadzor,N,,,,Gradska cetvrt TRNJE,Zona 1,,,,,,,,,,,,,,,,,,,,,,,,,
256,,,,,2016-PROGRAM,,Javna rasvjeta,Prenesene obveze iz prethodnog razdoblja,Pile II.,,,"14,875 kn",Pile II.,,,45.816883,15.980179,,,,,,,,,,,,,,,,,,,,,,1,"14,875.00",Tehnicka dokumentacija,TD,,,,Gradska cetvrt TRNJE,Zona 1,,,,,,,,,,,,,,,,,,,,,,,,,
257,,,,,2016-PROGRAM,,Javna rasvjeta,Prenesene obveze iz prethodnog razdoblja,Ulica Spiridiona Brusine,,,"9,875 kn",Ulica Spiridiona Brusine,,,45.840573,15.990517,,,,,,,,,,,,,,,,,,,,,,1,"9,875.00",Tehnicka dokumentacija,TD,,,,Gradska cetvrt TRNJE,Zona 1,,,,,,,,,,,,,,,,,,,,,,,,,
258,,,,,2016-PROGRAM,,Javna rasvjeta,Prenesene obveze iz prethodnog razdoblja,Veslacka,,,"9,600 kn",Veslacka,,,45.840573,15.990517,,,,,,,,,,,,,,,,,,,,,,1,"9,600.00",Tehnicka dokumentacija,TD,,,,Gradska cetvrt TRNJE,Zona 2,,,,,,,,,,,,,,,,,,,,,,,,,
259,,,,,2016-PROGRAM,,Javna rasvjeta,Prenesene obveze iz prethodnog razdoblja,Sjeverni savski nasip od Jadranskog mosta do Mosta mladosti,,,"14,125 kn",Jadranski most,,,45.76774,15.925678,,,,,,,,,,,,,,,,,,,,,,1,"14,125.00",Tehnicka dokumentacija,TD,,,,Gradska cetvrt TRNJE,Zona 2,,,,,,,,,,,,,,,,,,,,,,,,,
260,,,,,2016-PROGRAM,,Javna rasvjeta,Nove obveze,Ulica Mavra Vetranica,,,"30,000 kn",Ulica Mavra Vetranica,,,45.840573,15.990517,,,,,,,,,,,,,,,,,,,,,,1,"30,000.00",Tehnicka dokumentacija,TD,,,,Gradska cetvrt TRNJE,Zona 1,,,,,,,,,,,,,,,,,,,,,,,,,
261,,,,,2016-PROGRAM,,Javna rasvjeta,Nove obveze,Sjeverni savski nasip od Jadranskog mosta do Mosta mladosti,,,"2,200,000 kn",Jadranski most,,,45.76774,15.925678,,,,,,,,,,,,,,,,,,,,,,1,"2,200,000.00",Gradenje,G,,,,Gradska cetvrt TRNJE,Zona 2,,,,,,,,,,,,,,,,,,,,,,,,,
262,,,,,2016-PROGRAM,,Javna rasvjeta,Nove obveze,Sjeverni savski nasip od Jadranskog mosta do Mosta mladosti,,,"30,000 kn",Jadranski most,,,45.76774,15.925678,,,,,,,,,,,,,,,,,,,,,,1,"30,000.00",Nadzor,N,,,,Gradska cetvrt TRNJE,Zona 2,,,,,,,,,,,,,,,,,,,,,,,,,
263,,,,,2016-PROGRAM,,Javna rasvjeta,Nove obveze,Park 148. brigade,,,"600,000 kn",Park 148. brigade,,,45.800721,15.998245,,,,,,,,,,,,,,,,,,,,,,1,"600,000.00",Gradenje,G,,,,Gradska cetvrt TRNJE,Zona 2,,,,,,,,,,,,,,,,,,,,,,,,,
264,,,,,2016-PROGRAM,,Javna rasvjeta,Nove obveze,Park 148. brigade,,,"20,000 kn",Park 148. brigade,,,45.800721,15.998245,,,,,,,,,,,,,,,,,,,,,,1,"20,000.00",Nadzor,N,,,,Gradska cetvrt TRNJE,Zona 2,,,,,,,,,,,,,,,,,,,,,,,,,
265,,,,,2016-PROGRAM,,Javna rasvjeta,Nove obveze,Pjesacka staza uz Ulicu grada Vukovara od Palace pravde do Hrvatskih voda,,,"250,000 kn",Ulica grada Vukovara,,,45.840573,15.990517,,,,,,,,,,,,,,,,,,,,,,1,"250,000.00",Gradenje,G,,,,Gradska cetvrt TRNJE,Zona 2,,,,,,,,,,,,,,,,,,,,,,,,,
266,,,,,2016-PROGRAM,,Javna rasvjeta,Nove obveze,Pjesacka staza uz Ulicu grada Vukovara od Palace pravde do Hrvatskih voda,,,"10,000 kn",Ulica grada Vukovara,,,45.840573,15.990517,,,,,,,,,,,,,,,,,,,,,,1,"10,000.00",Nadzor,N,,,,Gradska cetvrt TRNJE,Zona 2,,,,,,,,,,,,,,,,,,,,,,,,,
267,,,,,2016-PROGRAM,,Javna rasvjeta,Nove obveze,"Prometna petlja Avenija Marina Drzica- Slavonska avenija,demontaza stupova",,,"750,000 kn",,Avenija Marina Drzica,Slavonska avenija,45.80866,15.976272,,,,,,,,,,,,,,,,,,,,,,1,"750,000.00",Gradenje,G,,,,Gradska cetvrt TRNJE,Zona 2,,,,,,,,,,,,,,,,,,,,,,,,,
268,,,,,2016-PROGRAM,,Javna rasvjeta,Nove obveze,"Prometna petlja Avenija Marina Drzica - Slavonska avenija, demontaza stupova",,,"20,000 kn",,Avenija Marina Drzica,Slavonska avenija,45.80866,15.976272,,,,,,,,,,,,,,,,,,,,,,1,"20,000.00",Nadzor,N,,,,Gradska cetvrt TRNJE,Zona 2,,,,,,,,,,,,,,,,,,,,,,,,,
269,,,,,2016-PROGRAM,,Javna rasvjeta,Nove obveze,Slavonska avenija - 1. etapa,,,"30,000 kn",Slavonska avenija,,,45.79779,16.034148,,,,,,,,,,,,,,,,,,,,,,1,"30,000.00",Tehnicka dokumentacija,TD,,,,Gradska cetvrt TRNJE,Zona 2,,,,,,,,,,,,,,,,,,,,,,,,,
270,,,,,2016-PROGRAM,,Javna rasvjeta,Nove obveze,Slavonska avenija - 1. etapa,,,"600,000 kn",Slavonska avenija,,,45.79779,16.034148,,,,,,,,,,,,,,,,,,,,,,1,"600,000.00",Gradenje,G,,,,Gradska cetvrt TRNJE,Zona 2,,,,,,,,,,,,,,,,,,,,,,,,,
271,,,,,2016-PROGRAM,,Javna rasvjeta,Nove obveze,Slavonska avenija - 1. etapa,,,"25,000 kn",Slavonska avenija,,,45.79779,16.034148,,,,,,,,,,,,,,,,,,,,,,1,"25,000.00",Nadzor,N,,,,Gradska cetvrt TRNJE,Zona 2,,,,,,,,,,,,,,,,,,,,,,,,,
272,,,,,2016-PROGRAM,,Javna rasvjeta,Prenesene obveze iz prethodnog razdoblja,Park u Bijenickoj cesti 97,,,"7,500 kn",Bijenicka cesta 97,,,45.833703,16.002477,,,,,,,,,,,,,,,,,,,,,,1,"7,500.00",Tehnicka dokumentacija,TD,,,,Gradska cetvrt MAKSIMIR,Zona 2,,,,,,,,,,,,,,,,,,,,,,,,,
273,,,,,2016-PROGRAM,,Javna rasvjeta,Nove obveze,Maksimirska,,,"50,000 kn",Maksimirska,,,45.815017,15.997478,,,,,,,,,,,,,,,,,,,,,,1,"50,000.00",Tehnicka dokumentacija,TD,,,,Gradska cetvrt MAKSIMIR,Zona 1,,,,,,,,,,,,,,,,,,,,,,,,,
274,,,,,2016-PROGRAM,,Javna rasvjeta,Nove obveze,Trg Otokara Kersovanija - Kuhaceva ulica - Ulica Gjure Eisenhutha,,,"30,000 kn",Trg Otokara Kersovanija,,,45.806349,15.977984,,,,,,,,,,,,,,,,,,,,,,1,"30,000.00",Tehnicka dokumentacija,TD,,,,Gradska cetvrt MAKSIMIR,Zona 1,,,,,,,,,,,,,,,,,,,,,,,,,
275,,,,,2016-PROGRAM,,Javna rasvjeta,Nove obveze,Ulica kralja Zvonimira od Heinzelove do Harambasiceve,,,"20,000 kn",Ulica kralja Zvonimira,,,45.840573,15.990517,,,,,,,,,,,,,,,,,,,,,,1,"20,000.00",Tehnicka dokumentacija,TD,,,,Gradska cetvrt MAKSIMIR,Zona 1,,,,,,,,,,,,,,,,,,,,,,,,,
276,,,,,2016-PROGRAM,,Javna rasvjeta,Prenesene obveze iz prethodnog razdoblja,Koledovcina - I. etapa,,,"42,882 kn",Koledovcina,,,45.764747,15.922673,,,,,,,,,,,,,,,,,,,,,,1,"42,882.13",Gradenje,G,,,,Gradska cetvrt PESCENICA - ZITNJAK,Zona 3,,,,,,,,,,,,,,,,,,,,,,,,,
277,,,,,2016-PROGRAM,,Javna rasvjeta,Prenesene obveze iz prethodnog razdoblja,Koledovcina - I. etapa,,,"4,950 kn",Koledovcina,,,45.764747,15.922673,,,,,,,,,,,,,,,,,,,,,,1,"4,950.00",Nadzor,N,,,,Gradska cetvrt PESCENICA - ZITNJAK,Zona 3,,,,,,,,,,,,,,,,,,,,,,,,,
278,,,,,2016-PROGRAM,,Javna rasvjeta,Prenesene obveze iz prethodnog razdoblja,Ulica Mije Haleusa,,,"4,151 kn",Ulica Mije Haleusa,,,45.840573,15.990517,,,,,,,,,,,,,,,,,,,,,,1,"4,151.25",Tehnicka dokumentacija,TD,,,,Gradska cetvrt PESCENICA - ZITNJAK,Zona 4,,,,,,,,,,,,,,,,,,,,,,,,,
279,,,,,2016-PROGRAM,,Javna rasvjeta,Prenesene obveze iz prethodnog razdoblja,Ulica Mije Haleusa - II. Resnik,,,"98,376 kn",Ulica Mije Haleusa,,,45.840573,15.990517,,,,,,,,,,,,,,,,,,,,,,1,"98,375.90",Gradenje,G,,,,Gradska cetvrt PESCENICA - ZITNJAK,Zona 4,,,,,,,,,,,,,,,,,,,,,,,,,
280,,,,,2016-PROGRAM,,Javna rasvjeta,Prenesene obveze iz prethodnog razdoblja,Ivanicgradska,,,"17,500 kn",Ivanicgradska,,,45.814483,15.937709,,,,,,,,,,,,,,,,,,,,,,1,"17,500.00",Tehnicka dokumentacija,TD,,,,Gradska cetvrt PESCENICA - ZITNJAK,Zona 4,,,,,,,,,,,,,,,,,,,,,,,,,
281,,,,,2016-PROGRAM,,Javna rasvjeta,Ugovori o financiranju (stvarni trosak),"Ulica 1, Heinzelova-Vukovarska",,,"202,267 kn",,Heinzelova,Vukovarska,45.805645,16.007429,,,,,,,,,,,,,,,,,,,,,,1,"202,266.87",Gradenje,G,,,,Gradska cetvrt PESCENICA - ZITNJAK,Zona 2,,,,,,,,,,,,,,,,,,,,,,,,,
282,,,,,2016-PROGRAM,,Javna rasvjeta,Nove obveze,Slavonska avenija - 2. etapa,,,"30,000 kn",Slavonska avenija,,,45.79779,16.034148,,,,,,,,,,,,,,,,,,,,,,1,"30,000.00",Tehnicka dokumentacija,TD,,,,Gradska cetvrt PESCENICA - ZITNJAK,Zona 2,,,,,,,,,,,,,,,,,,,,,,,,,
283,,,,,2016-PROGRAM,,Javna rasvjeta,Prenesene obveze iz prethodnog razdoblja,Ulica Bozidara Magovca,,,"15,625 kn",Ulica Bozidara Magovca,,,45.811044,15.997651,,,,,,,,,,,,,,,,,,,,,,1,"15,625.00",Tehnicka dokumentacija,TD,,,,Gradska cetvrt NOVI ZAGREB - ISTOK,Zona 2,,,,,,,,,,,,,,,,,,,,,,,,,
284,,,,,2016-PROGRAM,,Javna rasvjeta,Prenesene obveze iz prethodnog razdoblja,OS Dugave i OS Fran Galovic,,,"17,500 kn",Skolski prilaz bb,,,45.814555,15.973066,,,,,,,,,,,,,,,,,,,,,,1,"17,500.00",Tehnicka dokumentacija,TD,,,,Gradska cetvrt NOVI ZAGREB - ISTOK,Zona 2,,,,,,,,,,,,,,,,,,,,,,,,,
285,,,,,2016-PROGRAM,,Javna rasvjeta,Prenesene obveze iz prethodnog razdoblja,Park za pse u Utrinama,,,"14,875 kn",Utrine,,,45.840573,15.990517,,,,,,,,,,,,,,,,,,,,,,1,"14,875.00",Tehnicka dokumentacija,TD,,,,Gradska cetvrt NOVI ZAGREB - ISTOK,Zona 2,,,,,,,,,,,,,,,,,,,,,,,,,
286,,,,,2016-PROGRAM,,Javna rasvjeta,Prenesene obveze iz prethodnog razdoblja,Parkiraliste u Ulici Stjepana Gradica 3-11,,,"11,250 kn",Ulica Stjepana Gradica 3,,,45.840573,15.990517,,,,,,,,,,,,,,,,,,,,,,1,"11,250.00",Tehnicka dokumentacija,TD,,,,Gradska cetvrt NOVI ZAGREB - ISTOK,Zona 2,,,,,,,,,,,,,,,,,,,,,,,,,
287,,,,,2016-PROGRAM,,Javna rasvjeta,Prenesene obveze iz prethodnog razdoblja,Parkiraliste u Zemljakovoj ulici,,,"9,313 kn",Zemljakova ulica,,,45.840573,15.990517,,,,,,,,,,,,,,,,,,,,,,1,"9,312.50",Tehnicka dokumentacija,TD,,,,Gradska cetvrt NOVI ZAGREB - ISTOK,Zona 2,,,,,,,,,,,,,,,,,,,,,,,,,
288,,,,,2016-PROGRAM,,Javna rasvjeta,Prenesene obveze iz prethodnog razdoblja,Ulica Svetog Mateja od k.br. 38 do 71,,,"14,750 kn",Ulica Svetog Mateja,,,45.840573,15.990517,,,,,,,,,,,,,,,,,,,,,,1,"14,750.00",Tehnicka dokumentacija,TD,,,,Gradska cetvrt NOVI ZAGREB - ISTOK,Zona 2,,,,,,,,,,,,,,,,,,,,,,,,,
289,,,,,2016-PROGRAM,,Javna rasvjeta,Povrat po ugovorima o financiranju,Odvojak Jakusevecke ulice,,,"121,733 kn",Jakusevecka ulica,,,45.808749,15.959763,,,,,,,,,,,,,,,,,,,,,,1,"121,732.68",Gradenje,G,,,,Gradska cetvrt NOVI ZAGREB - ISTOK,,,,,,,,,,,,,,,,,,,,,,,,,,
290,,,,,2016-PROGRAM,,Javna rasvjeta,Povrat po ugovorima o financiranju,Ulica Nikole Andrica,,,"370,620 kn",Ulica Nikole Andrica,,,45.840573,15.990517,,,,,,,,,,,,,,,,,,,,,,1,"370,619.59",Gradenje,G,,,,Gradska cetvrt NOVI ZAGREB - ISTOK,,,,,,,,,,,,,,,,,,,,,,,,,,
291,,,,,2016-PROGRAM,,Javna rasvjeta,Nove obveze,Pjesacko biciklisticka staza Veliko Polje- Buzin,,,"900,000 kn",Buzin,,,45.749905,15.993914,,,,,,,,,,,,,,,,,,,,,,1,"900,000.00",Gradenje,G,,,,Gradska cetvrt NOVI ZAGREB - ISTOK,Zona 3,,,,,,,,,,,,,,,,,,,,,,,,,
292,,,,,2016-PROGRAM,,Javna rasvjeta,Nove obveze,Pjesacko biciklisticka staza Veliko Polje- Buzin,,,"30,000 kn",Buzin,,,45.749905,15.993914,,,,,,,,,,,,,,,,,,,,,,1,"30,000.00",Nadzor,N,,,,Gradska cetvrt NOVI ZAGREB - ISTOK,Zona 3,,,,,,,,,,,,,,,,,,,,,,,,,
293,,,,,2016-PROGRAM,,Javna rasvjeta,Prenesene obveze iz prethodnog razdoblja,Ulica Trnsko,,,"13,750 kn",Ulica Trnsko,,,45.840573,15.990517,,,,,,,,,,,,,,,,,,,,,,1,"13,750.00",Tehnicka dokumentacija,TD,,,,Gradska cetvrt NOVI ZAGREB - ZAPAD,Zona 2,,,,,,,,,,,,,,,,,,,,,,,,,
294,,,,,2016-PROGRAM,,Javna rasvjeta,Prenesene obveze iz prethodnog razdoblja,Cimermanova od Avenije Dubrovnik do Antallove,,,"24,000 kn",Cimermanova,,,45.749905,15.993914,,,,,,,,,,,,,,,,,,,,,,1,"24,000.00",Tehnicka dokumentacija,TD,,,,Gradska cetvrt NOVI ZAGREB - ZAPAD,Zona 2,,,,,,,,,,,,,,,,,,,,,,,,,
295,,,,,2016-PROGRAM,,Javna rasvjeta,Prenesene obveze iz prethodnog razdoblja,Prometnica uz istocnu ogradu Velesajma od Avenije Dubrovnik do Antallove,,,"24,000 kn",Avenija Dubrovnik,,,45.80866,15.976272,,,,,,,,,,,,,,,,,,,,,,1,"24,000.00",Tehnicka dokumentacija,TD,,,,Gradska cetvrt NOVI ZAGREB - ZAPAD,Zona 2,,,,,,,,,,,,,,,,,,,,,,,,,
296,,,,,2016-PROGRAM,,Javna rasvjeta,Prenesene obveze iz prethodnog razdoblja,Okolis OS Odra-Hrasce,,,"14,875 kn",Zarka Dolinara 7,,,45.840573,15.990517,,,,,,,,,,,,,,,,,,,,,,1,"14,875.00",Tehnicka dokumentacija,TD,,,,Gradska cetvrt NOVI ZAGREB - ZAPAD,Zona 4,,,,,,,,,,,,,,,,,,,,,,,,,
297,,,,,2016-PROGRAM,,Javna rasvjeta,Prenesene obveze iz prethodnog razdoblja,Ulica Trnsko od 7A do OS Trnsko,,,"14,250 kn",Ulica Trnsko,,,45.840573,15.990517,,,,,,,,,,,,,,,,,,,,,,1,"14,250.00",Tehnicka dokumentacija,TD,,,,Gradska cetvrt NOVI ZAGREB - ZAPAD,Zona 2,,,,,,,,,,,,,,,,,,,,,,,,,
298,,,,,2016-PROGRAM,,Javna rasvjeta,Prenesene obveze iz prethodnog razdoblja,Ulica Otocec,,,"14,250 kn",Ulica Otocec,,,45.840573,15.990517,,,,,,,,,,,,,,,,,,,,,,1,"14,250.00",Tehnicka dokumentacija,TD,,,,Gradska cetvrt NOVI ZAGREB - ZAPAD,Zona 3,,,,,,,,,,,,,,,,,,,,,,,,,
299,,,,,2016-PROGRAM,,Javna rasvjeta,Prenesene obveze iz prethodnog razdoblja,Ulica Zlatarova zlata,,,"13,125 kn",Ulica Zlatarova zlata,,,45.840573,15.990517,,,,,,,,,,,,,,,,,,,,,,1,"13,125.00",Tehnicka dokumentacija,TD,,,,Gradska cetvrt NOVI ZAGREB - ZAPAD,Zona 3,,,,,,,,,,,,,,,,,,,,,,,,,
300,,,,,2016-PROGRAM,,Javna rasvjeta,Povrat po ugovorima o financiranju,Horvatova ulica,,,"63,818 kn",Horvatova ulica,,,45.785678,15.964291,,,,,,,,,,,,,,,,,,,,,,1,"63,818.11",Gradenje,G,,,,Gradska cetvrt NOVI ZAGREB - ZAPAD,,,,,,,,,,,,,,,,,,,,,,,,,,
301,,,,,2016-PROGRAM,,Javna rasvjeta,Nove obveze,Cimermanova od Avenije Dubrovnik do Antallove,,,"300,000 kn",Cimermanova,,,45.749905,15.993914,,,,,,,,,,,,,,,,,,,,,,1,"300,000.00",Gradenje,G,,,,Gradska cetvrt NOVI ZAGREB - ZAPAD,Zona 2,,,,,,,,,,,,,,,,,,,,,,,,,
302,,,,,2016-PROGRAM,,Javna rasvjeta,Nove obveze,Cimermanova od Avenije Dubrovnik do Antallove,,,"10,000 kn",Cimermanova,,,45.749905,15.993914,,,,,,,,,,,,,,,,,,,,,,1,"10,000.00",Nadzor,N,,,,Gradska cetvrt NOVI ZAGREB - ZAPAD,Zona 2,,,,,,,,,,,,,,,,,,,,,,,,,
303,,,,,2016-PROGRAM,,Javna rasvjeta,Nove obveze,Prometnica uz istocnu ogradu Velesajma od Avenije Dubrovnik do Antallove,,,"400,000 kn",Avenija Dubrovnik,,,45.80866,15.976272,,,,,,,,,,,,,,,,,,,,,,1,"400,000.00",Gradenje,G,,,,Gradska cetvrt NOVI ZAGREB - ZAPAD,Zona 2,,,,,,,,,,,,,,,,,,,,,,,,,
304,,,,,2016-PROGRAM,,Javna rasvjeta,Nove obveze,Prometnica uz istocnu ogradu Velesajma od Avenije Dubrovnik do Antallove,,,"15,000 kn",Avenija Dubrovnik,,,45.80866,15.976272,,,,,,,,,,,,,,,,,,,,,,1,"15,000.00",Nadzor,N,,,,Gradska cetvrt NOVI ZAGREB - ZAPAD,Zona 2,,,,,,,,,,,,,,,,,,,,,,,,,
305,,,,,2016-PROGRAM,,Javna rasvjeta,Nove obveze,Pjesacka povrsina u Ulici Trnsko uz trznicu,,,"250,000 kn",Ulica Trnsko,,,45.840573,15.990517,,,,,,,,,,,,,,,,,,,,,,1,"250,000.00",Gradenje,G,,,,Gradska cetvrt NOVI ZAGREB - ZAPAD,Zona 2,,,,,,,,,,,,,,,,,,,,,,,,,
306,,,,,2016-PROGRAM,,Javna rasvjeta,Nove obveze,Pjesacka povrsina u Ulici Trnsko uz trznicu,,,"10,000 kn",Ulica Trnsko,,,45.840573,15.990517,,,,,,,,,,,,,,,,,,,,,,1,"10,000.00",Nadzor,N,,,,Gradska cetvrt NOVI ZAGREB - ZAPAD,Zona 2,,,,,,,,,,,,,,,,,,,,,,,,,
307,,,,,2016-PROGRAM,,Javna rasvjeta,Nove obveze,Jezdovecka od prometne petlje do k.br. 139,,,"300,000 kn",Jezdovecka,,,45.808749,15.959763,,,,,,,,,,,,,,,,,,,,,,1,"300,000.00",Gradenje,G,,,,Gradska cetvrt NOVI ZAGREB - ZAPAD,Zona 3,,,,,,,,,,,,,,,,,,,,,,,,,
308,,,,,2016-PROGRAM,,Javna rasvjeta,Nove obveze,Jezdovecka od prometne petlje do k.br. 139,,,"10,000 kn",Jezdovecka,,,45.808749,15.959763,,,,,,,,,,,,,,,,,,,,,,1,"10,000.00",Nadzor,N,,,,Gradska cetvrt NOVI ZAGREB - ZAPAD,Zona 3,,,,,,,,,,,,,,,,,,,,,,,,,
309,,,,,2016-PROGRAM,,Javna rasvjeta,Nove obveze,Zdihovska,,,"30,000 kn",Zdihovska,,,45.840573,15.990517,,,,,,,,,,,,,,,,,,,,,,1,"30,000.00",Tehnicka dokumentacija,TD,,,,Gradska cetvrt NOVI ZAGREB - ZAPAD,Zona 3,,,,,,,,,,,,,,,,,,,,,,,,,
310,,,,,2016-PROGRAM,,Javna rasvjeta,Nove obveze,Ulica dr. Luje Naletilica- odvojak kod k.br. 5,,,"25,000 kn",Ulica dr. Luje Naletilica,,,45.802444,15.90133,,,,,,,,,,,,,,,,,,,,,,1,"25,000.00",Tehnicka dokumentacija,TD,,,,Gradska cetvrt NOVI ZAGREB - ZAPAD,Zona 4,,,,,,,,,,,,,,,,,,,,,,,,,
311,,,,,2016-PROGRAM,,Javna rasvjeta,Prenesene obveze iz prethodnog razdoblja,Krapinska ulica,,,"12,300 kn",Krapinska ulica,,,45.817873,15.975996,,,,,,,,,,,,,,,,,,,,,,1,"12,300.00",Tehnicka dokumentacija,TD,,,,Gradska cetvrt TRESNJEVKA - SJEVER,Zona 1,,,,,,,,,,,,,,,,,,,,,,,,,
312,,,,,2016-PROGRAM,,Javna rasvjeta,Prenesene obveze iz prethodnog razdoblja,Stambeni blok Selska-Stubicka-Bastijanova,,,"21,326 kn",Selska,,,45.811947,15.864572,,,,,,,,,,,,,,,,,,,,,,1,"21,325.80",Nadzor,N,,,,Gradska cetvrt TRESNJEVKA - SJEVER,Zona 2,,,,,,,,,,,,,,,,,,,,,,,,,
313,,,,,2016-PROGRAM,,Javna rasvjeta,Nove obveze,Krapinska ulica,,,"600,000 kn",Krapinska ulica,,,45.817873,15.975996,,,,,,,,,,,,,,,,,,,,,,1,"600,000.00",Gradenje,G,,,,Gradska cetvrt TRESNJEVKA - SJEVER,Zona 1,,,,,,,,,,,,,,,,,,,,,,,,,
314,,,,,2016-PROGRAM,,Javna rasvjeta,Nove obveze,Krapinska ulica,,,"20,000 kn",Krapinska ulica,,,45.817873,15.975996,,,,,,,,,,,,,,,,,,,,,,1,"20,000.00",Nadzor,N,,,,Gradska cetvrt TRESNJEVKA - SJEVER,Zona 1,,,,,,,,,,,,,,,,,,,,,,,,,
315,,,,,2016-PROGRAM,,Javna rasvjeta,Nove obveze,Nehajska ulica,,,"250,000 kn",Nehajska ulica,,,45.806242,15.91289,,,,,,,,,,,,,,,,,,,,,,1,"250,000.00",Gradenje,G,,,,Gradska cetvrt TRESNJEVKA - SJEVER,Zona 1,,,,,,,,,,,,,,,,,,,,,,,,,
316,,,,,2016-PROGRAM,,Javna rasvjeta,Nove obveze,Nehajska ulica,,,"10,000 kn",Nehajska ulica,,,45.806242,15.91289,,,,,,,,,,,,,,,,,,,,,,1,"10,000.00",Nadzor,N,,,,Gradska cetvrt TRESNJEVKA - SJEVER,Zona 1,,,,,,,,,,,,,,,,,,,,,,,,,
317,,,,,2016-PROGRAM,,Javna rasvjeta,Nove obveze,Kranjceviceva ulica,,,"600,000 kn",Kranjceviceva ulica,,,45.817873,15.975996,,,,,,,,,,,,,,,,,,,,,,1,"600,000.00",Gradenje,G,,,,Gradska cetvrt TRESNJEVKA - SJEVER,Zona 1,,,,,,,,,,,,,,,,,,,,,,,,,
318,,,,,2016-PROGRAM,,Javna rasvjeta,Nove obveze,Kranjceviceva ulica,,,"25,000 kn",Kranjceviceva ulica,,,45.817873,15.975996,,,,,,,,,,,,,,,,,,,,,,1,"25,000.00",Nadzor,N,,,,Gradska cetvrt TRESNJEVKA - SJEVER,Zona 1,,,,,,,,,,,,,,,,,,,,,,,,,
319,,,,,2016-PROGRAM,,Javna rasvjeta,Nove obveze,"Losinska - Viteziceva, djecji park",,,"25,000 kn",,Losinska,Viteziceva,45.815017,15.997478,,,,,,,,,,,,,,,,,,,,,,1,"25,000.00",Tehnicka dokumentacija,TD,,,,Gradska cetvrt TRESNJEVKA - SJEVER,Zona 2,,,,,,,,,,,,,,,,,,,,,,,,,
320,,,,,2016-PROGRAM,,Javna rasvjeta,Nove obveze,Park u Jablanskoj ulici,,,"250,000 kn",Jablanska ulica,,,45.814483,15.937709,,,,,,,,,,,,,,,,,,,,,,1,"250,000.00",Gradenje,G,,,,Gradska cetvrt TRESNJEVKA - SJEVER,Zona 2,,,,,,,,,,,,,,,,,,,,,,,,,
321,,,,,2016-PROGRAM,,Javna rasvjeta,Nove obveze,Park u Jablanskoj ulici,,,"10,000 kn",Jablanska ulica,,,45.814483,15.937709,,,,,,,,,,,,,,,,,,,,,,1,"10,000.00",Nadzor,N,,,,Gradska cetvrt TRESNJEVKA - SJEVER,Zona 2,,,,,,,,,,,,,,,,,,,,,,,,,
322,,,,,2016-PROGRAM,,Javna rasvjeta,Prenesene obveze iz prethodnog razdoblja,Park Prozorska - Kalinovica - Cire Truhelke,,,"4,350 kn",Prozorska,,,45.815011,15.981919,,,,,,,,,,,,,,,,,,,,,,1,"4,350.00",Tehnicka dokumentacija,TD,,,,Gradska cetvrt TRESNJEVKA - JUG,Zona 2,,,,,,,,,,,,,,,,,,,,,,,,,
323,,,,,2016-PROGRAM,,Javna rasvjeta,Prenesene obveze iz prethodnog razdoblja,Slavenskoga (Zagrebacka avenija - Ivana Matetica Ronjgova),,,"11,200 kn",Slavenskoga,,,45.815011,15.981919,,,,,,,,,,,,,,,,,,,,,,1,"11,200.00",Tehnicka dokumentacija,TD,,,,Gradska cetvrt TRESNJEVKA - JUG,Zona 2,,,,,,,,,,,,,,,,,,,,,,,,,
324,,,,,2016-PROGRAM,,Javna rasvjeta,Prenesene obveze iz prethodnog razdoblja,Ulica brace Cvijica,,,"18,625 kn",Ulica brace Cvijica,,,45.811044,15.997651,,,,,,,,,,,,,,,,,,,,,,1,"18,625.00",Tehnicka dokumentacija,TD,,,,Gradska cetvrt TRESNJEVKA - JUG,Zona 2,,,,,,,,,,,,,,,,,,,,,,,,,
325,,,,,2016-PROGRAM,,Javna rasvjeta,Povrat po ugovorima o financiranju,Domasinecka ulica,,,"87,458 kn",Domasinecka ulica,,,45.799049,15.940955,,,,,,,,,,,,,,,,,,,,,,1,"87,457.87",Gradenje,G,,,,Gradska cetvrt TRESNJEVKA - JUG,Zona 2,,,,,,,,,,,,,,,,,,,,,,,,,
326,,,,,2016-PROGRAM,,Javna rasvjeta,Nove obveze,Zagrebacka avenija,,,"50,000 kn",Zagrebacka avenija,,,45.840573,15.990517,,,,,,,,,,,,,,,,,,,,,,1,"50,000.00",Tehnicka dokumentacija,TD,,,,Gradska cetvrt TRESNJEVKA - JUG,Zona 1,,,,,,,,,,,,,,,,,,,,,,,,,
327,,,,,2016-PROGRAM,,Javna rasvjeta,Nove obveze,Zagrebacka avenija,,,"750,000 kn",Zagrebacka avenija,,,45.840573,15.990517,,,,,,,,,,,,,,,,,,,,,,1,"750,000.00",Gradenje,G,,,,Gradska cetvrt TRESNJEVKA - JUG,Zona 1,,,,,,,,,,,,,,,,,,,,,,,,,
328,,,,,2016-PROGRAM,,Javna rasvjeta,Nove obveze,Zagrebacka avenija,,,"30,000 kn",Zagrebacka avenija,,,45.840573,15.990517,,,,,,,,,,,,,,,,,,,,,,1,"30,000.00",Nadzor,N,,,,Gradska cetvrt TRESNJEVKA - JUG,Zona 1,,,,,,,,,,,,,,,,,,,,,,,,,
329,,,,,2016-PROGRAM,,Javna rasvjeta,Nove obveze,Slavenskoga (Zagrebacka avenija - Ivana Matetica Ronjgova),,,"300,000 kn",Slavenskoga,,,45.815011,15.981919,,,,,,,,,,,,,,,,,,,,,,1,"300,000.00",Gradenje,G,,,,Gradska cetvrt TRESNJEVKA - JUG,Zona 2,,,,,,,,,,,,,,,,,,,,,,,,,
330,,,,,2016-PROGRAM,,Javna rasvjeta,Nove obveze,Slavenskoga (Zagrebacka avenija - Ivana Matetica Ronjgova),,,"15,000 kn",Slavenskoga,,,45.815011,15.981919,,,,,,,,,,,,,,,,,,,,,,1,"15,000.00",Nadzor,N,,,,Gradska cetvrt TRESNJEVKA - JUG,Zona 2,,,,,,,,,,,,,,,,,,,,,,,,,
331,,,,,2016-PROGRAM,,Javna rasvjeta,Nove obveze,"Aleja Matije Ljubeka, biciklisticko-rolerska staza",,,"250,000 kn",Aleja Matije Ljubeka,,,45.782195,15.92465,,,,,,,,,,,,,,,,,,,,,,1,"250,000.00",Gradenje,G,,,,Gradska cetvrt TRESNJEVKA - JUG,Zona 2,,,,,,,,,,,,,,,,,,,,,,,,,
332,,,,,2016-PROGRAM,,Javna rasvjeta,Nove obveze,"Aleja Matije Ljubeka, biciklisticko-rolerska staza",,,"10,000 kn",Aleja Matije Ljubeka,,,45.782195,15.92465,,,,,,,,,,,,,,,,,,,,,,1,"10,000.00",Nadzor,N,,,,Gradska cetvrt TRESNJEVKA - JUG,Zona 2,,,,,,,,,,,,,,,,,,,,,,,,,
333,,,,,2016-PROGRAM,,Javna rasvjeta,Povrat po ugovorima o financiranju,Odvojak Ulice Sveti Duh,,,"34,960 kn",Ulica Sveti Duh,,,45.840573,15.990517,,,,,,,,,,,,,,,,,,,,,,1,"34,959.77",Gradenje,G,,,,Gradska cetvrt CRNOMEREC,Zona 2,,,,,,,,,,,,,,,,,,,,,,,,,
334,,,,,2016-PROGRAM,,Javna rasvjeta,Povrat po ugovorima o financiranju,Ulica Ivana Cankara,,,"166,557 kn",Ulica Ivana Cankara,,,45.840573,15.990517,,,,,,,,,,,,,,,,,,,,,,1,"166,557.38",Gradenje,G,,,,Gradska cetvrt CRNOMEREC,Zona 2,,,,,,,,,,,,,,,,,,,,,,,,,
335,,,,,2016-PROGRAM,,Javna rasvjeta,Nove obveze,Trg Francuske republike,,,"30,000 kn",Trg Francuske republike,,,45.814555,15.973066,,,,,,,,,,,,,,,,,,,,,,1,"30,000.00",Tehnicka dokumentacija,TD,,,,Gradska cetvrt CRNOMEREC,Zona 1,,,,,,,,,,,,,,,,,,,,,,,,,
336,,,,,2016-PROGRAM,,Javna rasvjeta,Nove obveze,Ulica Sveti Duh od Ilice do Kuniscaka,,,"200,000 kn",Ulica Sveti Duh,,,45.840573,15.990517,,,,,,,,,,,,,,,,,,,,,,1,"200,000.00",Gradenje,G,,,,Gradska cetvrt CRNOMEREC,Zona 1,,,,,,,,,,,,,,,,,,,,,,,,,
337,,,,,2016-PROGRAM,,Javna rasvjeta,Nove obveze,Ulica Sveti Duh od Ilice do Kuniscaka,,,"10,000 kn",Ulica Sveti Duh,,,45.840573,15.990517,,,,,,,,,,,,,,,,,,,,,,1,"10,000.00",Nadzor,N,,,,Gradska cetvrt CRNOMEREC,Zona 1,,,,,,,,,,,,,,,,,,,,,,,,,
338,,,,,2016-PROGRAM,,Javna rasvjeta,Nove obveze,Ulica Jelenovac,,,"150,000 kn",Ulica Jelenovac,,,45.840573,15.990517,,,,,,,,,,,,,,,,,,,,,,1,"150,000.00",Gradenje,G,,,,Gradska cetvrt CRNOMEREC,Zona 1,,,,,,,,,,,,,,,,,,,,,,,,,
339,,,,,2016-PROGRAM,,Javna rasvjeta,Nove obveze,Ulica Jelenovac,,,"10,000 kn",Ulica Jelenovac,,,45.840573,15.990517,,,,,,,,,,,,,,,,,,,,,,1,"10,000.00",Nadzor,N,,,,Gradska cetvrt CRNOMEREC,Zona 1,,,,,,,,,,,,,,,,,,,,,,,,,
340,,,,,2016-PROGRAM,,Javna rasvjeta,Nove obveze,Dvojkovicev put i igraliste uz OS Ivane Brlic Mazuranic,,,"150,000 kn",Dvojkovicev put,,,45.811046,16.160066,,,,,,,,,,,,,,,,,,,,,,1,"150,000.00",Gradenje,G,,,,Gradska cetvrt CRNOMEREC,Zona 2,,,,,,,,,,,,,,,,,,,,,,,,,
341,,,,,2016-PROGRAM,,Javna rasvjeta,Nove obveze,Dvojkovicev put i igraliste uz OS Ivane Brlic Mazuranic,,,"10,000 kn",Dvojkovicev put,,,45.811046,16.160066,,,,,,,,,,,,,,,,,,,,,,1,"10,000.00",Nadzor,N,,,,Gradska cetvrt CRNOMEREC,Zona 2,,,,,,,,,,,,,,,,,,,,,,,,,
342,,,,,2016-PROGRAM,,Javna rasvjeta,Prenesene obveze iz prethodnog razdoblja,Ivanovicev odvojak,,,"16,250 kn",Ivanovicev odvojak,,,45.814483,15.937709,,,,,,,,,,,,,,,,,,,,,,1,"16,250.00",Tehnicka dokumentacija,TD,,,,Gradska cetvrt GORNJA DUBRAVA,Zona 4,,,,,,,,,,,,,,,,,,,,,,,,,
343,,,,,2016-PROGRAM,,Javna rasvjeta,Nove obveze,Park prosinackih zrtava,,,"20,000 kn",Park prosinackih zrtava,,,45.814685,15.971967,,,,,,,,,,,,,,,,,,,,,,1,"20,000.00",Tehnicka dokumentacija,TD,,,,Gradska cetvrt GORNJA DUBRAVA,Zona 2,,,,,,,,,,,,,,,,,,,,,,,,,
344,,,,,2016-PROGRAM,,Javna rasvjeta,Nove obveze,Igraliste OS Vjenceslava Novaka,,,"25,000 kn",Vile Velebita 15a,,,45.840573,15.990517,,,,,,,,,,,,,,,,,,,,,,1,"25,000.00",Tehnicka dokumentacija,TD,,,,Gradska cetvrt GORNJA DUBRAVA,Zona 3,,,,,,,,,,,,,,,,,,,,,,,,,
345,,,,,2016-PROGRAM,,Javna rasvjeta,Nove obveze,Park u Ulici Vebera Tkalcevica 44-48,,,"25,000 kn",Ulica Vebera Tkalcevica 44,,,45.840573,15.990517,,,,,,,,,,,,,,,,,,,,,,1,"25,000.00",Tehnicka dokumentacija,TD,,,,Gradska cetvrt GORNJA DUBRAVA,Zona 3,,,,,,,,,,,,,,,,,,,,,,,,,
346,,,,,2016-PROGRAM,,Javna rasvjeta,Nove obveze,Pjesacka staza od Dugoreske ulice do OS Marije Juric Zagorke,,,"25,000 kn",Dugoreska ulica,,,45.799049,15.940955,,,,,,,,,,,,,,,,,,,,,,1,"25,000.00",Tehnicka dokumentacija,TD,,,,Gradska cetvrt GORNJA DUBRAVA,Zona 3,,,,,,,,,,,,,,,,,,,,,,,,,
347,,,,,2016-PROGRAM,,Javna rasvjeta,Nove obveze,Ulica Mirka Deanovica,,,"30,000 kn",Ulica Mirka Deanovica,,,45.840573,15.990517,,,,,,,,,,,,,,,,,,,,,,1,"30,000.00",Tehnicka dokumentacija,TD,,,,Gradska cetvrt GORNJA DUBRAVA,Zona 3,,,,,,,,,,,,,,,,,,,,,,,,,
348,,,,,2016-PROGRAM,,Javna rasvjeta,Prenesene obveze iz prethodnog razdoblja,Zeljeznicka cesta,,,"17,250 kn",Zeljeznicka cesta,,,45.840573,15.990517,,,,,,,,,,,,,,,,,,,,,,1,"17,250.00",Tehnicka dokumentacija,TD,,,,Gradska cetvrt DONJA DUBRAVA,Zona 4,,,,,,,,,,,,,,,,,,,,,,,,,
349,,,,,2016-PROGRAM,,Javna rasvjeta,Nove obveze,Avenija Dubrava 236 - 238,,,"30,000 kn",Avenija Dubrava 236,,,45.80866,15.976272,,,,,,,,,,,,,,,,,,,,,,1,"30,000.00",Tehnicka dokumentacija,TD,,,,Gradska cetvrt DONJA DUBRAVA,Zona 2,,,,,,,,,,,,,,,,,,,,,,,,,
350,,,,,2016-PROGRAM,,Javna rasvjeta,Nove obveze,Zeljeznicka cesta,,,"150,000 kn",Zeljeznicka cesta,,,45.840573,15.990517,,,,,,,,,,,,,,,,,,,,,,1,"150,000.00",Gradenje,G,,,,Gradska cetvrt DONJA DUBRAVA,Zona 4,,,,,,,,,,,,,,,,,,,,,,,,,
351,,,,,2016-PROGRAM,,Javna rasvjeta,Nove obveze,Zeljeznicka cesta,,,"10,000 kn",Zeljeznicka cesta,,,45.840573,15.990517,,,,,,,,,,,,,,,,,,,,,,1,"10,000.00",Nadzor,N,,,,Gradska cetvrt DONJA DUBRAVA,Zona 4,,,,,,,,,,,,,,,,,,,,,,,,,
352,,,,,2016-PROGRAM,,Javna rasvjeta,Prenesene obveze iz prethodnog razdoblja,Pristupni put i parkiraliste za Drustveni dom Vrapce,,,"7,188 kn",Medarska 80A,,,45.791076,15.910921,,,,,,,,,,,,,,,,,,,,,,1,"7,187.50",Tehnicka dokumentacija,TD,,,,Gradska cetvrt STENJEVEC,Zona 2,,,,,,,,,,,,,,,,,,,,,,,,,
353,,,,,2016-PROGRAM,,Javna rasvjeta,Prenesene obveze iz prethodnog razdoblja,Park Milana Resetara - Kaljska,,,"6,875 kn",Kaljska,,,45.808749,15.959763,,,,,,,,,,,,,,,,,,,,,,1,"6,875.00",Tehnicka dokumentacija,TD,,,,Gradska cetvrt STENJEVEC,Zona 2,,,,,,,,,,,,,,,,,,,,,,,,,
354,,,,,2016-PROGRAM,,Javna rasvjeta,Prenesene obveze iz prethodnog razdoblja,Park Milana Resetara - Kaljska,,,"4,500 kn",Kaljska,,,45.808749,15.959763,,,,,,,,,,,,,,,,,,,,,,1,"4,500.00",Nadzor,N,,,,Gradska cetvrt STENJEVEC,Zona 2,,,,,,,,,,,,,,,,,,,,,,,,,
355,,,,,2016-PROGRAM,,Javna rasvjeta,Prenesene obveze iz prethodnog razdoblja,Ulica Vida Dosena,,,"13,625 kn",Ulica Vida Dosena,,,45.840573,15.990517,,,,,,,,,,,,,,,,,,,,,,1,"13,625.00",Tehnicka dokumentacija,TD,,,,Gradska cetvrt STENJEVEC,Zona 2,,,,,,,,,,,,,,,,,,,,,,,,,
356,,,,,2016-PROGRAM,,Javna rasvjeta,Prenesene obveze iz prethodnog razdoblja,Nogostup u Ulici Gustava Krkleca,,,"13,875 kn",Ulica Gustava Krkleca,,,45.840573,15.990517,,,,,,,,,,,,,,,,,,,,,,1,"13,875.00",Tehnicka dokumentacija,TD,,,,Gradska cetvrt STENJEVEC,Zona 2,,,,,,,,,,,,,,,,,,,,,,,,,
357,,,,,2016-PROGRAM,,Javna rasvjeta,Prenesene obveze iz prethodnog razdoblja,Ulica Ivane Brlic Mazuranic 31-35,,,"18,750 kn",Ulica Ivana Brlic Mazuranic 31,,,45.840573,15.990517,,,,,,,,,,,,,,,,,,,,,,1,"18,750.00",Tehnicka dokumentacija,TD,,,,Gradska cetvrt STENJEVEC,Zona 2,,,,,,,,,,,,,,,,,,,,,,,,,
358,,,,,2016-PROGRAM,,Javna rasvjeta,Povrat po ugovorima o financiranju,Servisna cesta uz Ljubljansku aveniju,,,"71,894 kn",Ljubljanska avenija,,,45.815017,15.997478,,,,,,,,,,,,,,,,,,,,,,1,"71,894.47",Gradenje,G,,,,Gradska cetvrt STENJEVEC,Zona 2,,,,,,,,,,,,,,,,,,,,,,,,,
359,,,,,2016-PROGRAM,,Javna rasvjeta,Nove obveze,Ljubljanska avenija,,,"60,000 kn",Ljubljanska avenija,,,45.815017,15.997478,,,,,,,,,,,,,,,,,,,,,,1,"60,000.00",Tehnicka dokumentacija,TD,,,,Gradska cetvrt STENJEVEC,Zona 2,,,,,,,,,,,,,,,,,,,,,,,,,
360,,,,,2016-PROGRAM,,Javna rasvjeta,Nove obveze,Park Milana Resetara - Kaljska,,,"200,000 kn",Kaljska,,,45.808749,15.959763,,,,,,,,,,,,,,,,,,,,,,1,"200,000.00",Gradenje,G,,,,Gradska cetvrt STENJEVEC,Zona 2,,,,,,,,,,,,,,,,,,,,,,,,,
361,,,,,2016-PROGRAM,,Javna rasvjeta,Nove obveze,Setnica uz potok Vrapcak od Ulice Ivan Brlic Mazuranic do Soljanove,,,"30,000 kn",Ulica Ivana Brlic Mazuranic,,,45.840573,15.990517,,,,,,,,,,,,,,,,,,,,,,1,"30,000.00",Tehnicka dokumentacija,TD,,,,Gradska cetvrt STENJEVEC,Zona 2,,,,,,,,,,,,,,,,,,,,,,,,,
362,,,,,2016-PROGRAM,,Javna rasvjeta,Prenesene obveze iz prethodnog razdoblja,"Okolis OS Dragutina Domjanica, Gajnice bb",,,"14,875 kn",Gajnice bb,,,45.807148,16.160176,,,,,,,,,,,,,,,,,,,,,,1,"14,875.00",Tehnicka dokumentacija,TD,,,,Gradska cetvrt PODSUSED-VRAPCE,Zona 2,,,,,,,,,,,,,,,,,,,,,,,,,
363,,,,,2016-PROGRAM,,Javna rasvjeta,Prenesene obveze iz prethodnog razdoblja,"Prisavisce 2, Prisavisce 4 i Vucak",,,"2,350 kn",Prisavisce,,,45.815011,15.981919,,,,,,,,,,,,,,,,,,,,,,1,"2,350.00",Nadzor,N,,,,Gradska cetvrt PODSUSED-VRAPCE,Zona 3,,,,,,,,,,,,,,,,,,,,,,,,,
364,,,,,2016-PROGRAM,,Javna rasvjeta,Prenesene obveze iz prethodnog razdoblja,"Zelena magistrala
",,,"40,796 kn","Zelena magistrala
",,,45.840573,15.990517,,,,,,,,,,,,,,,,,,,,,,1,"40,796.38",Gradenje,G,,,,Gradska cetvrt PODSUSED-VRAPCE,Zona 3,,,,,,,,,,,,,,,,,,,,,,,,,
365,,,,,2016-PROGRAM,,Javna rasvjeta,Prenesene obveze iz prethodnog razdoblja,"Zelena magistrala
",,,"2,250 kn","Zelena magistrala
",,,45.840573,15.990517,,,,,,,,,,,,,,,,,,,,,,1,"2,250.00",Nadzor,N,,,,Gradska cetvrt PODSUSED-VRAPCE,Zona 3,,,,,,,,,,,,,,,,,,,,,,,,,
366,,,,,2016-PROGRAM,,Javna rasvjeta,Povrat po ugovorima o financiranju,Odvojak Ulice Goljacki breg,,,"88,102 kn",Ulica Goljacki breg,,,45.825416,16.028109,,,,,,,,,,,,,,,,,,,,,,1,"88,101.76",Gradenje,G,,,,Gradska cetvrt PODSUSED-VRAPCE,Zona 2,,,,,,,,,,,,,,,,,,,,,,,,,
367,,,,,2016-PROGRAM,,Javna rasvjeta,Nove obveze,Parkiraliste uz Dom zdravlja Vrapce,,,"350,000 kn",Vrabecak ulica 4,,,45.840573,15.990517,,,,,,,,,,,,,,,,,,,,,,1,"350,000.00",Gradenje,G,,,,Gradska cetvrt PODSUSED-VRAPCE,Zona 2,,,,,,,,,,,,,,,,,,,,,,,,,
368,,,,,2016-PROGRAM,,Javna rasvjeta,Nove obveze,Parkiraliste uz Dom zdravlja Vrapce,,,"15,000 kn",Vrabecak ulica 5,,,45.840573,15.990517,,,,,,,,,,,,,,,,,,,,,,1,"15,000.00",Nadzor,N,,,,Gradska cetvrt PODSUSED-VRAPCE,Zona 2,,,,,,,,,,,,,,,,,,,,,,,,,
369,,,,,2016-PROGRAM,,Javna rasvjeta,Nove obveze,Ilica - Aleja grada Bologne - Ulica Majke Terezije,,,"600,000 kn",,Ilica,Aleja grada Bologne,45.814483,15.937709,,,,,,,,,,,,,,,,,,,,,,1,"600,000.00",Gradenje,G,,,,Gradska cetvrt PODSUSED-VRAPCE,Zona 2,,,,,,,,,,,,,,,,,,,,,,,,,
370,,,,,2016-PROGRAM,,Javna rasvjeta,Nove obveze,Ilica - Aleja grada Bologne - Ulica Majke Terezije,,,"25,000 kn",,Ilica,Aleja grada Bologne,45.814483,15.937709,,,,,,,,,,,,,,,,,,,,,,1,"25,000.00",Nadzor,N,,,,Gradska cetvrt PODSUSED-VRAPCE,Zona 2,,,,,,,,,,,,,,,,,,,,,,,,,
371,,,,,2016-PROGRAM,,Javna rasvjeta,Nove obveze,"Igraliste OS Stenjevec, Bolnicka 92",,,"25,000 kn",Bolnicka 92,,,45.825979,15.856629,,,,,,,,,,,,,,,,,,,,,,1,"25,000.00",Tehnicka dokumentacija,TD,,,,Gradska cetvrt PODSUSED-VRAPCE,Zona 3,,,,,,,,,,,,,,,,,,,,,,,,,
372,,,,,2016-PROGRAM,,Javna rasvjeta,Nove obveze,"Podsusedska aleja 1, pjesacka staza",,,"25,000 kn",Podsusedska aleja 1,,,45.816883,15.980179,,,,,,,,,,,,,,,,,,,,,,1,"25,000.00",Tehnicka dokumentacija,TD,,,,Gradska cetvrt PODSUSED-VRAPCE,Zona 3,,,,,,,,,,,,,,,,,,,,,,,,,
373,,,,,2016-PROGRAM,,Javna rasvjeta,Nove obveze,Kupalisni put,,,"25,000 kn",Kupalisni put,,,45.817873,15.975996,,,,,,,,,,,,,,,,,,,,,,1,"25,000.00",Tehnicka dokumentacija,TD,,,,Gradska cetvrt PODSUSED-VRAPCE,Zona 3,,,,,,,,,,,,,,,,,,,,,,,,,
374,,,,,2016-PROGRAM,,Javna rasvjeta,Nove obveze,Bizek I. - I. odvojak,,,"25,000 kn",Bizek I.,,,45.825979,15.856629,,,,,,,,,,,,,,,,,,,,,,1,"25,000.00",Tehnicka dokumentacija,TD,,,,Gradska cetvrt PODSUSED-VRAPCE,Zona 3,,,,,,,,,,,,,,,,,,,,,,,,,
375,,,,,2016-PROGRAM,,Javna rasvjeta,Nove obveze,Ulica Trzunove pecine,,,"25,000 kn",Ulica Trzunove pecine,,,45.840573,15.990517,,,,,,,,,,,,,,,,,,,,,,1,"25,000.00",Tehnicka dokumentacija,TD,,,,Gradska cetvrt PODSUSED-VRAPCE,Zona 3,,,,,,,,,,,,,,,,,,,,,,,,,
376,,,,,2016-PROGRAM,,Javna rasvjeta,Nove obveze,Ulica Podlugascak,,,"25,000 kn",Ulica Podlugascak,,,45.840573,15.990517,,,,,,,,,,,,,,,,,,,,,,1,"25,000.00",Tehnicka dokumentacija,TD,,,,Gradska cetvrt PODSUSED-VRAPCE,Zona 3,,,,,,,,,,,,,,,,,,,,,,,,,
377,,,,,2016-PROGRAM,,Javna rasvjeta,Nove obveze,Sportsko igraliste kod skole u Ulici Bizek II,,,"25,000 kn",Ulica Bizek II,,,45.811044,15.997651,,,,,,,,,,,,,,,,,,,,,,1,"25,000.00",Tehnicka dokumentacija,TD,,,,Gradska cetvrt PODSUSED-VRAPCE,Zona 3,,,,,,,,,,,,,,,,,,,,,,,,,
378,,,,,2016-PROGRAM,,Javna rasvjeta,Nove obveze,Ulica Meglenjak,,,"25,000 kn",Ulica Meglenjak,,,45.840573,15.990517,,,,,,,,,,,,,,,,,,,,,,1,"25,000.00",Tehnicka dokumentacija,TD,,,,Gradska cetvrt PODSUSED-VRAPCE,Zona 4,,,,,,,,,,,,,,,,,,,,,,,,,
379,,,,,2016-PROGRAM,,Javna rasvjeta,Prenesene obveze iz prethodnog razdoblja,Odvojak Ulice Dedici,,,"2,375 kn",Ulica Dedici,,,45.811044,15.997651,,,,,,,,,,,,,,,,,,,,,,1,"2,375.00",Nadzor,N,,,,Gradska cetvrt PODSLJEME,Zona 2,,,,,,,,,,,,,,,,,,,,,,,,,
380,,,,,2016-PROGRAM,,Javna rasvjeta,Prenesene obveze iz prethodnog razdoblja,Odvojak Ulice Dedici,,,"76,801 kn",Ulica Dedici,,,45.811044,15.997651,,,,,,,,,,,,,,,,,,,,,,1,"76,801.38",Gradenje,G,,,,Gradska cetvrt PODSLJEME,Zona 2,,,,,,,,,,,,,,,,,,,,,,,,,
381,,,,,2016-PROGRAM,,Javna rasvjeta,Nove obveze,Markusevecki Popovec 111 - Park i kapelica,,,"25,000 kn",Markusevecki Popovec 111,,,45.791076,15.910921,,,,,,,,,,,,,,,,,,,,,,1,"25,000.00",Tehnicka dokumentacija,TD,,,,Gradska cetvrt PODSLJEME,Zona 4,,,,,,,,,,,,,,,,,,,,,,,,,
382,,,,,2016-PROGRAM,,Javna rasvjeta,Nove obveze,Ulica Bliznec,,,"40,000 kn",Ulica Bliznec,,,45.811044,15.997651,,,,,,,,,,,,,,,,,,,,,,1,"40,000.00",Tehnicka dokumentacija,TD,,,,Gradska cetvrt PODSLJEME,Zona 4,,,,,,,,,,,,,,,,,,,,,,,,,
383,,,,,2016-PROGRAM,,Javna rasvjeta,Nove obveze,Ulica Petari,,,"25,000 kn",Ulica Petari,,,45.840573,15.990517,,,,,,,,,,,,,,,,,,,,,,1,"25,000.00",Tehnicka dokumentacija,TD,,,,Gradska cetvrt PODSLJEME,Zona 4,,,,,,,,,,,,,,,,,,,,,,,,,
384,,,,,2016-PROGRAM,,Javna rasvjeta,Prenesene obveze iz prethodnog razdoblja,Bistricka i Kasinska u zoni njihovog krizanja,,,"18,750 kn",Bistricka,,,45.833703,16.002477,,,,,,,,,,,,,,,,,,,,,,1,"18,750.00",Tehnicka dokumentacija,TD,,,,Gradska cetvrt SESVETE,Zona 3,,,,,,,,,,,,,,,,,,,,,,,,,
385,,,,,2016-PROGRAM,,Javna rasvjeta,Prenesene obveze iz prethodnog razdoblja,Park na raskrizju Bistricke i Zagrebacke u Sesvetama,,,"9,750 kn",Bistricka,,,45.833703,16.002477,,,,,,,,,,,,,,,,,,,,,,1,"9,750.00",Tehnicka dokumentacija,TD,,,,Gradska cetvrt SESVETE,Zona 3,,,,,,,,,,,,,,,,,,,,,,,,,
386,,,,,2016-PROGRAM,,Javna rasvjeta,Prenesene obveze iz prethodnog razdoblja,Pjesacka staza Bistricka - Otona Ivekovica uz OS Luka,,,"1,715 kn",Bistricka,,,45.833703,16.002477,,,,,,,,,,,,,,,,,,,,,,1,"1,715.00",Tehnicka dokumentacija,TD,,,,Gradska cetvrt SESVETE,Zona 3,,,,,,,,,,,,,,,,,,,,,,,,,
387,,,,,2016-PROGRAM,,Javna rasvjeta,Prenesene obveze iz prethodnog razdoblja,"Kunjkova i Cumigaseva, Glavnica Donja",,,"20,000 kn",Kunjkova,,,45.817873,15.975996,,,,,,,,,,,,,,,,,,,,,,1,"20,000.00",Tehnicka dokumentacija,TD,,,,Gradska cetvrt SESVETE,Zona 4,,,,,,,,,,,,,,,,,,,,,,,,,
388,,,,,2016-PROGRAM,,Javna rasvjeta,Prenesene obveze iz prethodnog razdoblja,"Fijanova ulica, Glavnica Donja",,,"9,375 kn",Fijanova ulica,,,45.877928,16.117891,,,,,,,,,,,,,,,,,,,,,,1,"9,375.00",Tehnicka dokumentacija,TD,,,,Gradska cetvrt SESVETE,Zona 4,,,,,,,,,,,,,,,,,,,,,,,,,
389,,,,,2016-PROGRAM,,Javna rasvjeta,Prenesene obveze iz prethodnog razdoblja,Ulica Bedema ljubavi,,,"2,000 kn",Ulica Bedema ljubavi,,,45.811044,15.997651,,,,,,,,,,,,,,,,,,,,,,1,"2,000.00",Tehnicka dokumentacija,TD,,,,Gradska cetvrt SESVETE,Zona 4,,,,,,,,,,,,,,,,,,,,,,,,,
390,,,,,2016-PROGRAM,,Javna rasvjeta,Prenesene obveze iz prethodnog razdoblja,"Milcova ulica, Jasenovac",,,"18,750 kn",Milcova ulica,,,45.806242,15.91289,,,,,,,,,,,,,,,,,,,,,,1,"18,750.00",Tehnicka dokumentacija,TD,,,,Gradska cetvrt SESVETE,Zona 4,,,,,,,,,,,,,,,,,,,,,,,,,
391,,,,,2016-PROGRAM,,Javna rasvjeta,Prenesene obveze iz prethodnog razdoblja,Sopnicki odvojak,,,"10,500 kn",Sopnicki odvojak,,,45.862784,16.147085,,,,,,,,,,,,,,,,,,,,,,1,"10,500.00",Tehnicka dokumentacija,TD,,,,Gradska cetvrt SESVETE,Zona 4,,,,,,,,,,,,,,,,,,,,,,,,,
392,,,,,2016-PROGRAM,,Javna rasvjeta,Prenesene obveze iz prethodnog razdoblja,Ulica Matije Gupca u Adamovcu,,,"12,000 kn",Ulica Matije Gupca,,,45.840573,15.990517,,,,,,,,,,,,,,,,,,,,,,1,"12,000.00",Tehnicka dokumentacija,TD,,,,Gradska cetvrt SESVETE,Zona 4,,,,,,,,,,,,,,,,,,,,,,,,,
393,,,,,2016-PROGRAM,,Javna rasvjeta,Prenesene obveze iz prethodnog razdoblja,Okolis Crkve Sv. Jurja Mucenika u Planini Donjoj,,,"12,850 kn",Planina Donja,,,45.816883,15.980179,,,,,,,,,,,,,,,,,,,,,,1,"12,850.00",Tehnicka dokumentacija,TD,,,,Gradska cetvrt SESVETE,Zona 4,,,,,,,,,,,,,,,,,,,,,,,,,
394,,,,,2016-PROGRAM,,Javna rasvjeta,Prenesene obveze iz prethodnog razdoblja,Ulica 1. maja,,,"14,750 kn",Ulica 1. maja,,,45.811044,15.997651,,,,,,,,,,,,,,,,,,,,,,1,"14,750.00",Tehnicka dokumentacija,TD,,,,Gradska cetvrt SESVETE,Zona 4,,,,,,,,,,,,,,,,,,,,,,,,,
395,,,,,2016-PROGRAM,,Javna rasvjeta,Prenesene obveze iz prethodnog razdoblja,Pjesacka staza Ivana Gundulica - Kobiljacka,,,"8,113 kn",Ivana Gundulica,,,45.814483,15.937709,,,,,,,,,,,,,,,,,,,,,,1,"8,112.50",Tehnicka dokumentacija,TD,,,,Gradska cetvrt SESVETE,Zona 4,,,,,,,,,,,,,,,,,,,,,,,,,
396,,,,,2016-PROGRAM,,Javna rasvjeta,Nove obveze,Park na raskrizju Bistricke i Zagrebacke u Sesvetama,,,"100,000 kn",Bistricke,,,45.833703,16.002477,,,,,,,,,,,,,,,,,,,,,,1,"100,000.00",Gradenje,G,,,,Gradska cetvrt SESVETE,Zona 3,,,,,,,,,,,,,,,,,,,,,,,,,
397,,,,,2016-PROGRAM,,Javna rasvjeta,Nove obveze,Park na raskrizju Bistricke i Zagrebacke u Sesvetama,,,"10,000 kn",Bistricke,,,45.833703,16.002477,,,,,,,,,,,,,,,,,,,,,,1,"10,000.00",Nadzor,N,,,,Gradska cetvrt SESVETE,Zona 3,,,,,,,,,,,,,,,,,,,,,,,,,
398,,,,,2016-PROGRAM,,Javna rasvjeta,Nove obveze,"Kunjkova i Cumigaseva, GlavnicaDonja",,,"150,000 kn",Kunjkova,,,45.817873,15.975996,,,,,,,,,,,,,,,,,,,,,,1,"150,000.00",Gradenje,G,,,,Gradska cetvrt SESVETE,Zona 4,,,,,,,,,,,,,,,,,,,,,,,,,
399,,,,,2016-PROGRAM,,Javna rasvjeta,Nove obveze,"Kunjkova i Cumigaseva, Glavnica Donja",,,"10,000 kn",Kunjkova,,,45.817873,15.975996,,,,,,,,,,,,,,,,,,,,,,1,"10,000.00",Nadzor,N,,,,Gradska cetvrt SESVETE,Zona 4,,,,,,,,,,,,,,,,,,,,,,,,,
400,,,,,2016-PROGRAM,,Javna rasvjeta,Nove obveze,"Fijanova ulica, Glavnica Donja",,,"150,000 kn",Fijanova ulica,,,45.877928,16.117891,,,,,,,,,,,,,,,,,,,,,,1,"150,000.00",Gradenje,G,,,,Gradska cetvrt SESVETE,Zona 4,,,,,,,,,,,,,,,,,,,,,,,,,
401,,,,,2016-PROGRAM,,Javna rasvjeta,Nove obveze,"Fijanova ulica, Glavnica Donja",,,"10,000 kn",Fijanova ulica,,,45.877928,16.117891,,,,,,,,,,,,,,,,,,,,,,1,"10,000.00",Nadzor,N,,,,Gradska cetvrt SESVETE,Zona 4,,,,,,,,,,,,,,,,,,,,,,,,,
402,,,,,2016-PROGRAM,,Javna rasvjeta,Nove obveze,Franjceviceva od Bilogorske do III. Dumoveckog luga,,,"250,000 kn",Franjceviceva,,,45.807148,16.160176,,,,,,,,,,,,,,,,,,,,,,1,"250,000.00",Gradenje,G,,,,Gradska cetvrt SESVETE,Zona 4,,,,,,,,,,,,,,,,,,,,,,,,,
403,,,,,2016-PROGRAM,,Javna rasvjeta,Nove obveze,Franjceviceva od Bilogorske do III. Dumoveckog luga,,,"15,000 kn",Franjceviceva,,,45.807148,16.160176,,,,,,,,,,,,,,,,,,,,,,1,"15,000.00",Nadzor,N,,,,Gradska cetvrt SESVETE,Zona 4,,,,,,,,,,,,,,,,,,,,,,,,,
404,,,,,2016-PROGRAM,,Javna rasvjeta,Nove obveze,Soblinecka ulica od Varazdinske do Sasinovecke,,,"250,000 kn",Soblinecka ulica,,,45.862784,16.147085,,,,,,,,,,,,,,,,,,,,,,1,"250,000.00",Gradenje,G,,,,Gradska cetvrt SESVETE,Zona 4,,,,,,,,,,,,,,,,,,,,,,,,,
405,,,,,2016-PROGRAM,,Javna rasvjeta,Nove obveze,Soblinecka ulica od Varazdinske do Sasinovecke,,,"15,000 kn",Soblinecka ulica,,,45.862784,16.147085,,,,,,,,,,,,,,,,,,,,,,1,"15,000.00",Nadzor,N,,,,Gradska cetvrt SESVETE,Zona 4,,,,,,,,,,,,,,,,,,,,,,,,,
406,,,,,2016-PROGRAM,,Javna rasvjeta,Nove obveze,Ulica Bedema Ljubavi,,,"300,000 kn",Ulica Bedema Ljubavi,,,45.811044,15.997651,,,,,,,,,,,,,,,,,,,,,,1,"300,000.00",Gradenje,G,,,,Gradska cetvrt SESVETE,Zona 4,,,,,,,,,,,,,,,,,,,,,,,,,
407,,,,,2016-PROGRAM,,Javna rasvjeta,Nove obveze,Ulica Bedema Ljubavi,,,"15,000 kn",Ulica Bedema Ljubavi,,,45.811044,15.997651,,,,,,,,,,,,,,,,,,,,,,1,"15,000.00",Nadzor,N,,,,Gradska cetvrt SESVETE,Zona 4,,,,,,,,,,,,,,,,,,,,,,,,,
408,,,,,2016-PROGRAM,,Javna rasvjeta,Prenesene obveze iz prethodnog razdoblja,Slemenska cesta od k.br. 141 do stare Karlovacke ceste,,,"30,000 kn",Slemenska cesta,,,45.79779,16.034148,,,,,,,,,,,,,,,,,,,,,,1,"30,000.00",Tehnicka dokumentacija,TD,,,,Gradska cetvrt BREZOVICA,Zona 4,,,,,,,,,,,,,,,,,,,,,,,,,
409,,,,,2016-PROGRAM,,Javna rasvjeta,Prenesene obveze iz prethodnog razdoblja,Ulica Horvati,,,"13,750 kn",Ulica Horvati,,,45.840573,15.990517,,,,,,,,,,,,,,,,,,,,,,1,"13,750.00",Tehnicka dokumentacija,TD,,,,Gradska cetvrt BREZOVICA,Zona 4,,,,,,,,,,,,,,,,,,,,,,,,,
410,,,,,2016-PROGRAM,,Javna rasvjeta,Prenesene obveze iz prethodnog razdoblja,Ulica Majdaki - Kosi,,,"9,750 kn",Ulica Majdaki,,,45.840573,15.990517,,,,,,,,,,,,,,,,,,,,,,1,"9,750.00",Tehnicka dokumentacija,TD,,,,Gradska cetvrt BREZOVICA,Zona 4,,,,,,,,,,,,,,,,,,,,,,,,,
411,,,,,2016-PROGRAM,,Javna rasvjeta,Prenesene obveze iz prethodnog razdoblja,Vatrogasna cesta u Kupineckom Kraljevcu,,,"14,000 kn",Kupinecki Kraljevec,,,45.817873,15.975996,,,,,,,,,,,,,,,,,,,,,,1,"14,000.00",Tehnicka dokumentacija,TD,,,,Gradska cetvrt BREZOVICA,Zona 4,,,,,,,,,,,,,,,,,,,,,,,,,
412,,,,,2016-PROGRAM,,Javna rasvjeta,Nove obveze,Ulica Krcevine,,,"150,000 kn",Ulica Krcevine,,,45.840573,15.990517,,,,,,,,,,,,,,,,,,,,,,1,"150,000.00",Gradenje,G,,,,Gradska cetvrt BREZOVICA,Zona 4,,,,,,,,,,,,,,,,,,,,,,,,,
413,,,,,2016-PROGRAM,,Javna rasvjeta,Nove obveze,Ulica Krcevine,,,"10,000 kn",Ulica Krcevine,,,45.840573,15.990517,,,,,,,,,,,,,,,,,,,,,,1,"10,000.00",Nadzor,N,,,,Gradska cetvrt BREZOVICA,Zona 4,,,,,,,,,,,,,,,,,,,,,,,,,
414,,,,,2016-PROGRAM,,Javna rasvjeta,Nove obveze,Vatrogasna cesta u Kupineckom Kraljevcu,,,"150,000 kn",Kupinecki Kraljevec,,,45.817873,15.975996,,,,,,,,,,,,,,,,,,,,,,1,"150,000.00",Gradenje,G,,,,Gradska cetvrt BREZOVICA,Zona 4,,,,,,,,,,,,,,,,,,,,,,,,,
415,,,,,2016-PROGRAM,,Javna rasvjeta,Nove obveze,Vatrogasna cesta u Kupineckom Kraljevcu,,,"10,000 kn",Kupinecki Kraljevec,,,45.817873,15.975996,,,,,,,,,,,,,,,,,,,,,,1,"10,000.00",Nadzor,N,,,,Gradska cetvrt BREZOVICA,Zona 4,,,,,,,,,,,,,,,,,,,,,,,,,
416,,,,,2016-PROGRAM,,Javna rasvjeta,Nove obveze,Okolis OS Brezovica,,,"30,000 kn",Brezovicka cesta 98 a,,,45.867792,16.07668,,,,,,,,,,,,,,,,,,,,,,1,"30,000.00",Tehnicka dokumentacija,TD,,,,Gradska cetvrt BREZOVICA,Zona 4,,,,,,,,,,,,,,,,,,,,,,,,,
417,,,,,2016-PROGRAM,,Javna rasvjeta,Nove obveze,Brezovicka cesta od k.br. 122B do raskirzja s Pekarskom ulicom,,,"30,000 kn",Brezovicka cesta,,,45.867792,16.07668,,,,,,,,,,,,,,,,,,,,,,1,"30,000.00",Tehnicka dokumentacija,TD,,,,Gradska cetvrt BREZOVICA,Zona 4,,,,,,,,,,,,,,,,,,,,,,,,,
418,,,,,2016-PROGRAM,,Javna rasvjeta,Prenesene obveze iz prethodnog razdoblja,Projektiranje javne rasvjete zbog povezivanja vec izgradenih dijelovau cjelinu,,,"12,188 kn",,,,,,,,,,,,,,,,,,,,,,,,,,,1,"12,187.50",Tehnicka dokumentacija,TD,,,,OSTALO,,,,,,,,,,,,,,,,,,,,,,,,,,
419,,,,,2016-PROGRAM,,Javna rasvjeta,Prenesene obveze iz prethodnog razdoblja,Projektiranje javne rasvjete na podrucju Zagreba- hitne intervencije,,,"91,881 kn",,,,,,,,,,,,,,,,,,,,,,,,,,,1,"91,881.25",Tehnicka dokumentacija,TD,,,,OSTALO,,,,,,,,,,,,,,,,,,,,,,,,,,
420,,,,,2016-PROGRAM,,Javna rasvjeta,Prenesene obveze iz prethodnog razdoblja,Specijalisticka mjerenja na instalaciji javne rasvjete,,,"105,738 kn",,,,,,,,,,,,,,,,,,,,,,,,,,,1,"105,737.50",Gradenje,G,,,,OSTALO,,,,,,,,,,,,,,,,,,,,,,,,,,
421,,,,,2016-PROGRAM,,Javna rasvjeta,Prenesene obveze iz prethodnog razdoblja,"Izgradnja javne rasvjete na podrucju gradskih cetvrti Podsused-Vrapce, Crnomerec i Podsljeme zbog povezivanja vec izgradenihdijelova u cjelinu",,,"509,921 kn",,,,,,,,,,,,,,,,,,,,,,,,,,,1,"509,921.13",Gradenje,G,,,,OSTALO,,,,,,,,,,,,,,,,,,,,,,,,,,
422,,,,,2016-PROGRAM,,Javna rasvjeta,Prenesene obveze iz prethodnog razdoblja,"Izgradnja javne rasvjete na podrucju gradskih cetvrti Gornji Grad-Medvescak, Donji Grad i Maksimir zbog povezivanja vec izgradenihdijelova u cjelinu",,,"596,774 kn",,,,,,,,,,,,,,,,,,,,,,,,,,,1,"596,774.13",Gradenje,G,,,,OSTALO,,,,,,,,,,,,,,,,,,,,,,,,,,
423,,,,,2016-PROGRAM,,Javna rasvjeta,Prenesene obveze iz prethodnog razdoblja,"Izgradnja javne rasvjete na podrucju gradskih cetvrti Gornja Dubrava, Donja Dubrava i Sesvete zbog povezivanja vec izgradenih dijelova ucjelinu",,,"585,912 kn",,,,,,,,,,,,,,,,,,,,,,,,,,,1,"585,912.19",Gradenje,G,,,,OSTALO,,,,,,,,,,,,,,,,,,,,,,,,,,
424,,,,,2016-PROGRAM,,Javna rasvjeta,Prenesene obveze iz prethodnog razdoblja,"Izgradnjajavne rasvjete na podrucju gradskih cetvrti Gornja Dubrava, Donja Dubrava i Sesvete zbog povezivanja vec izgradenih dijelova ucjelinu",,,"15,000 kn",,,,,,,,,,,,,,,,,,,,,,,,,,,1,"15,000.00",Nadzor,N,,,,OSTALO,,,,,,,,,,,,,,,,,,,,,,,,,,
425,,,,,2016-PROGRAM,,Javna rasvjeta,Prenesene obveze iz prethodnog razdoblja,Energetski pregled javne rasvjete,,,"211,250 kn",,,,,,,,,,,,,,,,,,,,,,,,,,,1,"211,250.00",Tehnicka dokumentacija,TD,,,,OSTALO,,,,,,,,,,,,,,,,,,,,,,,,,,
426,,,,,2016-PROGRAM,,Javna rasvjeta,Prenesene obveze iz prethodnog razdoblja,Zamjena svjetiljaka javne rasvjete na stupovima nadzemneniskonaponske mreze na podrucju Zagreba- 2015. godina,,,"166,325 kn",,,,,,,,,,,,,,,,,,,,,,,,,,,1,"166,325.40",Gradenje,G,,,,OSTALO,,,,,,,,,,,,,,,,,,,,,,,,,,
427,,,,,2016-PROGRAM,,Javna rasvjeta,Prenesene obveze iz prethodnog razdoblja,Zamjena svjetiljaka javne rasvjete na stupovima nadzemneniskonaponske mreze na podrucju Zagreba- 2015. godina,,,"9,988 kn",,,,,,,,,,,,,,,,,,,,,,,,,,,1,"9,987.50",Nadzor,N,,,,OSTALO,,,,,,,,,,,,,,,,,,,,,,,,,,
428,,,,,2016-PROGRAM,,Javna rasvjeta,Nove obveze,"Izgradnja javne rasvjete na podrucju gradskih cetvrti Podsused-Vrapce, Crnomerec i Podsljeme zbog povezivanja vec izgradenihdijelova u cjelinu",,,"10,000 kn",,,,,,,,,,,,,,,,,,,,,,,,,,,1,"10,000.00",Nadzor,N,,,,OSTALO,,,,,,,,,,,,,,,,,,,,,,,,,,
429,,,,,2016-PROGRAM,,Javna rasvjeta,Nove obveze,"Izgradnja javne rasvjete na podrucju gradskih cetvrti Tresnjevka-sjever, Tresnjevka-jug i Stenjevec zbog povezivanja vec izgradenihdijelova u cjelinu",,,"520,000 kn",,,,,,,,,,,,,,,,,,,,,,,,,,,1,"520,000.00",Gradenje,G,,,,OSTALO,,,,,,,,,,,,,,,,,,,,,,,,,,
430,,,,,2016-PROGRAM,,Javna rasvjeta,Nove obveze,"Izgradnja javne rasvjete na podrucju gradskih cetvrti Tresnjevka-sjever, Tresnjevka-jug i Stenjevec zbog povezivanja vec izgradenihdijelova u cjelinu",,,"10,000 kn",,,,,,,,,,,,,,,,,,,,,,,,,,,1,"10,000.00",Nadzor,N,,,,OSTALO,,,,,,,,,,,,,,,,,,,,,,,,,,
431,,,,,2016-PROGRAM,,Javna rasvjeta,Nove obveze,"Izgradnja javne rasvjete na podrucju gradskih cetvrti Novi Zagreb- istok, Novi Zagreb -zapad i Brezovica, zbog povezivanja vec izgradenih dijelova u cjelinu",,,"520,000 kn",,,,,,,,,,,,,,,,,,,,,,,,,,,1,"520,000.00",Gradenje,G,,,,OSTALO,,,,,,,,,,,,,,,,,,,,,,,,,,
432,,,,,2016-PROGRAM,,Javna rasvjeta,Nove obveze,"Izgradnja javne rasvjete na podrucju gradskih cetvrti Novi Zagreb- istok, Novi Zagreb -zapad i Brezovica, zbog povezivanja vec izgradenih dijelova u cjelinu",,,"10,000 kn",,,,,,,,,,,,,,,,,,,,,,,,,,,1,"10,000.00",Nadzor,N,,,,OSTALO,,,,,,,,,,,,,,,,,,,,,,,,,,
433,,,,,2016-PROGRAM,,Javna rasvjeta,Nove obveze,"Izgradnja javne rasvjete na podrucju gradskih cetvrti Pescenica-Zitnjak i Trnje, zbog povezivanja vec izgradenih dijelova u cjelinu",,,"520,000 kn",,,,,,,,,,,,,,,,,,,,,,,,,,,1,"520,000.00",Gradenje,G,,,,OSTALO,,,,,,,,,,,,,,,,,,,,,,,,,,
434,,,,,2016-PROGRAM,,Javna rasvjeta,Nove obveze,"Izgradnja javne rasvjete na podrucju gradskih cetvrti Pescenica-Zitnjak i Trnje, zbog povezivanja vec izgradenih dijelova u cjelinu",,,"10,000 kn",,,,,,,,,,,,,,,,,,,,,,,,,,,1,"10,000.00",Nadzor,N,,,,OSTALO,,,,,,,,,,,,,,,,,,,,,,,,,,
435,,,,,2016-PROGRAM,,Javna rasvjeta,Nove obveze,Energetski pregled javne rasvjete,,,"500,000 kn",,,,,,,,,,,,,,,,,,,,,,,,,,,1,"500,000.00",Tehnicka dokumentacija,TD,,,,OSTALO,,,,,,,,,,,,,,,,,,,,,,,,,,
436,,,,,2016-PROGRAM,,Javna rasvjeta,Nove obveze,Kontrola projekata javne rasvjete glede mehanicke otpornosti istabilnosti metalnih konstrukcija i armirano-betonskih temeljnihkosntrukcija gradevina.,,,"160,000 kn",,,,,,,,,,,,,,,,,,,,,,,,,,,1,"160,000.00",Tehnicka dokumentacija,TD,,,,OSTALO,,,,,,,,,,,,,,,,,,,,,,,,,,
437,,,,,2016-PROGRAM,,Javna rasvjeta,Nove obveze,Izrada tehnicke dokumentacije javne rasvjete na podrucju grada Zagreba zbog modernizacije i povezivanja vec izgradenih dijelova ucjelinu,,,"100,000 kn",,,,,,,,,,,,,,,,,,,,,,,,,,,1,"100,000.00",Gradenje,G,,,,OSTALO,,,,,,,,,,,,,,,,,,,,,,,,,,
438,,,,,2016-PROGRAM,,Javna rasvjeta,Nove obveze,"Obveze prema HEP-u, prikljucenje javne rasvjete na EE mrezu",,,"10,000 kn",,,,,,,,,,,,,,,,,,,,,,,,,,,1,"10,000.00",Gradenje,G,,,,OSTALO,,,,,,,,,,,,,,,,,,,,,,,,,,
439,,,,,2016-PROGRAM,,Javna rasvjeta,Nove obveze,Izgradnja javne rasvjete na podrucju grada Zagreba- okvirni sporazum,,,"2,000,000 kn",,,,,,,,,,,,,,,,,,,,,,,,,,,1,"2,000,000.00",Gradenje,G,,,,OSTALO,,,,,,,,,,,,,,,,,,,,,,,,,,
440,,,,,2016-PROGRAM,,Javna rasvjeta,Nove obveze,Izgradnja javne rasvjete na podrucju grada Zagreba- okvirni sporazum,,,"60,000 kn",,,,,,,,,,,,,,,,,,,,,,,,,,,1,"60,000.00",Nadzor,N,,,,OSTALO,,,,,,,,,,,,,,,,,,,,,,,,,,